{
"type": "FeatureCollection",
"name": "Zip 33129", 
"features":[
{"type":"Feature","geometry":{"type":"LineString","coordinates":[[-80.20793224714032, 25.75357895524619],[-80.207897, 25.753583],[-80.207247, 25.754032],[-80.207207, 25.754047],[-80.207161, 25.754061]direction: "E","zip":33129,"OID":7424521,"id":144211219,"street":"SW 2nd Ave","miles":0.0599218488147261,"lanes":1,"tessellate":true}},
{"type":"Feature","geometry":{"type":"LineString","coordinates":[[-80.21157092388135, 25.741056241843435],[-80.21204, 25.741368],[-80.21219590585214, 25.74142893782038]direction: "W","zip":33129,"OID":7425880,"id":144247632,"street":"","miles":0.0468022658547495,"lanes":1,"tessellate":true}},
{"type":"Feature","geometry":{"type":"LineString","coordinates":[[-80.20795598258333, 25.751890001244046],[-80.2079, 25.751894],[-80.207844, 25.751912],[-80.207148, 25.752367],[-80.207091, 25.752405],[-80.20708736413347, 25.75240749031954]direction: "E","zip":33129,"OID":7427717,"id":144294697,"street":"SW 1st Ave","miles":0.0691042091096869,"lanes":1,"tessellate":true}},
{"type":"Feature","geometry":{"type":"LineString","coordinates":[[-80.20173279151817, 25.761813650022624],[-80.201728, 25.761817],[-80.201051, 25.76227],[-80.2010090547, 25.762334915345257],[-80.201009, 25.762335],[-80.20091994244102, 25.762390413592254]direction: "N","zip":33129,"OID":7428198,"id":144306416,"street":"SW 4th Ave","miles":0.0645298192867615,"lanes":1,"tessellate":true}},
{"type":"Feature","geometry":{"type":"LineString","coordinates":[[-80.19898989740514, 25.7604114556426],[-80.19894, 25.760446],[-80.198237, 25.760933],[-80.19818102935098, 25.76097260999777]direction: "E","zip":33129,"OID":7431964,"id":144392934,"street":"SW 2nd Ct","miles":0.0635497583122135,"lanes":1,"tessellate":true}},
{"type":"Feature","geometry":{"type":"LineString","coordinates":[[-80.20584948622752, 25.758968040718575],[-80.205835, 25.758978],[-80.205777, 25.759018],[-80.205081, 25.759497],[-80.20502, 25.759539],[-80.20501938464595, 25.75953942601435]direction: "N","zip":33129,"OID":7432574,"id":144406528,"street":"SW 4th Ave","miles":0.0650334436910716,"lanes":1,"tessellate":true}},
{"type":"Feature","geometry":{"type":"LineString","coordinates":[[-80.212593, 25.760897],[-80.212631, 25.760809],[-80.212631, 25.760756],[-80.212629, 25.760725],[-80.212619, 25.760692],[-80.212601, 25.760661],[-80.212478, 25.760509],[-80.212285, 25.76029],[-80.21221931522658, 25.760210791890884]direction: "S","zip":33129,"OID":7433230,"id":144420818,"street":"SW 26th Rd","miles":0.054714261565811,"lanes":1,"tessellate":true}},
{"type":"Feature","geometry":{"type":"LineString","coordinates":[[-80.2061456022174, 25.75180581251881],[-80.205857, 25.752028],[-80.205646, 25.752186],[-80.205528, 25.752269]direction: "E","zip":33129,"OID":7433686,"id":144430984,"street":"S Miami Ct","miles":0.047193953181796,"lanes":1,"tessellate":true}},
{"type":"Feature","geometry":{"type":"LineString","coordinates":[[-80.213569, 25.753617],[-80.213531, 25.753594],[-80.213486, 25.753564],[-80.21343, 25.75353],[-80.212608, 25.752558],[-80.21256389216437, 25.752504090423127]direction: "S","zip":33129,"OID":7434595,"id":144449885,"street":"SW 31st Rd","miles":0.0973830942814438,"lanes":1,"tessellate":true}},
{"type":"Feature","geometry":{"type":"LineString","coordinates":[[-80.19936696235614, 25.760174023628764],[-80.199042, 25.760378],[-80.19899216279379, 25.76040989581198]direction: "E","zip":33129,"OID":7435938,"id":144478210,"street":"SW 2nd Ct","miles":0.0306100499456465,"lanes":1,"tessellate":true}},
{"type":"Feature","geometry":{"type":"LineString","coordinates":[[-80.212883, 25.75112],[-80.212707, 25.751125],[-80.211527, 25.751163],[-80.211459, 25.751186]direction: "E","zip":33129,"OID":7436227,"id":144486991,"street":"SW 22nd St","miles":0.0893271340112511,"lanes":1,"tessellate":true}},
{"type":"Feature","geometry":{"type":"LineString","coordinates":[[-80.21270960751332, 25.754290777606005],[-80.212702, 25.754296],[-80.21261, 25.754358],[-80.21206055511834, 25.754736617472993]direction: "E","zip":33129,"OID":7436294,"id":144488124,"street":"SW 4th Ave","miles":0.0593330135429274,"lanes":1,"tessellate":true}},
{"type":"Feature","geometry":{"type":"LineString","coordinates":[[-80.20367553485565, 25.75476652026536],[-80.203662, 25.754776],[-80.20359832772107, 25.75482008080849]direction: "E","zip":33129,"OID":7436315,"id":144488292,"street":"SW 1st Ave","miles":0.00605961770248291,"lanes":1,"tessellate":true}},
{"type":"Feature","geometry":{"type":"LineString","coordinates":[[-80.21308346694704, 25.759618223605298],[-80.213022, 25.759547],[-80.212181, 25.758542],[-80.212126, 25.758477],[-80.21212043957999, 25.758470327495996]direction: "S","zip":33129,"OID":7437188,"id":144507669,"street":"SW 27th Rd","miles":0.0994089612488262,"lanes":1,"tessellate":true}},
{"type":"Feature","geometry":{"type":"LineString","coordinates":[[-80.213375, 25.753834],[-80.21270960751389, 25.75429077760562]direction: "E","zip":33129,"OID":7437189,"id":144507670,"street":"SW 4th Ave","miles":0.0622136658950149,"lanes":1,"tessellate":true}},
{"type":"Feature","geometry":{"type":"LineString","coordinates":[[-80.20034773156391, 25.757057379006742],[-80.200331, 25.757069],[-80.199371, 25.757733],[-80.1990326790164, 25.757963192036616]direction: "E","zip":33129,"OID":7438074,"id":144528079,"street":"SW 1st Ave","miles":0.103030003862677,"lanes":1,"tessellate":true}},
{"type":"Feature","geometry":{"type":"LineString","coordinates":[[-80.20441646872474, 25.754247574467428],[-80.20367553485579, 25.754766520265253]direction: "E","zip":33129,"OID":7441621,"id":144604728,"street":"SW 1st Ave","miles":0.0584078064532208,"lanes":1,"tessellate":true}},
{"type":"Feature","geometry":{"type":"LineString","coordinates":[[-80.20671591518028, 25.7583655688319],[-80.206696, 25.758379],[-80.206628, 25.758427],[-80.20662702892811, 25.75842772136769]direction: "N","zip":33129,"OID":7441767,"id":144607966,"street":"SW 4th Ave","miles":0.00696790172842686,"lanes":1,"tessellate":true}},
{"type":"Feature","geometry":{"type":"LineString","coordinates":[[-80.212554, 25.752492],[-80.21245, 25.752369]direction: "S","zip":33129,"OID":7443286,"id":144640398,"street":"SW 31st Rd","miles":0.0126101820298048,"lanes":1,"tessellate":true}},
{"type":"Feature","geometry":{"type":"LineString","coordinates":[[-80.214215, 25.754285],[-80.214137, 25.754284],[-80.214106, 25.754279],[-80.214075, 25.75427],[-80.214052, 25.754261],[-80.214034, 25.754244],[-80.213703, 25.753858],[-80.213684, 25.753806],[-80.213669, 25.75377],[-80.213655, 25.753725]direction: "S","zip":33129,"OID":7443881,"id":144651347,"street":"SW 31st Rd","miles":0.0525899986980695,"lanes":1,"tessellate":true}},
{"type":"Feature","geometry":{"type":"LineString","coordinates":[[-80.20699830239359, 25.75246855443303],[-80.206319, 25.752936],[-80.206269, 25.752971],[-80.206216, 25.753006],[-80.20619228324105, 25.753022329571735]direction: "E","zip":33129,"OID":7445415,"id":144682770,"street":"SW 1st Ave","miles":0.06312654779377,"lanes":1,"tessellate":true}},
{"type":"Feature","geometry":{"type":"LineString","coordinates":[[-80.210976, 25.750596],[-80.210523, 25.750774],[-80.210173, 25.750928],[-80.20997, 25.75103],[-80.20995546771724, 25.751038217839735]direction: "E","zip":33129,"OID":7445850,"id":144692158,"street":"SW 1st Ave","miles":0.0707755545429025,"lanes":1,"tessellate":true}},
{"type":"Feature","geometry":{"type":"LineString","coordinates":[[-80.210586, 25.751777],[-80.2097462810489, 25.752358420603915]direction: "E","zip":33129,"OID":7445972,"id":144695362,"street":"SW 2nd Ave","miles":0.0667819485292317,"lanes":1,"tessellate":true}},
{"type":"Feature","geometry":{"type":"LineString","coordinates":[[-80.20662702892892, 25.758427721367088],[-80.206593, 25.758453],[-80.206516, 25.75851],[-80.205899, 25.758934],[-80.20584948622746, 25.758968040718617]direction: "N","zip":33129,"OID":7446374,"id":144703851,"street":"SW 4th Ave","miles":0.0611553563429197,"lanes":1,"tessellate":true}},
{"type":"Feature","geometry":{"type":"LineString","coordinates":[[-80.21052277460493, 25.748419524103653],[-80.210485, 25.748445],[-80.210358, 25.748532],[-80.20968316516456, 25.748993677398335]direction: "E","zip":33129,"OID":7446924,"id":144713542,"street":"SW Miami Ct","miles":0.0656484836971884,"lanes":1,"tessellate":true}},
{"type":"Feature","geometry":{"type":"LineString","coordinates":[[-80.21017506775625, 25.749596045301992],[-80.209671, 25.749002],[-80.20966790131126, 25.748998223307577]direction: "S","zip":33129,"OID":7448821,"id":144750671,"street":"SW 31st Rd","miles":0.0524074680659382,"lanes":1,"tessellate":true}},
{"type":"Feature","geometry":{"type":"LineString","coordinates":[[-80.20197987036683, 25.755931825538486],[-80.201908, 25.755981],[-80.20116936034978, 25.75648924736307]direction: "E","zip":33129,"OID":7448987,"id":144754413,"street":"SW 1st Ave","miles":0.0634775671461719,"lanes":1,"tessellate":true}},
{"type":"Feature","geometry":{"type":"LineString","coordinates":[[-80.2007800909319, 25.76247770757117],[-80.200762, 25.762489],[-80.20067, 25.762585]direction: "N","zip":33129,"OID":7449100,"id":144756480,"street":"SW 4th Ave","miles":0.0110996122207769,"lanes":1,"tessellate":true}},
{"type":"Feature","geometry":{"type":"LineString","coordinates":[[-80.20787418860175, 25.761395465057294],[-80.20786, 25.761405],[-80.207061532338, 25.761963829150897]direction: "E","zip":33129,"OID":7449267,"id":144759704,"street":"SW 7th Ave","miles":0.0640365888364538,"lanes":1,"tessellate":true}},
{"type":"Feature","geometry":{"type":"LineString","coordinates":[[-80.21145898664918, 25.751186008237745],[-80.211412, 25.751215],[-80.21059723366557, 25.7517693567554]direction: "E","zip":33129,"OID":7449593,"id":144766687,"street":"SW 22nd St","miles":0.0675594968802605,"lanes":1,"tessellate":true}},
{"type":"Feature","geometry":{"type":"LineString","coordinates":[[-80.20882, 25.752859],[-80.208229, 25.752148],[-80.20821618158817, 25.752133310792924]direction: "S","zip":33129,"OID":7450674,"id":144787985,"street":"SW 28th Rd","miles":0.0631311930734404,"lanes":1,"tessellate":true}},
{"type":"Feature","geometry":{"type":"LineString","coordinates":[[-80.20728799221177, 25.75098201797283],[-80.207275, 25.751012],[-80.207242, 25.75104],[-80.206597, 25.751481],[-80.206476, 25.751564],[-80.20641888041507, 25.751602363900314]direction: "E","zip":33129,"OID":7452660,"id":144828977,"street":"SW 1st Ave","miles":0.0719212598261359,"lanes":1,"tessellate":true}},
{"type":"Feature","geometry":{"type":"LineString","coordinates":[[-80.197227, 25.760423],[-80.19722101373945, 25.76057964048424]direction: "N","zip":33129,"OID":7452795,"id":144832349,"street":"SW 2nd Ave","miles":0.0102693995892418,"lanes":1.641,"tessellate":true}},
{"type":"Feature","geometry":{"type":"LineString","coordinates":[[-80.2011693603271, 25.756489247378674],[-80.201161, 25.756495],[-80.201084, 25.756546],[-80.20034773172846, 25.757057378892455]direction: "E","zip":33129,"OID":7455168,"id":144880611,"street":"SW 1st Ave","miles":0.064458078485888,"lanes":1,"tessellate":true}},
{"type":"Feature","geometry":{"type":"LineString","coordinates":[[-80.208588, 25.760833],[-80.208555, 25.760875],[-80.208517, 25.760921],[-80.208469, 25.760964],[-80.208421, 25.761028],[-80.20842096725808, 25.761028022003035],[-80.20787418862338, 25.76139546504275]direction: "E","zip":33129,"OID":7456588,"id":144910158,"street":"SW 7th Ave","miles":0.0570707208623107,"lanes":1,"tessellate":true}},
{"type":"Feature","geometry":{"type":"LineString","coordinates":[[-80.20966790131165, 25.748998223308035],[-80.20908635604812, 25.748289433952667]direction: "S","zip":33129,"OID":7456589,"id":144910159,"street":"SW 31st Rd","miles":0.0612754995476077,"lanes":1,"tessellate":true}},
{"type":"Feature","geometry":{"type":"LineString","coordinates":[[-80.21064298443709, 25.748338010555713],[-80.210528, 25.748416],[-80.21052277461999, 25.748419524093492]direction: "E","zip":33129,"OID":7457411,"id":144925814,"street":"SW Miami Ct","miles":0.0112165056852284,"lanes":1,"tessellate":true}},
{"type":"Feature","geometry":{"type":"LineString","coordinates":[[-80.21107741333178, 25.757222830947104],[-80.211053, 25.75714],[-80.210293, 25.756235],[-80.210266, 25.756199],[-80.21024, 25.756161],[-80.21022471497052, 25.75612492733043]direction: "S","zip":33129,"OID":7458576,"id":144947656,"street":"SW 27th Rd","miles":0.0937369675129226,"lanes":1,"tessellate":true}},
{"type":"Feature","geometry":{"type":"LineString","coordinates":[[-80.20974628104057, 25.75235842060968],[-80.209744, 25.75236],[-80.20898406847483, 25.75287389625331]direction: "E","zip":33129,"OID":7458760,"id":144950859,"street":"SW 2nd Ave","miles":0.0593256660722504,"lanes":1,"tessellate":true}},
{"type":"Feature","geometry":{"type":"LineString","coordinates":[[-80.19835668820379, 25.759639369705077],[-80.19835, 25.759644],[-80.198285, 25.759685],[-80.198241, 25.759715],[-80.197392, 25.760303],[-80.197318, 25.760354],[-80.197293, 25.760372],[-80.19724715862895, 25.760407422877623]direction: "N","zip":33129,"OID":7459562,"id":144966062,"street":"SW 2nd Ave","miles":0.0871194155150036,"lanes":1.641,"tessellate":true}},
{"type":"Feature","geometry":{"type":"LineString","coordinates":[[-80.2061894210247, 25.76241736286031],[-80.206155, 25.762392],[-80.206119, 25.762367],[-80.20604345989341, 25.762316308612682],[-80.206043, 25.762316],[-80.205336, 25.761472],[-80.205309, 25.761413],[-80.205288, 25.761379],[-80.205271, 25.761346],[-80.205258, 25.761309]direction: "S","zip":33129,"OID":7459697,"id":144968836,"street":"SW 20th Rd","miles":0.0951533001883637,"lanes":1,"tessellate":true}},
{"type":"Feature","geometry":{"type":"LineString","coordinates":[[-80.20359832771082, 25.754820080815584],[-80.203597, 25.754821],[-80.203545, 25.754856],[-80.20281471778895, 25.755355718857153]direction: "E","zip":33129,"OID":7460303,"id":144980277,"street":"SW 1st Ave","miles":0.0612217828348145,"lanes":1,"tessellate":true}},
{"type":"Feature","geometry":{"type":"LineString","coordinates":[[-80.20995546771724, 25.751038217839735],[-80.209489, 25.751302],[-80.2090783584459, 25.75155817124988]direction: "E","zip":33129,"OID":7460527,"id":144985524,"street":"SW 1st Ave","miles":0.0653626961838152,"lanes":1,"tessellate":true}},
{"type":"Feature","geometry":{"type":"LineString","coordinates":[[-80.1993808036014, 25.758920961591798],[-80.198453, 25.759572],[-80.198402, 25.759608],[-80.19835668820559, 25.759639369703827]direction: "N","zip":33129,"OID":7460528,"id":144985525,"street":"SW 2nd Ave","miles":0.0807924960115251,"lanes":1.641,"tessellate":true}},
{"type":"Feature","geometry":{"type":"LineString","coordinates":[[-80.20528288899871, 25.753655245537736],[-80.205194, 25.753717],[-80.20449962863105, 25.754191733333087]direction: "E","zip":33129,"OID":7460657,"id":144987400,"street":"SW 1st Ave","miles":0.0612221620896925,"lanes":1,"tessellate":true}},
{"type":"Feature","geometry":{"type":"LineString","coordinates":[[-80.196472, 25.76013],[-80.196544, 25.760028]direction: "W","zip":33129,"OID":7461119,"id":144996575,"street":"SW 1st Ave","miles":0.0105850593501207,"lanes":1,"tessellate":true}},
{"type":"Feature","geometry":{"type":"LineString","coordinates":[[-80.21378147983175, 25.751077335963448],[-80.213734, 25.751087],[-80.213656, 25.751104],[-80.213437, 25.751108],[-80.2134200078698, 25.751108320606228]direction: "E","zip":33129,"OID":7464294,"id":145060661,"street":"SW 22nd St","miles":0.0225732266395669,"lanes":1,"tessellate":true}},
{"type":"Feature","geometry":{"type":"LineString","coordinates":[[-80.204841, 25.749816],[-80.20572013345779, 25.749745133032814]direction: "W","zip":33129,"OID":7464794,"id":145071073,"street":"Brickell Ct","miles":0.0412183872490806,"lanes":1,"tessellate":true}},
{"type":"Feature","geometry":{"type":"LineString","coordinates":[[-80.20449962863105, 25.754191733333087],[-80.204489, 25.754199],[-80.204423, 25.754243]direction: "E","zip":33129,"OID":7466501,"id":145106586,"street":"SW 1st Ave","miles":0.00647846323431398,"lanes":1,"tessellate":true}},
{"type":"Feature","geometry":{"type":"LineString","coordinates":[[-80.20501938464726, 25.759539426013443],[-80.204955, 25.759584],[-80.204208, 25.760105],[-80.20420098327372, 25.760109764340392]direction: "N","zip":33129,"OID":7467701,"id":145129331,"street":"SW 4th Ave","miles":0.0643932685679108,"lanes":1,"tessellate":true}},
{"type":"Feature","geometry":{"type":"LineString","coordinates":[[-80.20821618158818, 25.752133310792942],[-80.208044, 25.751936],[-80.208001, 25.751901],[-80.20795667454021, 25.75189016488761]direction: "S","zip":33129,"OID":7471089,"id":145196829,"street":"SW 28th Rd","miles":0.0229691473991899,"lanes":1,"tessellate":true}},
{"type":"Feature","geometry":{"type":"LineString","coordinates":[[-80.2042009832738, 25.760109764340346],[-80.20337828448422, 25.760668374854994]direction: "N","zip":33129,"OID":7471921,"id":145212784,"street":"SW 4th Ave","miles":0.0641220776266578,"lanes":1,"tessellate":true}},
{"type":"Feature","geometry":{"type":"LineString","coordinates":[[-80.20254563495764, 25.761245352660552],[-80.20173279151314, 25.761813650026138]direction: "N","zip":33129,"OID":7472422,"id":145222436,"street":"SW 4th Ave","miles":0.0640366362433134,"lanes":1,"tessellate":true}},
{"type":"Feature","geometry":{"type":"LineString","coordinates":[[-80.2090783584571, 25.75155817124288],[-80.209061, 25.751569],[-80.208652, 25.751854],[-80.208369, 25.752051],[-80.20823284302699, 25.752145337331296]direction: "E","zip":33129,"OID":7476219,"id":145299204,"street":"SW 1st Ave","miles":0.0664477823154745,"lanes":1,"tessellate":true}},
{"type":"Feature","geometry":{"type":"LineString","coordinates":[[-80.20619228324105, 25.753022329571735],[-80.206155, 25.753048],[-80.206078, 25.753102],[-80.2052893950823, 25.753650725094822]direction: "E","zip":33129,"OID":7477254,"id":145319170,"street":"SW 1st Ave","miles":0.0715049375244155,"lanes":1,"tessellate":true}},
{"type":"Feature","geometry":{"type":"LineString","coordinates":[[-80.198072, 25.761063],[-80.198172, 25.760979]direction: "W","zip":33129,"OID":7479658,"id":145365767,"street":"SW 2nd Ct","miles":0.0111190229595053,"lanes":1,"tessellate":true}},
{"type":"Feature","geometry":{"type":"LineString","coordinates":[[-80.20281471778841, 25.755355718857523],[-80.202807, 25.755361],[-80.202729, 25.755413],[-80.201984, 25.755929],[-80.20197987037814, 25.755931825530745]direction: "E","zip":33129,"OID":7480751,"id":145389282,"street":"SW 1st Ave","miles":0.0654481517892172,"lanes":1,"tessellate":true}},
{"type":"Feature","geometry":{"type":"LineString","coordinates":[[-80.20337828449473, 25.76066837484785],[-80.20337, 25.760674],[-80.202549, 25.761243],[-80.20254563494525, 25.761245352669217]direction: "N","zip":33129,"OID":7482597,"id":145429710,"street":"SW 4th Ave","miles":0.0653716323768802,"lanes":1,"tessellate":true}},
{"type":"Feature","geometry":{"type":"LineString","coordinates":[[-80.21419008001325, 25.75297005861373],[-80.214095, 25.752971],[-80.214061, 25.752971],[-80.214032, 25.752963],[-80.214003, 25.752942],[-80.213941, 25.752867],[-80.213285, 25.752085],[-80.21323253978463, 25.752028653842757]direction: "S","zip":33129,"OID":7482598,"id":145429711,"street":"SW 32nd Rd","miles":0.0912442668273321,"lanes":1,"tessellate":true}},
{"type":"Feature","geometry":{"type":"LineString","coordinates":[[-80.19769998640686, 25.758883009799703],[-80.197614, 25.758945],[-80.197515, 25.759023],[-80.197359, 25.759151],[-80.197231, 25.759262],[-80.1971, 25.759382],[-80.197038, 25.759447],[-80.196949, 25.759538],[-80.196863, 25.759637],[-80.196841, 25.759662],[-80.196735, 25.759785],[-80.196588, 25.759971],[-80.19655511498794, 25.76001360103835]direction: "E","zip":33129,"OID":7488105,"id":145558014,"street":"SW 1st Ave","miles":0.108444026060171,"lanes":1,"tessellate":true}},
{"type":"Feature","geometry":{"type":"LineString","coordinates":[[-80.206603, 25.763108],[-80.206593, 25.76302],[-80.206567, 25.762957],[-80.206431, 25.762777],[-80.206389, 25.762693],[-80.206366, 25.762653],[-80.206347, 25.762613],[-80.206329, 25.762559]direction: "S","zip":33129,"OID":7491368,"id":145631583,"street":"SW 20th Rd","miles":0.0399238979068356,"lanes":1,"tessellate":true}},
{"type":"Feature","geometry":{"type":"LineString","coordinates":[[-80.20880599341017, 25.75300300445533],[-80.208028, 25.753529],[-80.20802532510257, 25.753530796002565]direction: "E","zip":33129,"OID":7493596,"id":145681521,"street":"SW 2nd Ave","miles":0.0612205656636901,"lanes":1,"tessellate":true}},
{"type":"Feature","geometry":{"type":"LineString","coordinates":[[-80.207061532338, 25.761963829150897],[-80.207047, 25.761974],[-80.206449, 25.762383],[-80.206371, 25.762414],[-80.206315, 25.762433],[-80.206264, 25.762449]direction: "E","zip":33129,"OID":7495116,"id":145714696,"street":"SW 7th Ave","miles":0.0579253776559091,"lanes":1,"tessellate":true}},
{"type":"Feature","geometry":{"type":"LineString","coordinates":[[-80.21212043958002, 25.758470327496028],[-80.212071, 25.758411],[-80.212037, 25.758371],[-80.211124, 25.757287],[-80.21108135785911, 25.757235432759867]direction: "S","zip":33129,"OID":7495846,"id":145731877,"street":"SW 27th Rd","miles":0.10755167725755,"lanes":1,"tessellate":true}},
{"type":"Feature","geometry":{"type":"LineString","coordinates":[[-80.19772374871467, 25.75886640843222],[-80.197773, 25.758832],[-80.198064, 25.758626],[-80.198764, 25.758146],[-80.19903236031902, 25.757963408876837]direction: "W","zip":33129,"OID":7506403,"id":146006612,"street":"SW 1st Ave","miles":0.102608753617885,"lanes":1,"tessellate":true}},
{"type":"Feature","geometry":{"type":"LineString","coordinates":[[-80.210125, 25.755984],[-80.210088, 25.755962],[-80.210057, 25.755938],[-80.210032, 25.755915],[-80.209415, 25.755184],[-80.20919, 25.754917],[-80.209138, 25.754855],[-80.20913427414867, 25.754850647369945]direction: "S","zip":33129,"OID":7507070,"id":146020834,"street":"SW 27th Rd","miles":0.0981301215035735,"lanes":1,"tessellate":true}},
{"type":"Feature","geometry":{"type":"LineString","coordinates":[[-80.206234, 25.762629],[-80.206283, 25.76266],[-80.206316, 25.762684],[-80.206356, 25.762717],[-80.206431, 25.762777],[-80.206567, 25.762957],[-80.206593, 25.76302],[-80.206603, 25.763108]direction: "N","zip":33129,"OID":7508860,"id":146059808,"street":"SW 20th Rd","miles":0.0399238979068356,"lanes":1,"tessellate":true}},
{"type":"Feature","geometry":{"type":"LineString","coordinates":[[-80.21438914510394, 25.751034317646695],[-80.21428, 25.751041],[-80.214274, 25.751042],[-80.213898, 25.751061],[-80.213847, 25.751064],[-80.21378147983071, 25.75107733596366]direction: "E","zip":33129,"OID":7511050,"id":146103236,"street":"SW 22nd St","miles":0.0380178742957534,"lanes":1,"tessellate":true}},
{"type":"Feature","geometry":{"type":"LineString","coordinates":[[-80.203851, 25.752043],[-80.203925, 25.75213],[-80.204069, 25.752305],[-80.204111, 25.752356],[-80.204178, 25.752437],[-80.204482, 25.752804],[-80.204496, 25.752822],[-80.20459594239819, 25.752865776422347]direction: "N","zip":33129,"OID":7511432,"id":146110892,"street":"SW 25th Rd","miles":0.0736686363810335,"lanes":1.507,"tessellate":true}},
{"type":"Feature","geometry":{"type":"LineString","coordinates":[[-80.20897844460511, 25.752878839809636],[-80.208978, 25.752878],[-80.208953, 25.752856],[-80.20892168007113, 25.75284131878334]direction: "O","zip":33129,"OID":7511872,"id":146118646,"street":"","miles":0.0111569176328539,"lanes":1,"tessellate":true}},
{"type":"Feature","geometry":{"type":"LineString","coordinates":[[-80.209325287965, 25.756674515452733],[-80.209355, 25.756654],[-80.209708, 25.756408],[-80.209909, 25.756268],[-80.209962, 25.756232],[-80.209998, 25.756211],[-80.21004, 25.756194],[-80.21009665807846, 25.75617411997247]direction: "W","zip":33129,"OID":7513093,"id":146144468,"street":"SW 4th Ave","miles":0.0570013776633692,"lanes":1,"tessellate":true}},
{"type":"Feature","geometry":{"type":"LineString","coordinates":[[-80.212075, 25.750113],[-80.212039, 25.750167],[-80.211994, 25.750211],[-80.211892, 25.750263],[-80.211147, 25.750532],[-80.211065, 25.750563],[-80.210976, 25.750596]direction: "E","zip":33129,"OID":7513435,"id":146152440,"street":"SW 1st Ave","miles":0.0633726848022262,"lanes":1,"tessellate":true}},
{"type":"Feature","geometry":{"type":"LineString","coordinates":[[-80.213659, 25.753706],[-80.213688, 25.75367],[-80.213711, 25.75364],[-80.213744, 25.753606],[-80.213805, 25.753536],[-80.21398, 25.753413],[-80.214085, 25.753352],[-80.21419426989839, 25.75329168301609]direction: "W","zip":33129,"OID":7513505,"id":146153315,"street":"SW 4th Ave","miles":0.0417302059291001,"lanes":1,"tessellate":true}},
{"type":"Feature","geometry":{"type":"LineString","coordinates":[[-80.205289, 25.753651],[-80.206078, 25.753102],[-80.206155, 25.753048],[-80.2061923625671, 25.753022274953803]direction: "W","zip":33129,"OID":7513911,"id":146161099,"street":"SW 1st Ave","miles":0.0715049375244155,"lanes":1,"tessellate":true}},
{"type":"Feature","geometry":{"type":"LineString","coordinates":[[-80.20177732618396, 25.761857540796044],[-80.20258678569792, 25.76129691877544]direction: "S","zip":33129,"OID":7514513,"id":146173293,"street":"SW 4th Ave","miles":0.0635419029955516,"lanes":1,"tessellate":true}},
{"type":"Feature","geometry":{"type":"LineString","coordinates":[[-80.20342717206445, 25.76072731594073],[-80.2042415851286, 25.760160852943045]direction: "S","zip":33129,"OID":7514590,"id":146175182,"street":"SW 4th Ave","miles":0.0640370060168198,"lanes":1,"tessellate":true}},
{"type":"Feature","geometry":{"type":"LineString","coordinates":[[-80.20823300131016, 25.752145227663675],[-80.208369, 25.752051],[-80.208652, 25.751854],[-80.209061, 25.751569],[-80.20907844053976, 25.751558120037117]direction: "W","zip":33129,"OID":7514806,"id":146179464,"street":"SW 1st Ave","miles":0.0664477823154745,"lanes":1,"tessellate":true}},
{"type":"Feature","geometry":{"type":"LineString","coordinates":[[-80.20852945154326, 25.747081305523672],[-80.208262, 25.747265],[-80.207906, 25.74751],[-80.20789575711748, 25.747517068187925]direction: "N","zip":33129,"OID":7515750,"id":146200711,"street":"Brickell Ave","miles":0.0496127957576387,"lanes":1,"tessellate":true}},
{"type":"Feature","geometry":{"type":"LineString","coordinates":[[-80.210976, 25.750596],[-80.211459, 25.751186]direction: "N","zip":33129,"OID":7515785,"id":146200912,"street":"SW 31st Rd","miles":0.0523885669509522,"lanes":1,"tessellate":true}},
{"type":"Feature","geometry":{"type":"LineString","coordinates":[[-80.207956, 25.75189],[-80.208001, 25.751901],[-80.208044, 25.751936],[-80.20821568797736, 25.752132745141612]direction: "W","zip":33129,"OID":7515862,"id":146202214,"street":"SW 1st Ave","miles":0.0229691473991899,"lanes":1,"tessellate":true}},
{"type":"Feature","geometry":{"type":"LineString","coordinates":[[-80.20197963184611, 25.755931988736865],[-80.201984, 25.755929],[-80.202729, 25.755413],[-80.202807, 25.755361],[-80.20281447926655, 25.75535588207371]direction: "W","zip":33129,"OID":7516122,"id":146207546,"street":"SW 1st Ave","miles":0.0654481517892172,"lanes":1,"tessellate":true}},
{"type":"Feature","geometry":{"type":"LineString","coordinates":[[-80.20711700342886, 25.754057199588537],[-80.207102, 25.754059],[-80.207077, 25.754067],[-80.207056, 25.75408],[-80.207039, 25.754098],[-80.20703164071159, 25.754112049550574]direction: "O","zip":33129,"OID":7516281,"id":146210663,"street":"","miles":0.00524320935592402,"lanes":1,"tessellate":true}},
{"type":"Feature","geometry":{"type":"LineString","coordinates":[[-80.2061923625671, 25.753022274953803],[-80.206216, 25.753006],[-80.206269, 25.752971],[-80.206319, 25.752936],[-80.20699877845067, 25.75246822684582]direction: "W","zip":33129,"OID":7517492,"id":146233990,"street":"SW 1st Ave","miles":0.06312654779377,"lanes":1,"tessellate":true}},
{"type":"Feature","geometry":{"type":"LineString","coordinates":[[-80.21146519754704, 25.751193392175388],[-80.212398, 25.752306],[-80.21244168431518, 25.752358925228013]direction: "N","zip":33129,"OID":7517807,"id":146238784,"street":"SW 31st Rd","miles":0.100890198063378,"lanes":1,"tessellate":true}},
{"type":"Feature","geometry":{"type":"LineString","coordinates":[[-80.20895762499099, 25.75301418243681],[-80.208958, 25.753014],[-80.208985, 25.752985],[-80.208998, 25.75295],[-80.208996, 25.752912],[-80.20897844460512, 25.75287883980966]direction: "O","zip":33129,"OID":7517885,"id":146240256,"street":"","miles":0.0106282730731343,"lanes":1,"tessellate":true}},
{"type":"Feature","geometry":{"type":"LineString","coordinates":[[-80.198172, 25.760979],[-80.198072, 25.761063]direction: "E","zip":33129,"OID":7517948,"id":146241027,"street":"SW 2nd Ct","miles":0.0111190229595053,"lanes":1,"tessellate":true}},
{"type":"Feature","geometry":{"type":"LineString","coordinates":[[-80.20574358469305, 25.74972352274853],[-80.205467, 25.749392]direction: "S","zip":33129,"OID":7518578,"id":146251985,"street":"Brickell Ct","miles":0.0302614353062059,"lanes":1,"tessellate":true}},
{"type":"Feature","geometry":{"type":"LineString","coordinates":[[-80.21323234731155, 25.752028447112412],[-80.213285, 25.752085],[-80.213941, 25.752867],[-80.214003, 25.752942],[-80.214032, 25.752963],[-80.214061, 25.752971],[-80.214095, 25.752971],[-80.21418988032599, 25.752970060590833]direction: "N","zip":33129,"OID":7518828,"id":146256167,"street":"SW 32nd Rd","miles":0.0912442668273321,"lanes":1,"tessellate":true}},
{"type":"Feature","geometry":{"type":"LineString","coordinates":[[-80.20258678571174, 25.761296918765858],[-80.202591, 25.761294],[-80.203419, 25.760733],[-80.20342717205813, 25.76072731594513]direction: "S","zip":33129,"OID":7518829,"id":146256169,"street":"SW 4th Ave","miles":0.0654462602555128,"lanes":1,"tessellate":true}},
{"type":"Feature","geometry":{"type":"LineString","coordinates":[[-80.20907844052866, 25.75155812004404],[-80.209489, 25.751302],[-80.20995563684313, 25.75103812220097]direction: "W","zip":33129,"OID":7519010,"id":146259029,"street":"SW 1st Ave","miles":0.0653626961838152,"lanes":1,"tessellate":true}},
{"type":"Feature","geometry":{"type":"LineString","coordinates":[[-80.20281447926712, 25.75535588207332],[-80.203545, 25.754856],[-80.203597, 25.754821],[-80.20359809021292, 25.75482024523721]direction: "W","zip":33129,"OID":7519035,"id":146259189,"street":"SW 1st Ave","miles":0.0612217828348145,"lanes":1,"tessellate":true}},
{"type":"Feature","geometry":{"type":"LineString","coordinates":[[-80.21290581248076, 25.75114652814997],[-80.21288306796916, 25.751120079039893],[-80.212883, 25.75112],[-80.2125, 25.750657],[-80.212301, 25.750416],[-80.21226410115771, 25.75038599434803]direction: "S","zip":33129,"OID":7519239,"id":146263342,"street":"SW 32nd Rd","miles":0.0659192645691045,"lanes":1.327,"tessellate":true}},
{"type":"Feature","geometry":{"type":"LineString","coordinates":[[-80.20614832487549, 25.762593262399427],[-80.206174, 25.762614],[-80.206206, 25.762626],[-80.206234, 25.762629],[-80.206266, 25.762623],[-80.206294, 25.762608],[-80.20631562106453, 25.762586378935463]direction: "O","zip":33129,"OID":7519286,"id":146263772,"street":"","miles":0.0115944047271138,"lanes":1,"tessellate":true}},
{"type":"Feature","geometry":{"type":"LineString","coordinates":[[-80.205182, 25.76136],[-80.205216, 25.761383],[-80.20525, 25.761404],[-80.205282, 25.761432],[-80.205336, 25.761472],[-80.206043, 25.762316],[-80.206079, 25.762392],[-80.206095, 25.762426],[-80.206114, 25.762467],[-80.206129, 25.762514]direction: "N","zip":33129,"OID":7519774,"id":146272292,"street":"SW 20th Rd","miles":0.0951533001883637,"lanes":1,"tessellate":true}},
{"type":"Feature","geometry":{"type":"LineString","coordinates":[[-80.20179332839989, 25.7496016465639],[-80.201924, 25.749753],[-80.20219211258072, 25.750075286013118]direction: "N","zip":33129,"OID":7520049,"id":146276995,"street":"SE 25th Rd","miles":0.0410970304287827,"lanes":1,"tessellate":true}},
{"type":"Feature","geometry":{"type":"LineString","coordinates":[[-80.20620103515273, 25.754657999049925],[-80.206201, 25.754658],[-80.206163, 25.754669],[-80.20613, 25.75469],[-80.206106, 25.754719],[-80.20610599843396, 25.75471900492189]direction: "O","zip":33129,"OID":7520265,"id":146280484,"street":"","miles":0.00793387397684044,"lanes":1,"tessellate":true}},
{"type":"Feature","geometry":{"type":"LineString","coordinates":[[-80.20625465078096, 25.75489001396876],[-80.206255, 25.75489],[-80.206291, 25.754876],[-80.206322, 25.754853],[-80.206343, 25.754823],[-80.20635268165606, 25.75479395503182]direction: "O","zip":33129,"OID":7520266,"id":146280485,"street":"","miles":0.00937633849855239,"lanes":1,"tessellate":true}},
{"type":"Feature","geometry":{"type":"LineString","coordinates":[[-80.20898462741332, 25.752873518276637],[-80.209744, 25.75236],[-80.20974683516715, 25.752358036932957]direction: "W","zip":33129,"OID":7521024,"id":146292158,"street":"SW 2nd Ave","miles":0.0593256660722504,"lanes":1,"tessellate":true}},
{"type":"Feature","geometry":{"type":"LineString","coordinates":[[-80.21226410115771, 25.75038599434803],[-80.21221, 25.750342],[-80.212148, 25.750306],[-80.212071, 25.750278],[-80.211988, 25.750265],[-80.2119192427958, 25.750263567558246]direction: "S","zip":33129,"OID":7521059,"id":146292477,"street":"SW 32nd Rd","miles":0.0238472670328548,"lanes":1.327,"tessellate":true}},
{"type":"Feature","geometry":{"type":"LineString","coordinates":[[-80.20034741544254, 25.75705759857046],[-80.201084, 25.756546],[-80.201161, 25.756495],[-80.20116904294332, 25.756489465765913]direction: "W","zip":33129,"OID":7521068,"id":146292532,"street":"SW 1st Ave","miles":0.064458078485888,"lanes":1,"tessellate":true}},
{"type":"Feature","geometry":{"type":"LineString","coordinates":[[-80.20617920747057, 25.76245493084314],[-80.206179, 25.762455],[-80.206157, 25.76247],[-80.20614, 25.762491],[-80.206129, 25.762514],[-80.206126, 25.762535],[-80.206132, 25.762566],[-80.206148, 25.762593],[-80.20614832487549, 25.76259326239943]direction: "O","zip":33129,"OID":7521227,"id":146294887,"street":"","miles":0.0110080150566929,"lanes":1,"tessellate":true}},
{"type":"Feature","geometry":{"type":"LineString","coordinates":[[-80.20827483529614, 25.757387880215376],[-80.208275, 25.757388],[-80.2083, 25.757399],[-80.208316, 25.757403],[-80.208342, 25.757405],[-80.20836631006244, 25.757402082792506]direction: "O","zip":33129,"OID":7521812,"id":146303781,"street":"","miles":0.00441044149464794,"lanes":1,"tessellate":true}},
{"type":"Feature","geometry":{"type":"LineString","coordinates":[[-80.21002275495061, 25.7560244900988],[-80.210007, 25.756056],[-80.210004, 25.756075],[-80.21001, 25.75611],[-80.21001031598905, 25.756110515561083]direction: "O","zip":33129,"OID":7522531,"id":146314094,"street":"","miles":0.00499409934477524,"lanes":1,"tessellate":true}},
{"type":"Feature","geometry":{"type":"LineString","coordinates":[[-80.20629378910195, 25.7626081129811],[-80.206294, 25.762608],[-80.206316, 25.762586],[-80.206329, 25.762559],[-80.206332, 25.762544],[-80.206331, 25.762528],[-80.206325, 25.762502],[-80.20631, 25.762479],[-80.20628956294435, 25.76246148252373]direction: "O","zip":33129,"OID":7522533,"id":146314140,"street":"","miles":0.0110080138715214,"lanes":1,"tessellate":true}},
{"type":"Feature","geometry":{"type":"LineString","coordinates":[[-80.2084002664472, 25.7572051811841],[-80.2084, 25.757205],[-80.208372, 25.757194],[-80.208356, 25.757191],[-80.20832464025591, 25.757191]direction: "O","zip":33129,"OID":7522534,"id":146314141,"street":"","miles":0.00576852299115978,"lanes":1,"tessellate":true}},
{"type":"Feature","geometry":{"type":"LineString","coordinates":[[-80.20880597399123, 25.753002963040185],[-80.208806, 25.753003],[-80.20884, 25.753026],[-80.20888, 25.753036],[-80.208921, 25.753032],[-80.208958, 25.753014],[-80.20898441582473, 25.752985627447515]direction: "O","zip":33129,"OID":7523503,"id":146329403,"street":"","miles":0.011156903410796,"lanes":1,"tessellate":true}},
{"type":"Feature","geometry":{"type":"LineString","coordinates":[[-80.19724753755055, 25.760407130074572],[-80.197293, 25.760372],[-80.197318, 25.760354],[-80.197392, 25.760303],[-80.198241, 25.759715],[-80.198285, 25.759685],[-80.19835, 25.759644],[-80.19835716321234, 25.759639040853006]direction: "S","zip":33129,"OID":7523689,"id":146332164,"street":"SW 2nd Ave","miles":0.0871194155150036,"lanes":1.527,"tessellate":true}},
{"type":"Feature","geometry":{"type":"LineString","coordinates":[[-80.20743885412062, 25.757869034335055],[-80.206739, 25.75835],[-80.20671591516334, 25.758365568843324]direction: "N","zip":33129,"OID":7523828,"id":146334471,"street":"SW 4th Ave","miles":0.056576351462197,"lanes":1,"tessellate":true}},
{"type":"Feature","geometry":{"type":"LineString","coordinates":[[-80.2018902854738, 25.749528337785744],[-80.20189, 25.749528],[-80.201827, 25.749453],[-80.201532, 25.749103],[-80.201473, 25.74906],[-80.201406, 25.749078],[-80.2014, 25.749147],[-80.20167, 25.749459],[-80.201785, 25.749592],[-80.20183114586337, 25.749645449525193]direction: "N","zip":33129,"OID":7523859,"id":146335156,"street":"SE 25th Rd","miles":0.0906405315795112,"lanes":1,"tessellate":true}},
{"type":"Feature","geometry":{"type":"LineString","coordinates":[[-80.21311191942303, 25.75138620554117],[-80.21290581249403, 25.7511465281654]direction: "S","zip":33129,"OID":7524204,"id":146339534,"street":"SW 32nd Rd","miles":0.0209757150200835,"lanes":1.327,"tessellate":true}},
{"type":"Feature","geometry":{"type":"LineString","coordinates":[[-80.210004, 25.756075],[-80.20998, 25.756106],[-80.209949, 25.756141],[-80.209917, 25.756168],[-80.209858, 25.756207],[-80.209297, 25.756585],[-80.20926606246856, 25.75660514536931]direction: "E","zip":33129,"OID":7524506,"id":146343702,"street":"SW 4th Ave","miles":0.0570047903646861,"lanes":1,"tessellate":true}},
{"type":"Feature","geometry":{"type":"LineString","coordinates":[[-80.20822488683982, 25.757328434199064],[-80.208225, 25.757329],[-80.208236, 25.757352],[-80.208253, 25.757372],[-80.208275, 25.757388],[-80.2083, 25.757399],[-80.20830002234878, 25.757399005587196]direction: "O","zip":33129,"OID":7524935,"id":146349949,"street":"","miles":0.00741065039153431,"lanes":1,"tessellate":true}},
{"type":"Feature","geometry":{"type":"LineString","coordinates":[[-80.20834106568337, 25.75740492812949],[-80.208342, 25.757405],[-80.208367, 25.757402],[-80.20839046686277, 25.75739515549836]direction: "O","zip":33129,"OID":7525244,"id":146354935,"street":"","miles":0.0077006263009671,"lanes":1,"tessellate":true}},
{"type":"Feature","geometry":{"type":"LineString","coordinates":[[-80.21054504666739, 25.748436354229725],[-80.211198, 25.749216],[-80.211215, 25.749283],[-80.211215, 25.749332],[-80.21120679384016, 25.74938397234563]direction: "N","zip":33129,"OID":7525827,"id":146364586,"street":"SE 32nd Rd","miles":0.079273888369425,"lanes":1,"tessellate":true}},
{"type":"Feature","geometry":{"type":"LineString","coordinates":[[-80.20676366123688, 25.75842304145751],[-80.206788, 25.758407],[-80.20750137864923, 25.757932405037533]direction: "S","zip":33129,"OID":7525943,"id":146366353,"street":"SW 4th Ave","miles":0.0570703925698068,"lanes":1,"tessellate":true}},
{"type":"Feature","geometry":{"type":"LineString","coordinates":[[-80.20917627834572, 25.7566656443333],[-80.209142, 25.75669],[-80.208557, 25.757101],[-80.208505, 25.757138],[-80.208464, 25.757159],[-80.20843, 25.757173],[-80.208372, 25.757194]direction: "E","zip":33129,"OID":7527117,"id":146382675,"street":"SW 4th Ave","miles":0.0598903291788437,"lanes":1,"tessellate":true}},
{"type":"Feature","geometry":{"type":"LineString","coordinates":[[-80.20752208779881, 25.75781295476519],[-80.207452, 25.75786],[-80.20743885412027, 25.757869034335304]direction: "N","zip":33129,"OID":7527175,"id":146383633,"street":"SW 4th Ave","miles":0.00647834649492178,"lanes":1,"tessellate":true}},
{"type":"Feature","geometry":{"type":"LineString","coordinates":[[-80.20821568797736, 25.752132745141612],[-80.208229, 25.752148],[-80.20881958868536, 25.752858505169694]direction: "N","zip":33129,"OID":7527810,"id":146393544,"street":"SW 28th Rd","miles":0.0631311930734404,"lanes":1,"tessellate":true}},
{"type":"Feature","geometry":{"type":"LineString","coordinates":[[-80.21245, 25.752369],[-80.212554, 25.752492]direction: "N","zip":33129,"OID":7528140,"id":146398777,"street":"SW 31st Rd","miles":0.0126101820298048,"lanes":1,"tessellate":true}},
{"type":"Feature","geometry":{"type":"LineString","coordinates":[[-80.213372, 25.75193],[-80.21341, 25.751836],[-80.213413, 25.751771],[-80.213396, 25.751718]direction: "S","zip":33129,"OID":7529126,"id":146414112,"street":"SW 32nd Rd","miles":0.011293308353553,"lanes":1.327,"tessellate":true}},
{"type":"Feature","geometry":{"type":"LineString","coordinates":[[-80.196544, 25.760028],[-80.19647205357221, 25.76012992410603]direction: "E","zip":33129,"OID":7529134,"id":146414200,"street":"SW 1st Ave","miles":0.0105850593501207,"lanes":1,"tessellate":true}},
{"type":"Feature","geometry":{"type":"LineString","coordinates":[[-80.209086, 25.748289],[-80.20966754526314, 25.74899778935491]direction: "N","zip":33129,"OID":7529224,"id":146415282,"street":"SW 31st Rd","miles":0.0612754995476077,"lanes":1,"tessellate":true}},
{"type":"Feature","geometry":{"type":"LineString","coordinates":[[-80.2078745087514, 25.76139524991216],[-80.208421, 25.761028],[-80.208501, 25.760997],[-80.208556, 25.760969],[-80.208609, 25.760948],[-80.208672, 25.760929]direction: "W","zip":33129,"OID":7529225,"id":146415283,"street":"SW 7th Ave","miles":0.0570707208623107,"lanes":1,"tessellate":true}},
{"type":"Feature","geometry":{"type":"LineString","coordinates":[[-80.2070878410046, 25.752407163695484],[-80.207091, 25.752405],[-80.207148, 25.752367],[-80.207844, 25.751912],[-80.2079, 25.751894],[-80.207956, 25.75189]direction: "W","zip":33129,"OID":7529354,"id":146417050,"street":"SW 1st Ave","miles":0.0691042091096869,"lanes":1,"tessellate":true}},
{"type":"Feature","geometry":{"type":"LineString","coordinates":[[-80.20449978769516, 25.754191624582884],[-80.205194, 25.753717],[-80.20528296806097, 25.75365519061027]direction: "W","zip":33129,"OID":7529663,"id":146422005,"street":"SW 1st Ave","miles":0.0612221620896925,"lanes":1,"tessellate":true}},
{"type":"Feature","geometry":{"type":"LineString","coordinates":[[-80.20798498247845, 25.747635408029204],[-80.208003, 25.747623],[-80.20862939628574, 25.74718888358678]direction: "N","zip":33129,"OID":7530452,"id":146434457,"street":"Brickell Ave","miles":0.0506021295139558,"lanes":1,"tessellate":true}},
{"type":"Feature","geometry":{"type":"LineString","coordinates":[[-80.21289919039297, 25.751119602689744],[-80.213046, 25.751116],[-80.213083, 25.751115],[-80.213331, 25.75111],[-80.21341970839123, 25.75110832625677]direction: "W","zip":33129,"OID":7530870,"id":146440645,"street":"SW 22nd St","miles":0.0324782571046987,"lanes":1,"tessellate":true}},
{"type":"Feature","geometry":{"type":"LineString","coordinates":[[-80.20510899911588, 25.76131299513739],[-80.205109, 25.761313],[-80.205122, 25.761333],[-80.205141, 25.761349],[-80.205164, 25.761358],[-80.205182, 25.76136],[-80.205202, 25.761358],[-80.20522, 25.761351],[-80.20523614945276, 25.76134055035409]direction: "O","zip":33129,"OID":7531407,"id":146449685,"street":"","miles":0.00995772437492568,"lanes":1,"tessellate":true}},
{"type":"Feature","geometry":{"type":"LineString","coordinates":[[-80.21018913671874, 25.75601338337053],[-80.210169, 25.755999],[-80.210145, 25.755988],[-80.210125, 25.755984]direction: "O","zip":33129,"OID":7531603,"id":146453007,"street":"","miles":0.0080947064892599,"lanes":1,"tessellate":true}},
{"type":"Feature","geometry":{"type":"LineString","coordinates":[[-80.20820732990796, 25.757318480105187],[-80.208185, 25.757344],[-80.208143, 25.757384],[-80.208089, 25.757428],[-80.207525, 25.757811],[-80.20752208779814, 25.75781295476564]direction: "N","zip":33129,"OID":7531768,"id":146455232,"street":"SW 4th Ave","miles":0.0546958386675228,"lanes":1,"tessellate":true}},
{"type":"Feature","geometry":{"type":"LineString","coordinates":[[-80.20757998295821, 25.757880668739816],[-80.207581, 25.75788],[-80.208137, 25.757485],[-80.208201, 25.757444],[-80.208253, 25.75742],[-80.20828294267923, 25.757406621356083]direction: "S","zip":33129,"OID":7532283,"id":146463220,"street":"SW 4th Ave","miles":0.0547498291549312,"lanes":1,"tessellate":true}},
{"type":"Feature","geometry":{"type":"LineString","coordinates":[[-80.21059707432279, 25.751769465170216],[-80.211412, 25.751215],[-80.2114588219034, 25.75118610988939]direction: "W","zip":33129,"OID":7532809,"id":146471997,"street":"SW 2nd Ave","miles":0.0675594968802605,"lanes":1,"tessellate":true}},
{"type":"Feature","geometry":{"type":"LineString","coordinates":[[-80.205184, 25.761219],[-80.205151, 25.761199],[-80.205123, 25.761177],[-80.205093, 25.761148],[-80.205015, 25.76109],[-80.20425, 25.760155],[-80.204208, 25.760105],[-80.203474, 25.759246],[-80.203318, 25.759063],[-80.203261, 25.758997],[-80.203204, 25.75893],[-80.203101, 25.758796],[-80.203058, 25.758745],[-80.203022, 25.758703],[-80.202106, 25.757622],[-80.201231, 25.756578],[-80.201202, 25.756544],[-80.201161, 25.756495]direction: "O","zip":33129,"OID":7532974,"id":146474574,"street":"","miles":0.00995773504146913,"lanes":1,"tessellate":true}},
{"type":"Feature","geometry":{"type":"LineString","coordinates":[[-80.20995563684313, 25.75103812220097],[-80.20997, 25.75103],[-80.210173, 25.750928],[-80.210523, 25.750774],[-80.210976, 25.750596]direction: "W","zip":33129,"OID":7533330,"id":146480290,"street":"SW 1st Ave","miles":0.0707755545429025,"lanes":1,"tessellate":true}},
{"type":"Feature","geometry":{"type":"LineString","coordinates":[[-80.21013876517, 25.756171716603703],[-80.210165, 25.756162],[-80.210187, 25.756146],[-80.210204, 25.756126],[-80.210204558196, 25.75612478211782]direction: "O","zip":33129,"OID":7533667,"id":146485874,"street":"","miles":0.00630270170917056,"lanes":1,"tessellate":true}},
{"type":"Feature","geometry":{"type":"LineString","coordinates":[[-80.190767, 25.756782],[-80.190833, 25.75687],[-80.1909, 25.756911],[-80.191485, 25.757247],[-80.191665, 25.75735],[-80.192216, 25.757664],[-80.192249, 25.757683],[-80.192729, 25.75796],[-80.19277234424553, 25.75798617011051]direction: "N","zip":33129,"OID":7534336,"id":146496943,"street":"SE 15th Rd","miles":0.152316072728026,"lanes":1.285,"tessellate":true}},
{"type":"Feature","geometry":{"type":"LineString","coordinates":[[-80.20387102755785, 25.75187954696145],[-80.203809, 25.751806],[-80.203487, 25.751432],[-80.203151, 25.751036],[-80.20311, 25.750987]direction: "S","zip":33129,"OID":7534538,"id":146499614,"street":"SE 25th Rd","miles":0.0779485347911335,"lanes":1,"tessellate":true}},
{"type":"Feature","geometry":{"type":"LineString","coordinates":[[-80.210125, 25.755984],[-80.210087, 25.755986],[-80.210051, 25.756],[-80.210023, 25.756024],[-80.210007, 25.756056],[-80.21000693339327, 25.756056421842636]direction: "O","zip":33129,"OID":7535065,"id":146507829,"street":"","miles":0.00630270763502799,"lanes":1,"tessellate":true}},
{"type":"Feature","geometry":{"type":"LineString","coordinates":[[-80.20631047851076, 25.762479733716493],[-80.20631, 25.762479],[-80.206289, 25.762461],[-80.206264, 25.762449],[-80.20624939622749, 25.762445105660664],[-80.206234, 25.762444],[-80.206193, 25.76242],[-80.2061894210247, 25.76241736286031]direction: "O","zip":33129,"OID":7535361,"id":146512435,"street":"","miles":0.0115944189491717,"lanes":1,"tessellate":true}},
{"type":"Feature","geometry":{"type":"LineString","coordinates":[[-80.20844503149732, 25.757347926506256],[-80.208454, 25.757327],[-80.208459, 25.757298],[-80.20845502124, 25.75727014867998]direction: "O","zip":33129,"OID":7535933,"id":146520930,"street":"","miles":0.00566584743653581,"lanes":1,"tessellate":true}},
{"type":"Feature","geometry":{"type":"LineString","coordinates":[[-80.20822913933681, 25.757256767771988],[-80.208229, 25.757257],[-80.208221, 25.757285],[-80.20822, 25.757304],[-80.20822488683982, 25.75732843419907]direction: "O","zip":33129,"OID":7536288,"id":146526803,"street":"","miles":0.00552746622031261,"lanes":1,"tessellate":true}},
{"type":"Feature","geometry":{"type":"LineString","coordinates":[[-80.21219273069485, 25.74145190438704],[-80.212128, 25.741462],[-80.211353, 25.741464]direction: "E","zip":33129,"OID":7536446,"id":146529637,"street":"","miles":0.0608495998750445,"lanes":1,"tessellate":true}},
{"type":"Feature","geometry":{"type":"LineString","coordinates":[[-80.20716648263975, 25.755986157491137],[-80.207168, 25.755988],[-80.20727459721165, 25.7561142335401]direction: "N","zip":33129,"OID":7537233,"id":146542089,"street":"SW 25th Rd","miles":0.0111582865059294,"lanes":1,"tessellate":true}},
{"type":"Feature","geometry":{"type":"LineString","coordinates":[[-80.21001031598904, 25.756110515561073],[-80.210029, 25.756141],[-80.21006, 25.756163],[-80.21006033716769, 25.756163100239043]direction: "O","zip":33129,"OID":7539792,"id":146585645,"street":"","miles":0.00651902691386701,"lanes":1,"tessellate":true}},
{"type":"Feature","geometry":{"type":"LineString","coordinates":[[-80.20526, 25.761297],[-80.205298, 25.761252],[-80.205336, 25.761208],[-80.205386, 25.761152]direction: "O","zip":33129,"OID":7539801,"id":146585718,"street":"","miles":0.00950485493984536,"lanes":1,"tessellate":true}},
{"type":"Feature","geometry":{"type":"LineString","coordinates":[[-80.20800753863128, 25.75363499256854],[-80.208089, 25.753732],[-80.208206, 25.753872],[-80.208306, 25.753993],[-80.208425, 25.754135],[-80.208539, 25.754271],[-80.208909, 25.754714],[-80.20896252043319, 25.754778422743662]direction: "N","zip":33129,"OID":7539957,"id":146588181,"street":"SW 27th Rd","miles":0.0988653319733226,"lanes":1,"tessellate":true}},
{"type":"Feature","geometry":{"type":"LineString","coordinates":[[-80.20667498486388, 25.758484696093337],[-80.206676, 25.758484],[-80.206744, 25.758436],[-80.20676366123682, 25.75842304145755]direction: "S","zip":33129,"OID":7540145,"id":146590758,"street":"SW 4th Ave","miles":0.00696789935808385,"lanes":1,"tessellate":true}},
{"type":"Feature","geometry":{"type":"LineString","coordinates":[[-80.2042415851408, 25.76016085293456],[-80.20425, 25.760155],[-80.205003, 25.75964],[-80.20506639573362, 25.759596415433133]direction: "S","zip":33129,"OID":7540634,"id":146598900,"street":"SW 4th Ave","miles":0.0644570213129157,"lanes":1,"tessellate":true}},
{"type":"Feature","geometry":{"type":"LineString","coordinates":[[-80.20708736410896, 25.75240749033633],[-80.207018, 25.752455],[-80.20699830239359, 25.75246855443303]direction: "E","zip":33129,"OID":7540644,"id":146598945,"street":"SW 1st Ave","miles":0.00696812750359643,"lanes":1,"tessellate":true}},
{"type":"Feature","geometry":{"type":"LineString","coordinates":[[-80.20589153005618, 25.759020698086374],[-80.205942, 25.758986],[-80.206641, 25.758508],[-80.20667498486263, 25.758484696094193]direction: "S","zip":33129,"OID":7541041,"id":146605432,"street":"SW 4th Ave","miles":0.0612205881819485,"lanes":1,"tessellate":true}},
{"type":"Feature","geometry":{"type":"LineString","coordinates":[[-80.208459, 25.757298],[-80.208489, 25.757261],[-80.208517, 25.757231],[-80.208553, 25.757199],[-80.208609, 25.757158],[-80.2092, 25.75676],[-80.20923645072347, 25.756735699517687]direction: "W","zip":33129,"OID":7541215,"id":146608140,"street":"SW 4th Ave","miles":0.0603170803971253,"lanes":1,"tessellate":true}},
{"type":"Feature","geometry":{"type":"LineString","coordinates":[[-80.203021, 25.751047],[-80.203059, 25.751096],[-80.20339, 25.751493],[-80.203691, 25.751852],[-80.203712, 25.751878],[-80.20377012751109, 25.75194653840861]direction: "N","zip":33129,"OID":7541326,"id":146609360,"street":"SE 25th Rd","miles":0.0779586822294649,"lanes":1,"tessellate":true}},
{"type":"Feature","geometry":{"type":"LineString","coordinates":[[-80.204423, 25.754243],[-80.204489, 25.754199],[-80.20449978769516, 25.754191624582884]direction: "W","zip":33129,"OID":7541353,"id":146609669,"street":"SW 1st Ave","miles":0.00647846323431398,"lanes":1,"tessellate":true}},
{"type":"Feature","geometry":{"type":"LineString","coordinates":[[-80.20845502124, 25.75727014867998],[-80.208455, 25.75727],[-80.208443, 25.757244],[-80.208425, 25.757222],[-80.2084002664472, 25.7572051811841]direction: "O","zip":33129,"OID":7541558,"id":146612986,"street":"","miles":0.00675044705529663,"lanes":1,"tessellate":true}},
{"type":"Feature","geometry":{"type":"LineString","coordinates":[[-80.20092043537954, 25.762390106874953],[-80.201009, 25.762335],[-80.2011, 25.762322],[-80.201768, 25.761864],[-80.20177732618396, 25.761857540796044]direction: "S","zip":33129,"OID":7541775,"id":146616191,"street":"SW 4th Ave","miles":0.06528378272506,"lanes":1,"tessellate":true}},
{"type":"Feature","geometry":{"type":"LineString","coordinates":[[-80.21006033716768, 25.75616310023904],[-80.210097, 25.756174],[-80.21011, 25.756175],[-80.210138, 25.756172],[-80.21013876517002, 25.756171716603696]direction: "O","zip":33129,"OID":7542948,"id":146633398,"street":"","miles":0.00502603793878084,"lanes":1,"tessellate":true}},
{"type":"Feature","geometry":{"type":"LineString","coordinates":[[-80.20641904050247, 25.75160225637893],[-80.206476, 25.751564],[-80.206597, 25.751481],[-80.207242, 25.75104],[-80.207275, 25.751012],[-80.207288, 25.750982]direction: "W","zip":33129,"OID":7543119,"id":146636010,"street":"SW 1st Ave","miles":0.0719212598261359,"lanes":1,"tessellate":true}},
{"type":"Feature","geometry":{"type":"LineString","coordinates":[[-80.20974683517623, 25.75235803692667],[-80.210586, 25.751777]direction: "W","zip":33129,"OID":7543164,"id":146636776,"street":"SW 2nd Ave","miles":0.0667819485292317,"lanes":1,"tessellate":true}},
{"type":"Feature","geometry":{"type":"LineString","coordinates":[[-80.205528, 25.752269],[-80.205646, 25.752186],[-80.205857, 25.752028],[-80.20614575401711, 25.751805695652095]direction: "W","zip":33129,"OID":7543458,"id":146640963,"street":"S Miami Ct","miles":0.047193953181796,"lanes":1,"tessellate":true}},
{"type":"Feature","geometry":{"type":"LineString","coordinates":[[-80.207282, 25.756123],[-80.207337, 25.756188],[-80.208126, 25.757127],[-80.208158, 25.757168],[-80.208187, 25.757212],[-80.208221, 25.757285]direction: "N","zip":33129,"OID":7545205,"id":146664862,"street":"SW 25th Rd","miles":0.0971894597775857,"lanes":1,"tessellate":true}},
{"type":"Feature","geometry":{"type":"LineString","coordinates":[[-80.2090625575186, 25.75489846902233],[-80.209068, 25.754905],[-80.20912, 25.754966],[-80.209299, 25.755178],[-80.209406, 25.755304],[-80.209961, 25.755961],[-80.209978, 25.755986],[-80.209994, 25.756017],[-80.210007, 25.756056]direction: "N","zip":33129,"OID":7545504,"id":146669942,"street":"SW 27th Rd","miles":0.097936481073858,"lanes":1,"tessellate":true}},
{"type":"Feature","geometry":{"type":"LineString","coordinates":[[-80.21020455819601, 25.75612478211781],[-80.210215, 25.756102],[-80.210218, 25.756079],[-80.210215, 25.756056],[-80.210205, 25.756033],[-80.21019, 25.756014],[-80.21018913671875, 25.75601338337054]direction: "O","zip":33129,"OID":7545567,"id":146670876,"street":"","miles":0.00838666756094514,"lanes":1,"tessellate":true}},
{"type":"Feature","geometry":{"type":"LineString","coordinates":[[-80.19655528598776, 25.76001337951586],[-80.196588, 25.759971],[-80.196735, 25.759785],[-80.196841, 25.759662],[-80.196863, 25.759637],[-80.196949, 25.759538],[-80.197038, 25.759447],[-80.1971, 25.759382],[-80.197231, 25.759262],[-80.197359, 25.759151],[-80.197515, 25.759023],[-80.197614, 25.758945],[-80.1977, 25.758883]direction: "W","zip":33129,"OID":7545963,"id":146678106,"street":"SW 1st Ave","miles":0.108444026060171,"lanes":1,"tessellate":true}},
{"type":"Feature","geometry":{"type":"LineString","coordinates":[[-80.20805234238412, 25.75355814949359],[-80.208028, 25.753529],[-80.20709319971704, 25.752407638721387]direction: "S","zip":33129,"OID":7546041,"id":146679203,"street":"SW 27th Rd","miles":0.0994126589838878,"lanes":1,"tessellate":true}},
{"type":"Feature","geometry":{"type":"LineString","coordinates":[[-80.2090325819519, 25.754731848074655],[-80.209031, 25.75473],[-80.20898, 25.754669],[-80.20805234238442, 25.753558149493948]direction: "S","zip":33129,"OID":7546182,"id":146681591,"street":"SW 27th Rd","miles":0.101474175909809,"lanes":1,"tessellate":true}},
{"type":"Feature","geometry":{"type":"LineString","coordinates":[[-80.21270905161975, 25.754291159214965],[-80.21337437747619, 25.753834427349187],[-80.213375, 25.753834],[-80.213449, 25.753813],[-80.213491, 25.753797],[-80.21355, 25.753784]direction: "W","zip":33129,"OID":7547257,"id":146699197,"street":"SW 4th Ave","miles":0.0622136658950149,"lanes":1,"tessellate":true}},
{"type":"Feature","geometry":{"type":"LineString","coordinates":[[-80.21212007994261, 25.75846989593113],[-80.212126, 25.758477],[-80.212181, 25.758542],[-80.213022, 25.759547],[-80.21308309927096, 25.75961779756794]direction: "N","zip":33129,"OID":7547258,"id":146699198,"street":"SW 27th Rd","miles":0.0994089612488262,"lanes":1,"tessellate":true}},
{"type":"Feature","geometry":{"type":"LineString","coordinates":[[-80.20750137865008, 25.75793240503696],[-80.207508, 25.757928],[-80.2075799829496, 25.75788066874547]direction: "S","zip":33129,"OID":7547793,"id":146706670,"street":"SW 4th Ave","miles":0.00605951044446271,"lanes":1,"tessellate":true}},
{"type":"Feature","geometry":{"type":"LineString","coordinates":[[-80.20359809022285, 25.754820245230334],[-80.203662, 25.754776],[-80.20367529838741, 25.75476668588634]direction: "W","zip":33129,"OID":7548513,"id":146717823,"street":"SW 1st Ave","miles":0.00605961770248291,"lanes":1,"tessellate":true}},
{"type":"Feature","geometry":{"type":"LineString","coordinates":[[-80.211964, 25.754881],[-80.211984, 25.754854],[-80.212008, 25.754817],[-80.212028, 25.754791],[-80.21206, 25.754737],[-80.21261, 25.754358],[-80.212702, 25.754296],[-80.21270905161975, 25.754291159214965]direction: "W","zip":33129,"OID":7548539,"id":146717997,"street":"SW 4th Ave","miles":0.0593330135429274,"lanes":1,"tessellate":true}},
{"type":"Feature","geometry":{"type":"LineString","coordinates":[[-80.207229, 25.754139],[-80.207291, 25.754085],[-80.207945, 25.75364],[-80.20794684075713, 25.753630937811014]direction: "W","zip":33129,"OID":7548784,"id":146721643,"street":"SW 2nd Ave","miles":0.0590065870916114,"lanes":1,"tessellate":true}},
{"type":"Feature","geometry":{"type":"LineString","coordinates":[[-80.21146680753812, 25.751183359215048],[-80.211527, 25.751163],[-80.212707, 25.751125],[-80.2128827006046, 25.751120008505552]direction: "W","zip":33129,"OID":7549196,"id":146727867,"street":"SW 22nd St","miles":0.0893271340112511,"lanes":1,"tessellate":true}},
{"type":"Feature","geometry":{"type":"LineString","coordinates":[[-80.21012503141195, 25.756186005140894],[-80.210166, 25.756216],[-80.210197, 25.756243],[-80.210225, 25.756275],[-80.21099, 25.757181],[-80.21107979165964, 25.75723428296287]direction: "N","zip":33129,"OID":7549880,"id":146738215,"street":"SW 27th Rd","miles":0.0942137548939232,"lanes":1,"tessellate":true}},
{"type":"Feature","geometry":{"type":"LineString","coordinates":[[-80.21256377369534, 25.75250394562764],[-80.212608, 25.752558],[-80.21342988222358, 25.753529860731533],[-80.21343, 25.75353],[-80.213453, 25.753582],[-80.21347, 25.753625],[-80.21348, 25.75367]direction: "N","zip":33129,"OID":7550044,"id":146740887,"street":"SW 31st Rd","miles":0.0973830942814438,"lanes":1,"tessellate":true}},
{"type":"Feature","geometry":{"type":"LineString","coordinates":[[-80.198992, 25.76041],[-80.199042, 25.760378],[-80.199367, 25.760174]direction: "W","zip":33129,"OID":7550137,"id":146742296,"street":"SW 2nd Ct","miles":0.0306100499456465,"lanes":1,"tessellate":true}},
{"type":"Feature","geometry":{"type":"LineString","coordinates":[[-80.20881986557102, 25.752859134428988],[-80.208796, 25.752883],[-80.208781, 25.752912],[-80.208778, 25.752944],[-80.208787, 25.752976],[-80.20880597399123, 25.75300296304019]direction: "O","zip":33129,"OID":7551537,"id":146762752,"street":"","miles":0.0106282748508916,"lanes":1,"tessellate":true}},
{"type":"Feature","geometry":{"type":"LineString","coordinates":[[-80.20506639574637, 25.75959641542437],[-80.205067, 25.759596],[-80.205129, 25.759552],[-80.20582, 25.759071],[-80.205878, 25.75903],[-80.20589153005612, 25.75902069808642]direction: "S","zip":33129,"OID":7553277,"id":146791376,"street":"SW 4th Ave","miles":0.0649509391626898,"lanes":1,"tessellate":true}},
{"type":"Feature","geometry":{"type":"LineString","coordinates":[[-80.19818110786707, 25.76097255443253],[-80.198237, 25.760933],[-80.19894, 25.760446],[-80.19899005574199, 25.760411346024778]direction: "W","zip":33129,"OID":7554138,"id":146803969,"street":"SW 2nd Ct","miles":0.0635497583122135,"lanes":1,"tessellate":true}},
{"type":"Feature","geometry":{"type":"LineString","coordinates":[[-80.19285468289857, 25.757876932804482],[-80.192807, 25.757851],[-80.1923, 25.757557],[-80.191986, 25.757376],[-80.191442, 25.757073],[-80.191313, 25.756998],[-80.191018, 25.756825],[-80.190935, 25.756778],[-80.190902, 25.756763],[-80.1907671396095, 25.756781980351256]direction: "N","zip":33129,"OID":7554859,"id":146816300,"street":"SE 15th Rd","miles":0.153428569505998,"lanes":1.158,"tessellate":true}},
{"type":"Feature","geometry":{"type":"LineString","coordinates":[[-80.21052277461999, 25.748419524093492],[-80.210528, 25.748416],[-80.21064298443709, 25.748338010555713]direction: "W","zip":33129,"OID":7555000,"id":146818106,"street":"SW Miami Ct","miles":0.0112165056852284,"lanes":1,"tessellate":true}},
{"type":"Feature","geometry":{"type":"LineString","coordinates":[[-80.204617, 25.752875],[-80.204598, 25.752755],[-80.204585, 25.752738],[-80.204488, 25.75262],[-80.204395, 25.752509],[-80.204279, 25.752368],[-80.204199, 25.752272],[-80.204046, 25.752087],[-80.204025, 25.752062],[-80.203956, 25.751977]direction: "S","zip":33129,"OID":7555206,"id":146821315,"street":"SW 25th Rd","miles":0.0732052224751712,"lanes":1,"tessellate":true}},
{"type":"Feature","geometry":{"type":"LineString","coordinates":[[-80.2122189567124, 25.760210359564965],[-80.212285, 25.76029],[-80.212478, 25.760509],[-80.212601, 25.760661],[-80.212619, 25.760692],[-80.212629, 25.760725],[-80.212631, 25.760756],[-80.212631, 25.760809],[-80.21259320008339, 25.760896536648993]direction: "N","zip":33129,"OID":7555219,"id":146821384,"street":"SW 26th Rd","miles":0.054714261565811,"lanes":1,"tessellate":true}},
{"type":"Feature","geometry":{"type":"LineString","coordinates":[[-80.204617, 25.752875],[-80.20469, 25.752958],[-80.204856, 25.753149],[-80.204941, 25.753247],[-80.205011, 25.753327]direction: "N","zip":33129,"OID":7555704,"id":146828456,"street":"SW 25th Rd","miles":0.0416628449294823,"lanes":1.507,"tessellate":true}},
{"type":"Feature","geometry":{"type":"LineString","coordinates":[[-80.205011, 25.753327],[-80.204941, 25.753247],[-80.204856, 25.753149],[-80.20469, 25.752958],[-80.2046172480029, 25.7528752819759]direction: "S","zip":33129,"OID":7555705,"id":146828457,"street":"SW 25th Rd","miles":0.0416628449294823,"lanes":2,"tessellate":true}},
{"type":"Feature","geometry":{"type":"LineString","coordinates":[[-80.211081, 25.757235],[-80.211124, 25.757287],[-80.212037, 25.758371],[-80.212071, 25.758411],[-80.21212007994261, 25.75846989593113]direction: "N","zip":33129,"OID":7556743,"id":146845834,"street":"SW 27th Rd","miles":0.10755167725755,"lanes":1,"tessellate":true}},
{"type":"Feature","geometry":{"type":"LineString","coordinates":[[-80.20387828280754, 25.751889487690875],[-80.20378879312553, 25.75195034067464]direction: "E","zip":33129,"OID":7556983,"id":146848930,"street":"S Miami Ave","miles":0.00696814765151185,"lanes":1.33,"tessellate":true}},
{"type":"Feature","geometry":{"type":"LineString","coordinates":[[-80.203779, 25.751957],[-80.203851, 25.752043]direction: "N","zip":33129,"OID":7556984,"id":146848931,"street":"","miles":0.00796579597844513,"lanes":1.507,"tessellate":true}},
{"type":"Feature","geometry":{"type":"LineString","coordinates":[[-80.20386352774922, 25.752035125414775],[-80.20395539790817, 25.751977378457724]direction: "W","zip":33129,"OID":7556985,"id":146848932,"street":"S Miami Ave","miles":0.00696814409599737,"lanes":1.027,"tessellate":true}},
{"type":"Feature","geometry":{"type":"LineString","coordinates":[[-80.206331, 25.762528],[-80.20636, 25.762482],[-80.206392, 25.76244],[-80.206449, 25.762383],[-80.207047, 25.761974],[-80.20706184772865, 25.761963608416234]direction: "W","zip":33129,"OID":7558030,"id":146866123,"street":"SW 7th Ave","miles":0.0579253776559091,"lanes":1,"tessellate":true}},
{"type":"Feature","geometry":{"type":"LineString","coordinates":[[-80.19835716321417, 25.759639040851738],[-80.198402, 25.759608],[-80.198453, 25.759572],[-80.19938127621776, 25.7589206299576]direction: "S","zip":33129,"OID":7558537,"id":146875081,"street":"SW 2nd Ave","miles":0.0807924960115251,"lanes":1.527,"tessellate":true}},
{"type":"Feature","geometry":{"type":"LineString","coordinates":[[-80.203956, 25.751977],[-80.204014, 25.751941],[-80.204099, 25.751885],[-80.204135, 25.751861],[-80.204242, 25.751787],[-80.204405, 25.751675],[-80.20442278866443, 25.7516625479349]direction: "W","zip":33129,"OID":7559396,"id":146889231,"street":"S Miami Ave","miles":0.0385549371285948,"lanes":1.9215,"tessellate":true}},
{"type":"Feature","geometry":{"type":"LineString","coordinates":[[-80.20434306994416, 25.751567951251033],[-80.204343, 25.751568],[-80.204253, 25.75163],[-80.204092, 25.751742],[-80.203959, 25.751834],[-80.203932, 25.751852],[-80.20387920388977, 25.75188885766186]direction: "E","zip":33129,"OID":7559397,"id":146889232,"street":"S Miami Ave","miles":0.0375304737040244,"lanes":1.33,"tessellate":true}},
{"type":"Feature","geometry":{"type":"LineString","coordinates":[[-80.2083246402559, 25.757191],[-80.208324, 25.757191],[-80.208294, 25.757198],[-80.208267, 25.757212],[-80.208244, 25.757232],[-80.20822913933681, 25.757256767771995]direction: "O","zip":33129,"OID":7560709,"id":146911386,"street":"","miles":0.00849126013046061,"lanes":1,"tessellate":true}},
{"type":"Feature","geometry":{"type":"LineString","coordinates":[[-80.20896252042589, 25.75477842273486],[-80.208963, 25.754779],[-80.20906255751865, 25.754898469022386]direction: "N","zip":33129,"OID":7561130,"id":146917637,"street":"SW 27th Rd","miles":0.0103667412795571,"lanes":1,"tessellate":true}},
{"type":"Feature","geometry":{"type":"LineString","coordinates":[[-80.20913427414867, 25.754850647369945],[-80.2090325819526, 25.75473184807547]direction: "S","zip":33129,"OID":7561131,"id":146917638,"street":"SW 27th Rd","miles":0.0103667436499001,"lanes":1,"tessellate":true}},
{"type":"Feature","geometry":{"type":"LineString","coordinates":[[-80.20367529838754, 25.754766685886256],[-80.20441615343407, 25.754247795295196]direction: "W","zip":33129,"OID":7561826,"id":146927962,"street":"SW 1st Ave","miles":0.0584078064532208,"lanes":1,"tessellate":true}},
{"type":"Feature","geometry":{"type":"LineString","coordinates":[[-80.209204, 25.746646],[-80.209171, 25.746647],[-80.20914, 25.746659],[-80.209076, 25.7467],[-80.209015, 25.746743],[-80.208543, 25.747072],[-80.20852945154326, 25.747081305523672]direction: "N","zip":33129,"OID":7562321,"id":146936728,"street":"Brickell Ave","miles":0.0540735110418898,"lanes":1,"tessellate":true}},
{"type":"Feature","geometry":{"type":"LineString","coordinates":[[-80.20701962519097, 25.752456937363842],[-80.207877, 25.753479],[-80.20793942204052, 25.75355375232013]direction: "N","zip":33129,"OID":7563208,"id":146951496,"street":"SW 27th Rd","miles":0.0949824831986933,"lanes":1,"tessellate":true}},
{"type":"Feature","geometry":{"type":"LineString","coordinates":[[-80.20802548520982, 25.75353068850198],[-80.208028, 25.753529],[-80.208806, 25.753003]direction: "W","zip":33129,"OID":7563320,"id":146953194,"street":"SW 2nd Ave","miles":0.0612205656636901,"lanes":1,"tessellate":true}},
{"type":"Feature","geometry":{"type":"LineString","coordinates":[[-80.208356, 25.757191],[-80.208272, 25.75713],[-80.208215, 25.757072],[-80.207635, 25.756378],[-80.207425, 25.756127],[-80.20737, 25.756062]direction: "S","zip":33129,"OID":7566758,"id":147013330,"street":"SW 25th Rd","miles":0.0973846172268141,"lanes":1,"tessellate":true}},
{"type":"Feature","geometry":{"type":"LineString","coordinates":[[-80.20706184772865, 25.761963608416234],[-80.20786, 25.761405],[-80.20787450872929, 25.761395249927013]direction: "W","zip":33129,"OID":7568210,"id":147044273,"street":"SW 7th Ave","miles":0.0640365888364538,"lanes":1,"tessellate":true}},
{"type":"Feature","geometry":{"type":"LineString","coordinates":[[-80.20116904296557, 25.756489465750597],[-80.201908, 25.755981],[-80.20197963183523, 25.75593198874431]direction: "W","zip":33129,"OID":7568459,"id":147049385,"street":"SW 1st Ave","miles":0.0634775671461719,"lanes":1,"tessellate":true}},
{"type":"Feature","geometry":{"type":"LineString","coordinates":[[-80.20926606246856, 25.75660514536931],[-80.209254, 25.756613],[-80.20918, 25.756663],[-80.20917627834507, 25.756665644333765]direction: "E","zip":33129,"OID":7570326,"id":147088623,"street":"SW 4th Ave","miles":0.0069679680980305,"lanes":1,"tessellate":true}},
{"type":"Feature","geometry":{"type":"LineString","coordinates":[[-80.20923645072347, 25.756735699517687],[-80.209239, 25.756734],[-80.209313, 25.756683],[-80.20932528796483, 25.756674515452854]direction: "W","zip":33129,"OID":7570327,"id":147088624,"street":"SW 4th Ave","miles":0.00696796572768755,"lanes":1,"tessellate":true}},
{"type":"Feature","geometry":{"type":"LineString","coordinates":[[-80.20968308565368, 25.748993731794425],[-80.210358, 25.748532],[-80.210485, 25.748445],[-80.21052277460501, 25.748419524103593]direction: "W","zip":33129,"OID":7571366,"id":147112397,"street":"SW Miami Ct","miles":0.0656484836971884,"lanes":1,"tessellate":true}},
{"type":"Feature","geometry":{"type":"LineString","coordinates":[[-80.20514249014683, 25.761229803941266],[-80.205142, 25.76123],[-80.205125, 25.761242],[-80.205113, 25.761259],[-80.205106, 25.761278],[-80.205105, 25.761291],[-80.205109, 25.761313],[-80.20512191181736, 25.761332864334385]direction: "O","zip":33129,"OID":7572619,"id":147140678,"street":"","miles":0.00950485627316335,"lanes":1,"tessellate":true}},
{"type":"Feature","geometry":{"type":"LineString","coordinates":[[-80.20966754526314, 25.74899778935491],[-80.209671, 25.749002],[-80.21017470397436, 25.74959561658398]direction: "N","zip":33129,"OID":7573019,"id":147150441,"street":"SW 31st Rd","miles":0.0524074680659382,"lanes":1,"tessellate":true}},
{"type":"Feature","geometry":{"type":"LineString","coordinates":[[-80.20862939632751, 25.747188883557836],[-80.208635, 25.747185],[-80.209125, 25.746857],[-80.20917955933649, 25.746821254227815]direction: "N","zip":33129,"OID":7576971,"id":147259896,"street":"Brickell Ave","miles":0.0426465663061898,"lanes":1,"tessellate":true}},
{"type":"Feature","geometry":{"type":"LineString","coordinates":[[-80.209183, 25.746819],[-80.209209, 25.74685],[-80.209835, 25.747599],[-80.209876, 25.747648],[-80.209929, 25.747713]direction: "N","zip":33129,"OID":7576972,"id":147259897,"street":"SE 32nd Rd","miles":0.0777525311294589,"lanes":1,"tessellate":true}},
{"type":"Feature","geometry":{"type":"LineString","coordinates":[[-80.210049, 25.747631],[-80.209995, 25.747564],[-80.209958, 25.747518],[-80.209333, 25.746763],[-80.209308, 25.746732],[-80.209268, 25.746685],[-80.209237, 25.746659],[-80.20923594501335, 25.746658584399196]direction: "S","zip":33129,"OID":7576973,"id":147259898,"street":"SE 32nd Rd","miles":0.0837678311216812,"lanes":1,"tessellate":true}},
{"type":"Feature","geometry":{"type":"LineString","coordinates":[[-80.21357, 25.753785],[-80.213618, 25.753804],[-80.213657, 25.753825],[-80.213703, 25.753858],[-80.214034, 25.754244],[-80.214052, 25.754261],[-80.214075, 25.75427],[-80.214106, 25.754279],[-80.214137, 25.754284],[-80.214215, 25.754285]direction: "N","zip":33129,"OID":7582795,"id":147413009,"street":"SW 31st Rd","miles":0.0525899986980695,"lanes":1,"tessellate":true}},
{"type":"Feature","geometry":{"type":"LineString","coordinates":[[-80.20736343538745, 25.75605440788287],[-80.20725570212105, 25.75592981201825]direction: "S","zip":33129,"OID":7586155,"id":147481049,"street":"SW 25th Rd","miles":0.0109271816201173,"lanes":1,"tessellate":true}},
{"type":"Feature","geometry":{"type":"LineString","coordinates":[[-80.21341970839123, 25.75110832625677],[-80.213437, 25.751108],[-80.21365570051731, 25.751104005470005]direction: "W","zip":33129,"OID":9403163,"id":391958533,"street":"SW 22nd St","miles":0.0225732266395669,"lanes":1,"tessellate":true}},
{"type":"Feature","geometry":{"type":"LineString","coordinates":[[-80.21338812881184, 25.751708816947147],[-80.213336, 25.751648],[-80.213147, 25.751427],[-80.21311191942378, 25.751386205542044]direction: "S","zip":33129,"OID":9403164,"id":391958534,"street":"SW 32nd Rd","miles":0.0281508380583758,"lanes":1.327,"tessellate":true}},
{"type":"Feature","geometry":{"type":"LineString","coordinates":[[-80.205289, 25.753651],[-80.205249, 25.753606],[-80.205167, 25.753509],[-80.205094, 25.753423],[-80.205052, 25.753375],[-80.205011, 25.753327]direction: "S","zip":33129,"OID":9403295,"id":391959709,"street":"SW 25th Rd","miles":0.0272382844521247,"lanes":2,"tessellate":true}},
{"type":"Feature","geometry":{"type":"LineString","coordinates":[[-80.1990323603212, 25.75796340887536],[-80.199371, 25.757733],[-80.200331, 25.757069],[-80.20034741527803, 25.75705759868472]direction: "W","zip":33129,"OID":9404710,"id":391991688,"street":"SW 1st Ave","miles":0.103030003862677,"lanes":1,"tessellate":true}},
{"type":"Feature","geometry":{"type":"LineString","coordinates":[[-80.20621393712113, 25.75300357154766],[-80.20614725759556, 25.752925075397307]direction: "S","zip":33129,"OID":9408575,"id":392048097,"street":"SW 26th Rd","miles":0.00695342604379933,"lanes":2.379,"tessellate":true}},
{"type":"Feature","geometry":{"type":"LineString","coordinates":[[-80.20614575401711, 25.751805695652095],[-80.206335, 25.75166],[-80.206409, 25.751609],[-80.20641904039455, 25.751602256451417]direction: "W","zip":33129,"OID":9412174,"id":392062689,"street":"S Miami Ct","miles":0.0222003029476133,"lanes":1,"tessellate":true}},
{"type":"Feature","geometry":{"type":"LineString","coordinates":[[-80.2139888354431, 25.759004974936705],[-80.214088, 25.759002],[-80.214129, 25.759001],[-80.21424039413391, 25.759000031355356]direction: "W","zip":33129,"OID":9414324,"id":392067721,"street":"SW 15th St","miles":0.0162441524943123,"lanes":1,"tessellate":true}},
{"type":"Feature","geometry":{"type":"LineString","coordinates":[[-80.209183, 25.746819],[-80.209308, 25.746732]direction: "S","zip":33129,"OID":9414947,"id":392068770,"street":"","miles":0.0118823208084901,"lanes":1,"tessellate":true}},
{"type":"Feature","geometry":{"type":"LineString","coordinates":[[-80.209929, 25.747713],[-80.210002, 25.74779],[-80.210528, 25.748416],[-80.21054504666739, 25.748436354229725]direction: "N","zip":33129,"OID":9429724,"id":392283242,"street":"SE 32nd Rd","miles":0.0635041481724392,"lanes":1,"tessellate":true}},
{"type":"Feature","geometry":{"type":"LineString","coordinates":[[-80.21066641139551, 25.74836588898481],[-80.210643, 25.748338],[-80.210266, 25.74789],[-80.210116, 25.747711],[-80.210049, 25.747631]direction: "S","zip":33129,"OID":9429725,"id":392283243,"street":"SE 32nd Rd","miles":0.0644311087233711,"lanes":1,"tessellate":true}},
{"type":"Feature","geometry":{"type":"LineString","coordinates":[[-80.19903267901421, 25.757963192038105],[-80.198764, 25.758146],[-80.198064, 25.758626],[-80.197773, 25.758832],[-80.1977240643122, 25.758866187946268]direction: "E","zip":33129,"OID":9430393,"id":392284374,"street":"SW 1st Ave","miles":0.102608753617885,"lanes":1,"tessellate":true}},
{"type":"Feature","geometry":{"type":"LineString","coordinates":[[-80.20641888030713, 25.75160236397282],[-80.206409, 25.751609],[-80.206335, 25.75166],[-80.2061456022174, 25.75180581251881]direction: "E","zip":33129,"OID":9432848,"id":392289886,"street":"SW 1st Ave","miles":0.0222003029476133,"lanes":1,"tessellate":true}},
{"type":"Feature","geometry":{"type":"LineString","coordinates":[[-80.1950469970265, 25.759143025274803],[-80.195029, 25.759296],[-80.19503204331339, 25.759311723785853]direction: "N","zip":33129,"OID":9433324,"id":392291577,"street":"SW 1st Ave","miles":0.012436798551264,"lanes":1,"tessellate":true}},
{"type":"Feature","geometry":{"type":"LineString","coordinates":[[-80.20363683453743, 25.750122145709984],[-80.203794, 25.750304],[-80.203818, 25.750332],[-80.20387891007636, 25.750400644689222]direction: "W","zip":33129,"OID":9433325,"id":392291578,"street":"SE 26th Rd","miles":0.0244407037329789,"lanes":2.183,"tessellate":true}},
{"type":"Feature","geometry":{"type":"LineString","coordinates":[[-80.21322896142398, 25.752028423156833],[-80.213231, 25.752027],[-80.213372, 25.75193],[-80.213679, 25.751722],[-80.213919, 25.751544],[-80.214008, 25.751482],[-80.214043, 25.751455],[-80.214187, 25.751354]direction: "W","zip":33129,"OID":9433326,"id":392291579,"street":"SW 3rd Ave","miles":0.0751780494626835,"lanes":2.121,"tessellate":true}},
{"type":"Feature","geometry":{"type":"LineString","coordinates":[[-80.205696, 25.752859],[-80.205748, 25.752847],[-80.205799, 25.752838],[-80.205872, 25.752835],[-80.205929, 25.752846],[-80.205981, 25.752867],[-80.206036, 25.752914],[-80.206075, 25.752956],[-80.20608555101384, 25.75296813366592]direction: "W","zip":33129,"OID":9438127,"id":392307589,"street":"","miles":0.0259226397987122,"lanes":1,"tessellate":true}},
{"type":"Feature","geometry":{"type":"LineString","coordinates":[[-80.20608555101384, 25.75296813366592],[-80.20615315137827, 25.753045874085018]direction: "N","zip":33129,"OID":9438128,"id":392307590,"street":"SW 26th Rd","miles":0.00695342604379933,"lanes":1,"tessellate":true}},
{"type":"Feature","geometry":{"type":"LineString","coordinates":[[-80.20536677723082, 25.749276528486597],[-80.20436729425869, 25.74997179530587],[-80.204367, 25.749972],[-80.204362, 25.75],[-80.204379, 25.750037],[-80.204409, 25.750062],[-80.20444, 25.750067],[-80.204476, 25.750057],[-80.204841, 25.749816],[-80.205467, 25.749392],[-80.205543625354, 25.74933715590552]direction: "N","zip":33129,"OID":9440532,"id":392326924,"street":"Brickell Ave","miles":0.166174070861471,"lanes":1,"tessellate":true}},
{"type":"Feature","geometry":{"type":"LineString","coordinates":[[-80.2061472575953, 25.752925075397005],[-80.206137, 25.752913],[-80.205874, 25.752598],[-80.20579051038071, 25.75254523919892]direction: "S","zip":33129,"OID":9441854,"id":392359336,"street":"SW 26th Rd","miles":0.0349928277598676,"lanes":2.379,"tessellate":true}},
{"type":"Feature","geometry":{"type":"LineString","coordinates":[[-80.205011, 25.753327],[-80.205052, 25.753375],[-80.205094, 25.753423],[-80.205167, 25.753509],[-80.205249, 25.753606],[-80.205289, 25.753651]direction: "N","zip":33129,"OID":9445344,"id":392402380,"street":"SW 25th Rd","miles":0.0272382844521247,"lanes":1.507,"tessellate":true}},
{"type":"Feature","geometry":{"type":"LineString","coordinates":[[-80.212045, 25.750024],[-80.212075, 25.750113],[-80.212166, 25.750261],[-80.21221, 25.750342],[-80.212263804713, 25.75038575328311]direction: "N","zip":33129,"OID":9445606,"id":392403960,"street":"SW 32nd","miles":0.0265398557796916,"lanes":1.347,"tessellate":true}},
{"type":"Feature","geometry":{"type":"LineString","coordinates":[[-80.21290575135289, 25.75114645706566],[-80.21311179714066, 25.751386063341588]direction: "N","zip":33129,"OID":9445607,"id":392403961,"street":"SW 32nd Rd","miles":0.0209757150200835,"lanes":1.347,"tessellate":true}},
{"type":"Feature","geometry":{"type":"LineString","coordinates":[[-80.21311179714141, 25.751386063342473],[-80.213147, 25.751427],[-80.213336, 25.751648],[-80.21338806779488, 25.75170874576069]direction: "N","zip":33129,"OID":9445608,"id":392403962,"street":"SW 32nd Rd","miles":0.0281508380583758,"lanes":1.347,"tessellate":true}},
{"type":"Feature","geometry":{"type":"LineString","coordinates":[[-80.2134200078698, 25.751108320606228],[-80.21333126238633, 25.751109995049315],[-80.213331, 25.75111],[-80.213083, 25.751115],[-80.213046, 25.751116],[-80.21289899077085, 25.751119607588446]direction: "E","zip":33129,"OID":9445609,"id":392403963,"street":"SW 22nd St","miles":0.0324782571046987,"lanes":1,"tessellate":true}},
{"type":"Feature","geometry":{"type":"LineString","coordinates":[[-80.213147, 25.751427],[-80.213138, 25.751322],[-80.21314, 25.75127],[-80.213156, 25.751241],[-80.213177, 25.751202],[-80.213217, 25.75117],[-80.213331, 25.75111]direction: "W","zip":33129,"OID":9445610,"id":392403964,"street":"","miles":0.0298348301603109,"lanes":1,"tessellate":true}},
{"type":"Feature","geometry":{"type":"LineString","coordinates":[[-80.21295895626884, 25.749630347205326],[-80.212947, 25.749601],[-80.212908, 25.749559],[-80.212844, 25.749544],[-80.212774, 25.749554],[-80.212752, 25.749562],[-80.212564, 25.749629],[-80.212396, 25.749689],[-80.212197, 25.74976],[-80.212095, 25.749796],[-80.212032, 25.74983],[-80.212004, 25.749872],[-80.212005, 25.749889],[-80.212008, 25.749933],[-80.212045, 25.750024]direction: "E","zip":33129,"OID":9446107,"id":392418835,"street":"","miles":0.0857278144057131,"lanes":1,"tessellate":true}},
{"type":"Feature","geometry":{"type":"LineString","coordinates":[[-80.212263804713, 25.75038575328311],[-80.21230071208187, 25.75041576586878],[-80.212301, 25.750416],[-80.2125, 25.750657],[-80.212883, 25.75112],[-80.21288300682798, 25.75112000794011],[-80.21290575133958, 25.75114645705018]direction: "N","zip":33129,"OID":9447923,"id":392462179,"street":"SW 32nd Rd","miles":0.0659192645691045,"lanes":1.347,"tessellate":true}},
{"type":"Feature","geometry":{"type":"LineString","coordinates":[[-80.19421384104594, 25.758818351574572],[-80.194299, 25.758874],[-80.194372, 25.758921],[-80.195029, 25.759296],[-80.19504414020955, 25.759305067177724]direction: "W","zip":33129,"OID":9447985,"id":392462325,"street":"Broadway","miles":0.0616282077693885,"lanes":1,"tessellate":true}},
{"type":"Feature","geometry":{"type":"LineString","coordinates":[[-80.21176004874687, 25.754933051184214],[-80.21178, 25.754954],[-80.211805, 25.754969],[-80.211834, 25.754977],[-80.211857, 25.754979],[-80.211885, 25.754974],[-80.211911, 25.754964],[-80.21193323668905, 25.754947564186356]direction: "O","zip":33129,"OID":9448660,"id":392476003,"street":"","miles":0.0115949653132305,"lanes":1,"tessellate":true}},
{"type":"Feature","geometry":{"type":"LineString","coordinates":[[-80.21193323668903, 25.754947564186363],[-80.211934, 25.754947],[-80.211951, 25.754927],[-80.211961, 25.754902],[-80.211964, 25.754881],[-80.211958, 25.754847],[-80.2119394064623, 25.754816663175344]direction: "O","zip":33129,"OID":9448661,"id":392476004,"street":"","miles":0.0110081714993301,"lanes":1,"tessellate":true}},
{"type":"Feature","geometry":{"type":"LineString","coordinates":[[-80.21193940646229, 25.75481666317531],[-80.211939, 25.754816],[-80.21191, 25.754793],[-80.21187407914636, 25.754781026382123]direction: "O","zip":33129,"OID":9448662,"id":392476005,"street":"","miles":0.0115949783501169,"lanes":1,"tessellate":true}},
{"type":"Feature","geometry":{"type":"LineString","coordinates":[[-80.21185264052673, 25.7547790582297],[-80.211852, 25.754779],[-80.211819, 25.754784],[-80.211788, 25.754798],[-80.211764, 25.75482],[-80.211748, 25.754847],[-80.211742, 25.754882],[-80.211747, 25.754909],[-80.21176, 25.754933],[-80.21177968172579, 25.75495366581207]direction: "O","zip":33129,"OID":9448663,"id":392476006,"street":"","miles":0.0110081720919158,"lanes":1,"tessellate":true}},
{"type":"Feature","geometry":{"type":"LineString","coordinates":[[-80.20878799554144, 25.76076599639886],[-80.208762, 25.760745],[-80.208739, 25.760736],[-80.20872912725491, 25.76073205090196],[-80.2087, 25.760728],[-80.208642, 25.760693],[-80.208594, 25.760658],[-80.20851, 25.760605]direction: "O","zip":33129,"OID":9448664,"id":392476011,"street":"","miles":0.0107517584614354,"lanes":1,"tessellate":true}},
{"type":"Feature","geometry":{"type":"LineString","coordinates":[[-80.20862866257244, 25.76075233742757],[-80.208605, 25.760776],[-80.208591, 25.760805],[-80.208588, 25.760833],[-80.208595, 25.760868],[-80.208613, 25.760895],[-80.20861358190315, 25.760895474143314]direction: "O","zip":33129,"OID":9448665,"id":392476012,"street":"","miles":0.0119378905369142,"lanes":1,"tessellate":true}},
{"type":"Feature","geometry":{"type":"LineString","coordinates":[[-80.20877306083291, 25.760909936522165],[-80.208796, 25.760886],[-80.20881, 25.760857],[-80.208814, 25.760825],[-80.208806, 25.760794],[-80.208788, 25.760766],[-80.208762, 25.760745],[-80.20876160479742, 25.76074484535551]direction: "O","zip":33129,"OID":9448666,"id":392476013,"street":"","miles":0.0110080482414947,"lanes":1,"tessellate":true}},
{"type":"Feature","geometry":{"type":"LineString","coordinates":[[-80.20861358190314, 25.7608954741433],[-80.20864, 25.760917],[-80.208672, 25.760929],[-80.208707, 25.760933],[-80.208742, 25.760926],[-80.208773, 25.76091],[-80.20877306083294, 25.76090993652214]direction: "O","zip":33129,"OID":9448667,"id":392476014,"street":"","miles":0.0115945291701207,"lanes":1,"tessellate":true}},
{"type":"Feature","geometry":{"type":"LineString","coordinates":[[-80.2136230369751, 25.753767964873663],[-80.213643, 25.753749],[-80.213655, 25.753725],[-80.213659, 25.753706],[-80.213656, 25.753678],[-80.213641, 25.753652],[-80.213618, 25.753632],[-80.2136179169501, 25.753631965634522]direction: "O","zip":33129,"OID":9452350,"id":392610852,"street":"","miles":0.00919917906363176,"lanes":1,"tessellate":true}},
{"type":"Feature","geometry":{"type":"LineString","coordinates":[[-80.21351561889696, 25.753630738158975],[-80.213515, 25.753631],[-80.213494, 25.753648],[-80.21348, 25.75367],[-80.213474, 25.753691]direction: "O","zip":33129,"OID":9452351,"id":392610853,"street":"","miles":0.00919917965621756,"lanes":1,"tessellate":true}},
{"type":"Feature","geometry":{"type":"LineString","coordinates":[[-80.21364104159056, 25.753652072090322],[-80.213641, 25.753652],[-80.213618, 25.753632],[-80.213589, 25.75362],[-80.213569, 25.753617],[-80.213541, 25.75362],[-80.21351561889696, 25.753630738158975]direction: "O","zip":33129,"OID":9452356,"id":392610887,"street":"","miles":0.0092736066482824,"lanes":1,"tessellate":true}},
{"type":"Feature","geometry":{"type":"LineString","coordinates":[[-80.213474, 25.753691],[-80.213474, 25.753712],[-80.21348, 25.753733],[-80.213492, 25.753751],[-80.213508, 25.753766],[-80.213528, 25.753778],[-80.21355, 25.753784],[-80.21357, 25.753785],[-80.213598, 25.75378],[-80.213623, 25.753768],[-80.21364282212565, 25.753749168980644]direction: "O","zip":33129,"OID":9452357,"id":392610888,"street":"","miles":0.0089340751631717,"lanes":1,"tessellate":true}},
{"type":"Feature","geometry":{"type":"LineString","coordinates":[[-80.204401, 25.750758],[-80.204217, 25.75054],[-80.204195, 25.750514],[-80.204151, 25.750454]direction: "S","zip":33129,"OID":9942076,"id":429204963,"street":"SE 26th Rd","miles":0.0286967683443351,"lanes":3.678,"tessellate":true}},
{"type":"Feature","geometry":{"type":"LineString","coordinates":[[-80.20398526836817, 25.75052452204181],[-80.204034, 25.750583],[-80.204192, 25.750772],[-80.20426108108548, 25.750856182532072]direction: "N","zip":33129,"OID":9942077,"id":429204964,"street":"SE 26th Rd","miles":0.0286967683443351,"lanes":2.183,"tessellate":true}},
{"type":"Feature","geometry":{"type":"LineString","coordinates":[[-80.204756, 25.751429],[-80.204897, 25.751635],[-80.20491009075654, 25.75166007212692]direction: "N","zip":33129,"OID":9942078,"id":429204965,"street":"","miles":0.0230323312618772,"lanes":1.297,"tessellate":true}},
{"type":"Feature","geometry":{"type":"LineString","coordinates":[[-80.204686, 25.751335],[-80.204628, 25.751374],[-80.204509, 25.751453],[-80.204409, 25.751522],[-80.20434306994416, 25.751567951251033]direction: "E","zip":33129,"OID":9942079,"id":429204966,"street":"S Miami Ave","miles":0.0308194590820898,"lanes":1.33,"tessellate":true}},
{"type":"Feature","geometry":{"type":"LineString","coordinates":[[-80.204475, 25.751626],[-80.204664, 25.751492],[-80.204701, 25.751466],[-80.204756, 25.751429],[-80.20481351812134, 25.751390305991094]direction: "W","zip":33129,"OID":9942080,"id":429204967,"street":"S Miami Ave","miles":0.0308194590820898,"lanes":2.816,"tessellate":true}},
{"type":"Feature","geometry":{"type":"LineString","coordinates":[[-80.2044711066078, 25.750244912923222],[-80.20434, 25.750266],[-80.204232, 25.750294],[-80.204199, 25.750302],[-80.20406833087956, 25.75034090149387],[-80.204068, 25.750341],[-80.20404354409631, 25.750349108374486]direction: "E","zip":33129,"OID":9942081,"id":429204968,"street":"US-1 N","miles":0.0276512076820004,"lanes":2.111,"tessellate":true}},
{"type":"Feature","geometry":{"type":"LineString","coordinates":[[-80.20746927825016, 25.74999855697962],[-80.206978, 25.750036],[-80.206741, 25.750054],[-80.20652163392243, 25.75007194813362],[-80.206521, 25.750072],[-80.2064890876201, 25.750074681712597]direction: "E","zip":33129,"OID":9942082,"id":429204969,"street":"S Federal Hwy","miles":0.0611791415496325,"lanes":2.179,"tessellate":true}},
{"type":"Feature","geometry":{"type":"LineString","coordinates":[[-80.20405787096459, 25.750328620067826],[-80.203987, 25.750242],[-80.20396, 25.75021],[-80.203874, 25.750109],[-80.20383253424131, 25.750059636001556],[-80.203832, 25.750059],[-80.203696, 25.749898]direction: "S","zip":33129,"OID":9942083,"id":429204970,"street":"SE 26th Rd","miles":0.0318327913759887,"lanes":3.678,"tessellate":true}},
{"type":"Feature","geometry":{"type":"LineString","coordinates":[[-80.20400361942345, 25.753994155075404],[-80.204237, 25.753852],[-80.204634, 25.753584],[-80.204871, 25.753423],[-80.20500276843356, 25.7533326445027]direction: "W","zip":33129,"OID":9942084,"id":429204971,"street":"","miles":0.0771772986634821,"lanes":3,"tessellate":true}},
{"type":"Feature","geometry":{"type":"LineString","coordinates":[[-80.2044698416133, 25.750240817955977],[-80.204284, 25.75021],[-80.204247, 25.750202],[-80.204198, 25.750188],[-80.204149, 25.750166],[-80.204103, 25.75014],[-80.204061, 25.750112],[-80.203951, 25.74998],[-80.20387607015763, 25.74988934414134]direction: "E","zip":33129,"OID":9942085,"id":429204972,"street":"","miles":0.0472049100922578,"lanes":1,"tessellate":true}},
{"type":"Feature","geometry":{"type":"LineString","coordinates":[[-80.20387607015664, 25.749889344140133],[-80.20387, 25.749882],[-80.203702, 25.749693],[-80.203531, 25.7495],[-80.20331, 25.749274],[-80.203214, 25.749164],[-80.203018, 25.748939],[-80.20274314302821, 25.74860804976866]direction: "S","zip":33129,"OID":9942086,"id":429204973,"street":"SE 26th Rd","miles":0.113160045061799,"lanes":3.167,"tessellate":true}},
{"type":"Feature","geometry":{"type":"LineString","coordinates":[[-80.20395037581306, 25.751970572357777],[-80.20387930092382, 25.75188934391293]direction: "S","zip":33129,"OID":9942087,"id":429204974,"street":"SW 25th Rd","miles":0.00796579775620234,"lanes":1,"tessellate":true}},
{"type":"Feature","geometry":{"type":"LineString","coordinates":[[-80.219784, 25.746598],[-80.219799, 25.746675],[-80.219798, 25.746685],[-80.219784, 25.746794],[-80.219774, 25.746872]direction: "E","zip":33129,"OID":9942851,"id":429205982,"street":"SW 3rd Ave","miles":0.0207495309663142,"lanes":1,"tessellate":true}},
{"type":"Feature","geometry":{"type":"LineString","coordinates":[[-80.21985173524047, 25.746872004868468],[-80.219863, 25.746732],[-80.219867, 25.746676],[-80.21987, 25.746649],[-80.219873, 25.746564]direction: "S","zip":33129,"OID":9942852,"id":429205983,"street":"SW 3rd Ave","miles":0.0207495309663142,"lanes":2,"tessellate":true}},
{"type":"Feature","geometry":{"type":"LineString","coordinates":[[-80.212368, 25.75009],[-80.212854, 25.749913],[-80.212929, 25.749851],[-80.212967, 25.749799],[-80.212987, 25.749757],[-80.212988, 25.749714],[-80.212969, 25.749655],[-80.212301, 25.750416],[-80.212289, 25.750301],[-80.212297, 25.750218],[-80.21232, 25.750159],[-80.212368, 25.75009],[-80.212969, 25.749655],[-80.212947020739, 25.749601050904808]direction: "S","zip":33129,"OID":9943520,"id":429206900,"street":"","miles":0.00906845583301699,"lanes":1,"tessellate":true}},
{"type":"Feature","geometry":{"type":"LineString","coordinates":[[-80.1929, 25.746095],[-80.192442, 25.746076],[-80.191754, 25.746094],[-80.191574, 25.746094],[-80.191224, 25.746098],[-80.190184, 25.74612],[-80.189665, 25.74613],[-80.189606, 25.746139],[-80.189583, 25.746156],[-80.189552, 25.746175],[-80.189531, 25.746203],[-80.189516, 25.746228],[-80.189505, 25.746257],[-80.189514, 25.746496],[-80.189525, 25.746521],[-80.18954, 25.746543],[-80.189562, 25.746566],[-80.189591, 25.746581],[-80.189624, 25.746594],[-80.18966, 25.746597],[-80.189701, 25.746596],[-80.190621, 25.746574],[-80.191016, 25.746543],[-80.191368, 25.746496],[-80.191825, 25.746412],[-80.192018, 25.746376],[-80.1923, 25.74628]direction: "E","zip":33129,"OID":9943544,"id":429206951,"street":"","miles":0.384977862628805,"lanes":1,"tessellate":true}},
{"type":"Feature","geometry":{"type":"LineString","coordinates":[[-80.205034, 25.751613],[-80.205032, 25.751432],[-80.205038, 25.751386],[-80.205045, 25.751352],[-80.20506, 25.75131],[-80.205149, 25.751159]direction: "S","zip":33129,"OID":9946091,"id":429221340,"street":"","miles":0.0316485502450987,"lanes":1,"tessellate":true}},
{"type":"Feature","geometry":{"type":"LineString","coordinates":[[-80.21221380648585, 25.74142121682024],[-80.212119, 25.741324],[-80.211989, 25.74124],[-80.211677, 25.741026],[-80.211629, 25.740994],[-80.21162, 25.740973],[-80.21161105010417, 25.740954105775458]direction: "E","zip":33129,"OID":9946117,"id":429221461,"street":"","miles":0.0468022658547495,"lanes":1,"tessellate":true}},
{"type":"Feature","geometry":{"type":"LineString","coordinates":[[-80.20728765888073, 25.75611907736677],[-80.20737, 25.756062],[-80.20737639036301, 25.756057621417938]direction: "W","zip":33129,"OID":10248238,"id":441253992,"street":"SW 3rd Ave","miles":0.00696798943111739,"lanes":2.121,"tessellate":true}},
{"type":"Feature","geometry":{"type":"LineString","coordinates":[[-80.20726927547314, 25.75591923257101],[-80.207255, 25.755929],[-80.207168, 25.755988],[-80.20716192064486, 25.7559923553589]direction: "E","zip":33129,"OID":10248239,"id":441253993,"street":"SW 3rd Ave","miles":0.00838145873222903,"lanes":2.047,"tessellate":true}},
{"type":"Feature","geometry":{"type":"LineString","coordinates":[[-80.206273, 25.754665],[-80.206238, 25.754657],[-80.206201, 25.754658],[-80.206163, 25.754669],[-80.20616284439974, 25.754669099018347]direction: "O","zip":33129,"OID":10248397,"id":441254244,"street":"","miles":0.00705920793290906,"lanes":1,"tessellate":true}},
{"type":"Feature","geometry":{"type":"LineString","coordinates":[[-80.20634611412395, 25.754733427964826],[-80.206346, 25.754733],[-80.20633, 25.754706],[-80.206304, 25.754682],[-80.20627372859012, 25.754665399549424]direction: "O","zip":33129,"OID":10248398,"id":441254245,"street":"","miles":0.0070376384043043,"lanes":1,"tessellate":true}},
{"type":"Feature","geometry":{"type":"LineString","coordinates":[[-80.2063427979688, 25.754823288616002],[-80.206343, 25.754823],[-80.206353, 25.754793],[-80.206354, 25.754763],[-80.20634611412396, 25.75473342796484]direction: "O","zip":33129,"OID":10248399,"id":441254246,"street":"","miles":0.00735944150162227,"lanes":1,"tessellate":true}},
{"type":"Feature","geometry":{"type":"LineString","coordinates":[[-80.20615773638663, 25.75487779882137],[-80.206158, 25.754878],[-80.206189, 25.754887],[-80.206205, 25.754892],[-80.20625465078099, 25.754890013968758]direction: "O","zip":33129,"OID":10248400,"id":441254247,"street":"","miles":0.00698335103143665,"lanes":1,"tessellate":true}},
{"type":"Feature","geometry":{"type":"LineString","coordinates":[[-80.20609705124993, 25.754808091358573],[-80.20612, 25.754849],[-80.20615773638663, 25.754877798821372]direction: "O","zip":33129,"OID":10248401,"id":441254248,"street":"","miles":0.00632587477480662,"lanes":1,"tessellate":true}},
{"type":"Feature","geometry":{"type":"LineString","coordinates":[[-80.20610599843396, 25.75471900492188],[-80.206092, 25.754763],[-80.206095, 25.754794],[-80.206097, 25.754808],[-80.20609705124993, 25.75480809135857]direction: "O","zip":33129,"OID":10248402,"id":441254249,"street":"","miles":0.00782702958148636,"lanes":1,"tessellate":true}},
{"type":"Feature","geometry":{"type":"LineString","coordinates":[[-80.20716991912377, 25.754065864976603],[-80.207161, 25.754061],[-80.20712802943372, 25.75405615138731]direction: "O","zip":33129,"OID":10248403,"id":441254251,"street":"","miles":0.00248920383709745,"lanes":1,"tessellate":true}},
{"type":"Feature","geometry":{"type":"LineString","coordinates":[[-80.19921187793689, 25.761740763394396],[-80.199325, 25.761795],[-80.19944, 25.761866],[-80.199455, 25.761875],[-80.200288, 25.76236],[-80.20067, 25.762585],[-80.20067113573639, 25.762585668080224]direction: "W","zip":33129,"OID":10261980,"id":441288096,"street":"Broadway","miles":0.107825184023902,"lanes":1,"tessellate":true}},
{"type":"Feature","geometry":{"type":"LineString","coordinates":[[-80.19886830701093, 25.755350135613945],[-80.198813, 25.755389],[-80.198008, 25.75594],[-80.1980015243626, 25.755944455238534]direction: "E","zip":33129,"OID":10262891,"id":441289580,"street":"S Miami Ave","miles":0.0677793307851646,"lanes":1.33,"tessellate":true}},
{"type":"Feature","geometry":{"type":"LineString","coordinates":[[-80.19893315075676, 25.755421271354724],[-80.198951, 25.755409],[-80.19977, 25.754844]direction: "W","zip":33129,"OID":10262892,"id":441289581,"street":"S Miami Ave","miles":0.0667808581714574,"lanes":1.027,"tessellate":true}},
{"type":"Feature","geometry":{"type":"LineString","coordinates":[[-80.19806618688294, 25.756014939076085],[-80.198069, 25.756013],[-80.198871, 25.755464],[-80.1989331507523, 25.755421271357797]direction: "W","zip":33129,"OID":10262893,"id":441289582,"street":"S Miami Ave","miles":0.0677731050793068,"lanes":1.027,"tessellate":true}},
{"type":"Feature","geometry":{"type":"LineString","coordinates":[[-80.19800152436451, 25.75594445523722],[-80.197133, 25.756542],[-80.19710576886293, 25.75655925917138]direction: "E","zip":33129,"OID":10262894,"id":441289583,"street":"S Miami Ave","miles":0.0700217262141549,"lanes":1.33,"tessellate":true}},
{"type":"Feature","geometry":{"type":"LineString","coordinates":[[-80.19717706764467, 25.75662782730188],[-80.1972, 25.756612],[-80.19806618684757, 25.756014939100464]direction: "W","zip":33129,"OID":10262895,"id":441289584,"street":"S Miami Ave","miles":0.0696798042381405,"lanes":1.027,"tessellate":true}},
{"type":"Feature","geometry":{"type":"LineString","coordinates":[[-80.1971057688735, 25.756559259164675],[-80.196991, 25.756632],[-80.196592, 25.756912],[-80.196335, 25.757092],[-80.19627, 25.757136],[-80.19625491128087, 25.757146529537803]direction: "E","zip":33129,"OID":10262896,"id":441289585,"street":"S Miami Ave","miles":0.066788510823794,"lanes":1.33,"tessellate":true}},
{"type":"Feature","geometry":{"type":"LineString","coordinates":[[-80.19631361260856, 25.757223719079285],[-80.196335, 25.757209],[-80.19717706761467, 25.75662782732259]direction: "W","zip":33129,"OID":10262897,"id":441289586,"street":"S Miami Ave","miles":0.0676992997096904,"lanes":1.027,"tessellate":true}},
{"type":"Feature","geometry":{"type":"LineString","coordinates":[[-80.19625491128627, 25.757146529534037],[-80.196131, 25.757233],[-80.195479, 25.757681],[-80.195407, 25.757731],[-80.194722, 25.758202],[-80.19465902640266, 25.75824627831063],[-80.194658, 25.758247],[-80.194541, 25.75833],[-80.194386, 25.758452],[-80.19431, 25.758508],[-80.19425, 25.758539],[-80.19417355314428, 25.758567562561478]direction: "E","zip":33129,"OID":10262898,"id":441289587,"street":"S Miami Ave","miles":0.16271814515499,"lanes":1.33,"tessellate":true}},
{"type":"Feature","geometry":{"type":"LineString","coordinates":[[-80.20067113573083, 25.762585668076955],[-80.201809, 25.763255]direction: "W","zip":33129,"OID":10262899,"id":441289588,"street":"Broadway","miles":0.0808375188988239,"lanes":1,"tessellate":true}},
{"type":"Feature","geometry":{"type":"LineString","coordinates":[[-80.19892569906696, 25.761420645930595],[-80.198781, 25.761326],[-80.198402, 25.761108],[-80.198172, 25.760979],[-80.1981609492486, 25.760972503497662]direction: "E","zip":33129,"OID":10262902,"id":441289591,"street":"Broadway","miles":0.0568069218356655,"lanes":1,"tessellate":true}},
{"type":"Feature","geometry":{"type":"LineString","coordinates":[[-80.19816094924474, 25.760972503495392],[-80.197347, 25.760494],[-80.197227, 25.760423]direction: "E","zip":33129,"OID":10262903,"id":441289592,"street":"Broadway","miles":0.0696140627753693,"lanes":1,"tessellate":true}},
{"type":"Feature","geometry":{"type":"LineString","coordinates":[[-80.19653694083335, 25.760022026858994],[-80.196466, 25.759962],[-80.196277, 25.759843],[-80.196232, 25.759815],[-80.195047, 25.759143]direction: "E","zip":33129,"OID":10262905,"id":441289595,"street":"Broadway","miles":0.111966257963641,"lanes":1,"tessellate":true}},
{"type":"Feature","geometry":{"type":"LineString","coordinates":[[-80.19646775902216, 25.76012779215011],[-80.196472, 25.76013],[-80.196813, 25.760331],[-80.196836, 25.760345],[-80.197101, 25.760507],[-80.19715339569773, 25.760538874049452]direction: "W","zip":33129,"OID":10262906,"id":441289596,"street":"Broadway","miles":0.0512199120069094,"lanes":1,"tessellate":true}},
{"type":"Feature","geometry":{"type":"LineString","coordinates":[[-80.19722489940891, 25.760421785163278],[-80.1965445599691, 25.76002832384743]direction: "E","zip":33129,"OID":10262908,"id":441289598,"street":"Broadway","miles":0.0507000507531317,"lanes":1,"tessellate":true}},
{"type":"Feature","geometry":{"type":"LineString","coordinates":[[-80.19715339569598, 25.760538874048386],[-80.197221, 25.76058],[-80.197715, 25.760865],[-80.19803, 25.761042],[-80.19803862106083, 25.761046310530414]direction: "W","zip":33129,"OID":10262909,"id":441289599,"street":"Broadway","miles":0.0653595874789864,"lanes":1,"tessellate":true}},
{"type":"Feature","geometry":{"type":"LineString","coordinates":[[-80.19550645372249, 25.759581937770367],[-80.195565, 25.759617],[-80.195786, 25.759748],[-80.19613, 25.75995],[-80.196205, 25.759991],[-80.19646775902216, 25.76012779215011]direction: "W","zip":33129,"OID":10262912,"id":441289602,"street":"Broadway","miles":0.0708237821339216,"lanes":1,"tessellate":true}},
{"type":"Feature","geometry":{"type":"LineString","coordinates":[[-80.19503548036023, 25.759137230905043],[-80.194426, 25.758832],[-80.194383, 25.758811],[-80.194291, 25.758764],[-80.1942641650104, 25.758745116118426]direction: "E","zip":33129,"OID":10262913,"id":441289603,"street":"Broadway","miles":0.0535898188517655,"lanes":1,"tessellate":true}},
{"type":"Feature","geometry":{"type":"LineString","coordinates":[[-80.2061822115032, 25.754635393270902],[-80.205394, 25.753687],[-80.20528928546399, 25.753651097873373]direction: "S","zip":33129,"OID":10262914,"id":441289604,"street":"SW 25th Rd","miles":0.0911926419422261,"lanes":1,"tessellate":true}},
{"type":"Feature","geometry":{"type":"LineString","coordinates":[[-80.19504414020703, 25.759305067176225],[-80.19550645373472, 25.759581937777696]direction: "W","zip":33129,"OID":10262915,"id":441289605,"street":"Broadway","miles":0.0345490622196183,"lanes":1,"tessellate":true}},
{"type":"Feature","geometry":{"type":"LineString","coordinates":[[-80.20625883187437, 25.754894606168147],[-80.207126, 25.755937],[-80.20716648264576, 25.755986157498434]direction: "N","zip":33129,"OID":10262917,"id":441289607,"street":"SW 25th Rd","miles":0.0942382701662764,"lanes":1,"tessellate":true}},
{"type":"Feature","geometry":{"type":"LineString","coordinates":[[-80.207127, 25.754056],[-80.207088, 25.75403],[-80.207061, 25.754006],[-80.206327, 25.753137],[-80.206216, 25.753006]direction: "S","zip":33129,"OID":10262919,"id":441289609,"street":"SW 26th Rd","miles":0.094285533620285,"lanes":1,"tessellate":true}},
{"type":"Feature","geometry":{"type":"LineString","coordinates":[[-80.19428067987975, 25.758633939599207],[-80.194303, 25.758608],[-80.194354, 25.758568],[-80.194395, 25.758538],[-80.19456159654973, 25.758425272993293],[-80.194562, 25.758425],[-80.194726, 25.758314],[-80.195469, 25.757802],[-80.195546, 25.757752],[-80.19631361260856, 25.757223719079285]direction: "W","zip":33129,"OID":10262920,"id":441289610,"street":"S Miami Ave","miles":0.159479925970582,"lanes":1.027,"tessellate":true}},
{"type":"Feature","geometry":{"type":"LineString","coordinates":[[-80.207122, 25.754245],[-80.207172, 25.754268],[-80.207208, 25.754293],[-80.208048, 25.755309],[-80.20808477231358, 25.755352613674244]direction: "N","zip":33129,"OID":10262921,"id":441289611,"street":"SW 26th Rd","miles":0.0955289082937513,"lanes":1,"tessellate":true}},
{"type":"Feature","geometry":{"type":"LineString","coordinates":[[-80.21217163476241, 25.74141945115079],[-80.212237, 25.741445],[-80.212389, 25.74154],[-80.212548, 25.741691],[-80.212593, 25.741775],[-80.212607, 25.741801],[-80.212611, 25.742114],[-80.212616, 25.742342],[-80.212618, 25.74245],[-80.212594, 25.742507],[-80.212511, 25.742569],[-80.212221, 25.742585]direction: "N","zip":33129,"OID":10263054,"id":441289781,"street":"","miles":0.110742625876921,"lanes":1,"tessellate":true}},
{"type":"Feature","geometry":{"type":"LineString","coordinates":[[-80.212221, 25.742585],[-80.212511, 25.742569],[-80.212594, 25.742507],[-80.212618, 25.74245],[-80.212616, 25.742342],[-80.212611, 25.742114],[-80.213254, 25.742119],[-80.213345, 25.74212],[-80.213473, 25.742228]direction: "W","zip":33129,"OID":10263055,"id":441289782,"street":"","miles":0.10792903645382,"lanes":1.05149999999999,"tessellate":true}},
{"type":"Feature","geometry":{"type":"LineString","coordinates":[[-80.21433273803292, 25.762939569185175],[-80.214327, 25.762733],[-80.214321, 25.762557],[-80.21432, 25.762538],[-80.214299, 25.762016],[-80.214254, 25.76087],[-80.214252, 25.760074],[-80.21425, 25.759909],[-80.214248, 25.759798],[-80.214248, 25.759742],[-80.214248, 25.759633],[-80.214247, 25.759303],[-80.214244, 25.759061],[-80.214244, 25.75902040804796]direction: "S","zip":33129,"OID":10263075,"id":441289805,"street":"SW 12th Ave","miles":0.270909339765522,"lanes":1.3485,"tessellate":true}},
{"type":"Feature","geometry":{"type":"LineString","coordinates":[[-80.20822085482453, 25.763084265468315],[-80.207867, 25.763092],[-80.207706, 25.763095],[-80.207415, 25.763083],[-80.20731019823218, 25.76308398869592]direction: "E","zip":33129,"OID":10263077,"id":441289810,"street":"SW 11th St","miles":0.0566360556613779,"lanes":1,"tessellate":true}},
{"type":"Feature","geometry":{"type":"LineString","coordinates":[[-80.20730989867414, 25.763083991521942],[-80.207415, 25.763083],[-80.207706, 25.763095],[-80.207867, 25.763092],[-80.20822055533824, 25.763084272014463]direction: "W","zip":33129,"OID":10263078,"id":441289811,"street":"SW 11th St","miles":0.0566360556613779,"lanes":1,"tessellate":true}},
{"type":"Feature","geometry":{"type":"LineString","coordinates":[[-80.20730895590626, 25.763084001498935],[-80.206603, 25.763108],[-80.205665, 25.763131],[-80.205328, 25.763142],[-80.205265, 25.763144],[-80.204674, 25.763164],[-80.204016, 25.763188],[-80.202835, 25.763214],[-80.202715, 25.763217],[-80.20251989033588, 25.763224226283857]direction: "E","zip":33129,"OID":10263079,"id":441289812,"street":"SW 11th St","miles":0.298258928413333,"lanes":1,"tessellate":true}},
{"type":"Feature","geometry":{"type":"LineString","coordinates":[[-80.20251959101405, 25.76322423736985],[-80.202715, 25.763217],[-80.202835, 25.763214],[-80.204016, 25.763188],[-80.204674, 25.763164],[-80.205265, 25.763144],[-80.205328, 25.763142],[-80.205665, 25.763131],[-80.206603, 25.763108],[-80.20730865654494, 25.763084011675524]direction: "W","zip":33129,"OID":10263092,"id":441289825,"street":"SW 11th St","miles":0.298258928413333,"lanes":1,"tessellate":true}},
{"type":"Feature","geometry":{"type":"LineString","coordinates":[[-80.202012, 25.763237],[-80.20198, 25.763212],[-80.201893, 25.763151],[-80.200817, 25.76252],[-80.20078243977835, 25.76250052060234]direction: "E","zip":33129,"OID":10263093,"id":441289826,"street":"Broadway","miles":0.0945289441417192,"lanes":1.058,"tessellate":true}},
{"type":"Feature","geometry":{"type":"LineString","coordinates":[[-80.21419734735517, 25.753000123011955],[-80.214196, 25.75297],[-80.21419500088503, 25.752580345159522],[-80.214195, 25.75258],[-80.214189, 25.752114],[-80.214187, 25.751964],[-80.214186, 25.751868],[-80.214185, 25.751693],[-80.214186, 25.751509],[-80.214187, 25.751478],[-80.214187, 25.751370338693935]direction: "S","zip":33129,"OID":10263482,"id":441290394,"street":"SW 12th Ave","miles":0.112622120016696,"lanes":1.213,"tessellate":true}},
{"type":"Feature","geometry":{"type":"LineString","coordinates":[[-80.21397476265155, 25.759014015469873],[-80.213085, 25.75962],[-80.212305, 25.760155],[-80.21221785430862, 25.760207485473213]direction: "E","zip":33129,"OID":10263485,"id":441290398,"street":"SW 9th Ave","miles":0.136963267566423,"lanes":1,"tessellate":true}},
{"type":"Feature","geometry":{"type":"LineString","coordinates":[[-80.21221760529113, 25.76020763544966],[-80.212305, 25.760155],[-80.213085, 25.75962],[-80.21397452371366, 25.75901417820166]direction: "W","zip":33129,"OID":10263487,"id":441290400,"street":"SW 9th Ave","miles":0.136963267566423,"lanes":1,"tessellate":true}},
{"type":"Feature","geometry":{"type":"LineString","coordinates":[[-80.2062932535749, 25.75021175348812],[-80.206257, 25.750234],[-80.206127, 25.750333],[-80.205994, 25.750417],[-80.20596796754998, 25.750437999509682]direction: "E","zip":33129,"OID":10263491,"id":441290408,"street":"S Miami Ave","miles":0.0254392367904324,"lanes":1.33,"tessellate":true}},
{"type":"Feature","geometry":{"type":"LineString","coordinates":[[-80.2060450100849, 25.75051447179761],[-80.206246, 25.750351],[-80.20634866466244, 25.750269882242012]direction: "W","zip":33129,"OID":10263492,"id":441290409,"street":"S Miami Ave","miles":0.0254392367904324,"lanes":2.073,"tessellate":true}},
{"type":"Feature","geometry":{"type":"LineString","coordinates":[[-80.20699877845067, 25.75246822684582],[-80.207018, 25.752455],[-80.20708784098066, 25.752407163711883]direction: "W","zip":33129,"OID":10263493,"id":441290410,"street":"SW 1st Ave","miles":0.00696812750359643,"lanes":1,"tessellate":true}},
{"type":"Feature","geometry":{"type":"LineString","coordinates":[[-80.203779, 25.751957],[-80.203724, 25.751996],[-80.203452, 25.752192],[-80.203413, 25.75222],[-80.20305551262493, 25.75246809233133]direction: "E","zip":33129,"OID":10263494,"id":441290411,"street":"S Miami Ave","miles":0.0579908346775218,"lanes":1.33,"tessellate":true}},
{"type":"Feature","geometry":{"type":"LineString","coordinates":[[-80.20305551262493, 25.75246809233133],[-80.203047, 25.752474],[-80.20302, 25.752492],[-80.202972, 25.752525],[-80.2029600096811, 25.75253325999746]direction: "E","zip":33129,"OID":10263495,"id":441290412,"street":"S Miami Ave","miles":0.00747749228603772,"lanes":1.33,"tessellate":true}},
{"type":"Feature","geometry":{"type":"LineString","coordinates":[[-80.2031141796895, 25.75254344159542],[-80.203355, 25.752378],[-80.203497, 25.75228],[-80.203589, 25.752217],[-80.203768, 25.752094],[-80.203791, 25.752079],[-80.203851, 25.752043]direction: "W","zip":33129,"OID":10263496,"id":441290413,"street":"S Miami Ave","miles":0.0584084796306294,"lanes":1.027,"tessellate":true}},
{"type":"Feature","geometry":{"type":"LineString","coordinates":[[-80.206155, 25.753048],[-80.206263, 25.753173],[-80.206334, 25.753259],[-80.206997, 25.754053],[-80.207013, 25.754077],[-80.207028, 25.754119]direction: "N","zip":33129,"OID":10263497,"id":441290414,"street":"SW 26th Rd","miles":0.093541506363499,"lanes":1,"tessellate":true}},
{"type":"Feature","geometry":{"type":"LineString","coordinates":[[-80.20815260776936, 25.755304980765807],[-80.208115, 25.755263],[-80.207269, 25.754251],[-80.207247, 25.754215],[-80.207226, 25.754174]direction: "S","zip":33129,"OID":10263498,"id":441290415,"street":"SW 26th Rd","miles":0.0949866407802943,"lanes":1,"tessellate":true}},
{"type":"Feature","geometry":{"type":"LineString","coordinates":[[-80.20806577106539, 25.755377014862873],[-80.208048, 25.755389],[-80.207312, 25.75589],[-80.20726927547233, 25.755919232571568]direction: "E","zip":33129,"OID":10263499,"id":441290416,"street":"SW 3rd Ave","miles":0.0621368418936037,"lanes":2.047,"tessellate":true}},
{"type":"Feature","geometry":{"type":"LineString","coordinates":[[-80.20725570211974, 25.755929812016742],[-80.207255, 25.755929],[-80.207212, 25.755879],[-80.20635622430729, 25.754839070044294]direction: "S","zip":33129,"OID":10263500,"id":441290417,"street":"SW 25th Rd","miles":0.0938540446789561,"lanes":1,"tessellate":true}},
{"type":"Feature","geometry":{"type":"LineString","coordinates":[[-80.20737639036388, 25.756057621417344],[-80.207424, 25.756025],[-80.207552, 25.755936],[-80.208152, 25.755522],[-80.208186797149, 25.755498308324086]direction: "W","zip":33129,"OID":10263501,"id":441290418,"street":"SW 3rd Ave","miles":0.0635479841104872,"lanes":2.121,"tessellate":true}},
{"type":"Feature","geometry":{"type":"LineString","coordinates":[[-80.205289, 25.753651],[-80.205279, 25.75374],[-80.205285, 25.753756],[-80.20608999658211, 25.754700228634054]direction: "N","zip":33129,"OID":10263503,"id":441290421,"street":"SW 25th Rd","miles":0.0903864936252901,"lanes":1.507,"tessellate":true}},
{"type":"Feature","geometry":{"type":"LineString","coordinates":[[-80.20228476952535, 25.75311215753964],[-80.202285, 25.753112],[-80.202807, 25.752755],[-80.202987, 25.752632],[-80.20301363893638, 25.752612889458685]direction: "W","zip":33129,"OID":10263504,"id":441290422,"street":"S Miami Ave","miles":0.0570024300956559,"lanes":1.027,"tessellate":true}},
{"type":"Feature","geometry":{"type":"LineString","coordinates":[[-80.20222854786124, 25.7530398503242],[-80.202224, 25.753043],[-80.202146, 25.753097],[-80.2021397098299, 25.75310132648756]direction: "E","zip":33129,"OID":10263505,"id":441290423,"street":"S Miami Ave","miles":0.00696810380016658,"lanes":1.33,"tessellate":true}},
{"type":"Feature","geometry":{"type":"LineString","coordinates":[[-80.20142563767564, 25.753705114271373],[-80.201671, 25.753536],[-80.20219557310422, 25.753173211124185]direction: "W","zip":33129,"OID":10263506,"id":441290424,"street":"S Miami Ave","miles":0.0603901053313128,"lanes":1.027,"tessellate":true}},
{"type":"Feature","geometry":{"type":"LineString","coordinates":[[-80.20136320894524, 25.753635417197568],[-80.201358, 25.753639],[-80.200532, 25.754206],[-80.20052672782803, 25.754209606267747]direction: "E","zip":33129,"OID":10263507,"id":441290425,"street":"S Miami Ave","miles":0.0654487585970221,"lanes":1.33,"tessellate":true}},
{"type":"Feature","geometry":{"type":"LineString","coordinates":[[-80.20078243977835, 25.76250052060234],[-80.200762, 25.762489],[-80.200364, 25.762255],[-80.199493, 25.761784],[-80.199476, 25.761774],[-80.199379, 25.761686],[-80.199339, 25.761626]direction: "E","zip":33129,"OID":10263509,"id":441290427,"street":"Broadway","miles":0.105872613987565,"lanes":1.058,"tessellate":true}},
{"type":"Feature","geometry":{"type":"LineString","coordinates":[[-80.20301363893641, 25.752612889458664],[-80.203033, 25.752599],[-80.203109, 25.752547],[-80.20311417968854, 25.752543441596078]direction: "W","zip":33129,"OID":10263784,"id":441290882,"street":"S Miami Ave","miles":0.00788155280348129,"lanes":1.027,"tessellate":true}},
{"type":"Feature","geometry":{"type":"LineString","coordinates":[[-80.2029600096867, 25.752533259993605],[-80.202927, 25.752556],[-80.202829, 25.752624],[-80.20222854786051, 25.7530398503247]direction: "E","zip":33129,"OID":10263785,"id":441290883,"street":"S Miami Ave","miles":0.0574483804995543,"lanes":1.33,"tessellate":true}},
{"type":"Feature","geometry":{"type":"LineString","coordinates":[[-80.20219557310675, 25.753173211122437],[-80.202206, 25.753166],[-80.20228476951529, 25.75311215754652]direction: "W","zip":33129,"OID":10263786,"id":441290884,"street":"S Miami Ave","miles":0.0069681002446521,"lanes":1.027,"tessellate":true}},
{"type":"Feature","geometry":{"type":"LineString","coordinates":[[-80.20213970983491, 25.753101326484106],[-80.2013632089363, 25.75363541720371]direction: "E","zip":33129,"OID":10263787,"id":441290885,"street":"S Miami Ave","miles":0.0608037396640848,"lanes":1.33,"tessellate":true}},
{"type":"Feature","geometry":{"type":"LineString","coordinates":[[-80.214187, 25.751354],[-80.214443, 25.751176]direction: "W","zip":33129,"OID":10264872,"id":441295189,"street":"SW 3rd Ave","miles":0.0217582458320726,"lanes":2.121,"tessellate":true}},
{"type":"Feature","geometry":{"type":"LineString","coordinates":[[-80.214187, 25.751370338693935],[-80.214187, 25.751478],[-80.214186, 25.751509],[-80.214185, 25.751693],[-80.214186, 25.751868],[-80.214187, 25.751964],[-80.214189, 25.752114],[-80.214195, 25.75258],[-80.214196, 25.75297],[-80.21419733127811, 25.752999763574866]direction: "N","zip":33129,"OID":10264873,"id":441295190,"street":"SW 12th Ave","miles":0.112622120016696,"lanes":1.164,"tessellate":true}},
{"type":"Feature","geometry":{"type":"LineString","coordinates":[[-80.20596796754998, 25.750437999509682],[-80.205844, 25.750538],[-80.205705, 25.750638],[-80.205607, 25.750709],[-80.205325, 25.750907],[-80.205119, 25.751045],[-80.205079, 25.751071]direction: "E","zip":33129,"OID":10265168,"id":441296677,"street":"S Miami Ave","miles":0.0703855525297208,"lanes":1.33,"tessellate":true}},
{"type":"Feature","geometry":{"type":"LineString","coordinates":[[-80.20515731162226, 25.75115324459365],[-80.205679, 25.750792],[-80.205857, 25.750667],[-80.206021, 25.750534]direction: "W","zip":33129,"OID":10265169,"id":441296678,"street":"S Miami Ave","miles":0.0703855525297208,"lanes":2.816,"tessellate":true}},
{"type":"Feature","geometry":{"type":"LineString","coordinates":[[-80.205079, 25.751071],[-80.204906, 25.75118],[-80.20488, 25.751197],[-80.204803, 25.751255],[-80.204686, 25.751335]direction: "E","zip":33129,"OID":10265170,"id":441296679,"street":"S Miami Ave","miles":0.0268824888586021,"lanes":1.33,"tessellate":true}},
{"type":"Feature","geometry":{"type":"LineString","coordinates":[[-80.20481351812134, 25.751390305991094],[-80.2048655964149, 25.751355271502693],[-80.204866, 25.751355],[-80.204953, 25.751295],[-80.205149, 25.751159]direction: "W","zip":33129,"OID":10265171,"id":441296680,"street":"S Miami Ave","miles":0.0268824888586021,"lanes":2.816,"tessellate":true}},
{"type":"Feature","geometry":{"type":"LineString","coordinates":[[-80.20052672783551, 25.754209606262634],[-80.1997252640997, 25.754757822982654]direction: "E","zip":33129,"OID":10265533,"id":441297234,"street":"S Miami Ave","miles":0.062630179009346,"lanes":1.33,"tessellate":true}},
{"type":"Feature","geometry":{"type":"LineString","coordinates":[[-80.20057960129158, 25.75428789037495],[-80.200594, 25.754278],[-80.20142, 25.753709],[-80.20142563765435, 25.753705114286046]direction: "W","zip":33129,"OID":10265534,"id":441297235,"street":"S Miami Ave","miles":0.0662894386631925,"lanes":1.027,"tessellate":true}},
{"type":"Feature","geometry":{"type":"LineString","coordinates":[[-80.19978468826507, 25.754833910730543],[-80.20057960127023, 25.75428789038962]direction: "W","zip":33129,"OID":10265535,"id":441297236,"street":"S Miami Ave","miles":0.0622133399728541,"lanes":1.027,"tessellate":true}},
{"type":"Feature","geometry":{"type":"LineString","coordinates":[[-80.199706, 25.754771],[-80.198887, 25.755337],[-80.19886830701093, 25.755350135613945]direction: "E","zip":33129,"OID":10265536,"id":441297237,"street":"S Miami Ave","miles":0.0672748708349513,"lanes":1.33,"tessellate":true}},
{"type":"Feature","geometry":{"type":"LineString","coordinates":[[-80.21006721480994, 25.747618669519888],[-80.210049, 25.747631],[-80.209929, 25.747713],[-80.20992493106729, 25.7477157873791]direction: "E","zip":33129,"OID":10785632,"id":449369879,"street":"S Miami Ave","miles":0.0111197909506334,"lanes":2.008,"tessellate":true}},
{"type":"Feature","geometry":{"type":"LineString","coordinates":[[-80.20992493106729, 25.7477157873791],[-80.209802, 25.7478],[-80.209775, 25.747818],[-80.209704, 25.747867],[-80.209086, 25.748289],[-80.208233, 25.748883],[-80.207206, 25.749592],[-80.206887, 25.749816],[-80.206762, 25.749904],[-80.206743, 25.749918],[-80.206637, 25.749993],[-80.206619, 25.750011],[-80.206521, 25.750072],[-80.20649533726876, 25.750087747585074]direction: "E","zip":33129,"OID":10785633,"id":449369880,"street":"S Miami Ave","miles":0.269041087569953,"lanes":2.008,"tessellate":true}},
{"type":"Feature","geometry":{"type":"LineString","coordinates":[[-80.206521, 25.750072],[-80.206619, 25.750011],[-80.206637, 25.749993],[-80.206743, 25.749918],[-80.206762, 25.749904],[-80.206887, 25.749816],[-80.207206, 25.749592],[-80.208233, 25.748883],[-80.209086, 25.748289],[-80.209704, 25.747867],[-80.209775, 25.747818],[-80.209802, 25.7478],[-80.20992485159535, 25.747715841820515]direction: "W","zip":33129,"OID":10785634,"id":449369881,"street":"S Miami Ave","miles":0.269041087569953,"lanes":2.073,"tessellate":true}},
{"type":"Feature","geometry":{"type":"LineString","coordinates":[[-80.20992485159535, 25.747715841820515],[-80.209929, 25.747713],[-80.210049, 25.747631],[-80.21006721480994, 25.7476186695199]direction: "W","zip":33129,"OID":10785635,"id":449369882,"street":"S Miami Ave","miles":0.0111197909506334,"lanes":2.073,"tessellate":true}},
{"type":"Feature","geometry":{"type":"LineString","coordinates":[[-80.21570072359684, 25.743723684110677],[-80.215645, 25.74366],[-80.215265, 25.743204],[-80.214475, 25.742254],[-80.213939, 25.741579],[-80.213735, 25.741539],[-80.213268, 25.741484],[-80.212444, 25.741387],[-80.212237, 25.741445],[-80.21218279469524, 25.741453454038357]direction: "E","zip":33129,"OID":10785877,"id":449370240,"street":"","miles":0.292745373143431,"lanes":1,"tessellate":true}},
{"type":"Feature","geometry":{"type":"LineString","coordinates":[[-80.21348811383713, 25.742229233782624],[-80.213718, 25.742248],[-80.2144748659146, 25.742253998937237],[-80.21447500055011, 25.742254000661532],[-80.215265, 25.743204],[-80.215645, 25.74366],[-80.21570097080729, 25.7437239666369]direction: "W","zip":33129,"OID":10785878,"id":449370241,"street":"","miles":0.186816760987946,"lanes":1.103,"tessellate":true}},
{"type":"Feature","geometry":{"type":"LineString","coordinates":[[-80.214427, 25.751032],[-80.21428, 25.751118],[-80.214047, 25.751275],[-80.213933, 25.751353],[-80.213785, 25.751453],[-80.213507, 25.751642],[-80.213396, 25.751718],[-80.213153, 25.751885],[-80.212808, 25.752122],[-80.212512, 25.752326],[-80.21245, 25.752369]direction: "E","zip":33129,"OID":10785879,"id":449370242,"street":"SW 3rd Ave","miles":0.151814962072454,"lanes":2.047,"tessellate":true}},
{"type":"Feature","geometry":{"type":"LineString","coordinates":[[-80.21244848427887, 25.752370027607554],[-80.212391, 25.752409],[-80.211581, 25.752965],[-80.211438, 25.753061],[-80.210728, 25.753541],[-80.209893, 25.754124],[-80.20972, 25.754244],[-80.209664, 25.754282],[-80.209451, 25.754429],[-80.209031, 25.75473],[-80.208963, 25.754779],[-80.208368, 25.755173],[-80.208209, 25.755278],[-80.20816503620269, 25.75530644716297]direction: "E","zip":33129,"OID":10785880,"id":449370243,"street":"SW 3rd Ave","miles":0.335006256793948,"lanes":2.047,"tessellate":true}},
{"type":"Feature","geometry":{"type":"LineString","coordinates":[[-80.21221931522658, 25.760210791890884],[-80.212217, 25.760208],[-80.212163, 25.760143],[-80.211446, 25.759292],[-80.211424, 25.759238],[-80.211403, 25.759193],[-80.211382, 25.759145],[-80.211365, 25.759097]direction: "S","zip":33129,"OID":10785881,"id":449370244,"street":"SW 26th Rd","miles":0.0923742454774262,"lanes":1,"tessellate":true}},
{"type":"Feature","geometry":{"type":"LineString","coordinates":[[-80.21132668110747, 25.759150149480874],[-80.211327, 25.75915],[-80.211351, 25.759126],[-80.211365, 25.759097],[-80.211369, 25.759079],[-80.211365, 25.759046],[-80.211349, 25.759016],[-80.211324, 25.758993],[-80.211291, 25.758978],[-80.21126104735613, 25.75897400631415]direction: "O","zip":33129,"OID":10785882,"id":449370245,"street":"","miles":0.0192421196393178,"lanes":1,"tessellate":true}},
{"type":"Feature","geometry":{"type":"LineString","coordinates":[[-80.211261, 25.758974],[-80.211211, 25.758944],[-80.21117, 25.75892],[-80.211107, 25.758887],[-80.21110699025081, 25.75888698837328],[-80.210271, 25.75789],[-80.21022104499366, 25.75781972431312]direction: "S","zip":33129,"OID":10785883,"id":449370246,"street":"SW 26th Rd","miles":0.101142549518562,"lanes":1,"tessellate":true}},
{"type":"Feature","geometry":{"type":"LineString","coordinates":[[-80.21221785430862, 25.760207485473213],[-80.212217, 25.760208],[-80.212144, 25.760253],[-80.211451, 25.760728],[-80.2113, 25.760835],[-80.211138, 25.760956],[-80.210738, 25.76123],[-80.210649, 25.761263],[-80.210608, 25.761279],[-80.210564, 25.761295],[-80.21053771133029, 25.76129973196055]direction: "E","zip":33129,"OID":10785884,"id":449370247,"street":"SW 9th Ave","miles":0.130419082424668,"lanes":1,"tessellate":true}},
{"type":"Feature","geometry":{"type":"LineString","coordinates":[[-80.2104775851344, 25.761299067275505],[-80.210441, 25.761305],[-80.210409, 25.761321],[-80.210384, 25.761344],[-80.210369, 25.761372],[-80.210364, 25.761404],[-80.21037, 25.761435],[-80.210386, 25.761464],[-80.2104116679343, 25.76148670624957]direction: "O","zip":33129,"OID":10785885,"id":449370248,"street":"","miles":0.0211708585435466,"lanes":1,"tessellate":true}},
{"type":"Feature","geometry":{"type":"LineString","coordinates":[[-80.2102249769565, 25.76158401558943],[-80.20965292116384, 25.76197102376916]direction: "E","zip":33129,"OID":10785886,"id":449370249,"street":"SW 9th Ave","miles":0.0565992424570176,"lanes":1,"tessellate":true}},
{"type":"Feature","geometry":{"type":"LineString","coordinates":[[-80.20965292116382, 25.761971023769167],[-80.20965, 25.761973],[-80.208824, 25.762545],[-80.208283, 25.762922],[-80.208237, 25.762977],[-80.208229, 25.763023],[-80.20823202865586, 25.763069187001737]direction: "E","zip":33129,"OID":10785887,"id":449370250,"street":"SW 9th Ave","miles":0.119440028218602,"lanes":1,"tessellate":true}},
{"type":"Feature","geometry":{"type":"LineString","coordinates":[[-80.20630069032099, 25.750230817261382],[-80.20640747782397, 25.750223038039312],[-80.206408, 25.750223],[-80.20670102480739, 25.750196940481555]direction: "S","zip":33129,"OID":10785888,"id":449370251,"street":"US-1 S","miles":0.024979001514517,"lanes":2.919,"tessellate":true}},
{"type":"Feature","geometry":{"type":"LineString","coordinates":[[-80.20359908457212, 25.75051898666633],[-80.203525, 25.750555],[-80.203474, 25.750584],[-80.20337, 25.750643],[-80.203232, 25.750731],[-80.203033, 25.750867],[-80.202917, 25.750947],[-80.202682, 25.751109],[-80.201708, 25.751782],[-80.20157410685098, 25.75187395958037]direction: "E","zip":33129,"OID":10785889,"id":449370252,"street":"Brickell Ave","miles":0.157150009182276,"lanes":2.111,"tessellate":true}},
{"type":"Feature","geometry":{"type":"LineString","coordinates":[[-80.20157410685098, 25.75187395958037],[-80.201526, 25.751907],[-80.201437, 25.751969],[-80.200435, 25.752656],[-80.200258, 25.752776],[-80.20017, 25.752836],[-80.199965, 25.75298],[-80.199749, 25.753129],[-80.198927, 25.753693],[-80.198805, 25.753778],[-80.198498, 25.753988],[-80.19795, 25.754364],[-80.197657, 25.754565],[-80.196505, 25.755357],[-80.196407, 25.755424],[-80.196237, 25.755541],[-80.19603299512983, 25.755680945369875]direction: "E","zip":33129,"OID":10785890,"id":449370253,"street":"Brickell Ave","miles":0.433738831189787,"lanes":2.111,"tessellate":true}},
{"type":"Feature","geometry":{"type":"LineString","coordinates":[[-80.19603299514159, 25.7556809453618],[-80.19603, 25.755683],[-80.195998, 25.755705],[-80.195949, 25.755739],[-80.19587951179707, 25.755786649053434],[-80.195879, 25.755787],[-80.195795, 25.755844],[-80.195747, 25.755878],[-80.1954, 25.756116],[-80.195131, 25.756299],[-80.194864, 25.756481],[-80.194449, 25.75677],[-80.194351, 25.756838],[-80.19395, 25.757114],[-80.193891, 25.757155],[-80.193717, 25.757275],[-80.193538, 25.757398],[-80.193311, 25.757555],[-80.193272, 25.757582],[-80.192921, 25.757827],[-80.192893, 25.757855],[-80.192864, 25.757882]direction: "E","zip":33129,"OID":10785891,"id":449370254,"street":"Brickell Ave","miles":0.248726368173251,"lanes":2.111,"tessellate":true}},
{"type":"Feature","geometry":{"type":"LineString","coordinates":[[-80.21256011144017, 25.752487798384884],[-80.212618, 25.752448],[-80.212807, 25.752319],[-80.213178, 25.752064],[-80.21322896142334, 25.752028423157284]direction: "W","zip":33129,"OID":10785892,"id":449370255,"street":"SW 3rd Ave","miles":0.0523617299276425,"lanes":2.121,"tessellate":true}},
{"type":"Feature","geometry":{"type":"LineString","coordinates":[[-80.208199, 25.75549],[-80.208256, 25.755558],[-80.208526, 25.755881],[-80.209152, 25.756629],[-80.20918, 25.756663],[-80.20918351272809, 25.75666722718125]direction: "N","zip":33129,"OID":10785893,"id":449370256,"street":"SW 26th Rd","miles":0.102572674627265,"lanes":1,"tessellate":true}},
{"type":"Feature","geometry":{"type":"LineString","coordinates":[[-80.20918351272809, 25.75666722718125],[-80.209239, 25.756734],[-80.209268, 25.756769],[-80.20961, 25.757177],[-80.209664, 25.757242],[-80.20973, 25.757321],[-80.209762, 25.75736],[-80.209845, 25.757459],[-80.210113, 25.757777],[-80.21021196202837, 25.757806988493446]direction: "N","zip":33129,"OID":10785894,"id":449370257,"street":"SW 26th Rd","miles":0.103169993949204,"lanes":1,"tessellate":true}},
{"type":"Feature","geometry":{"type":"LineString","coordinates":[[-80.210212, 25.757807],[-80.210187, 25.757728],[-80.21007, 25.757585],[-80.210029, 25.757537],[-80.209799, 25.757261],[-80.209741, 25.757192],[-80.209342, 25.756718],[-80.20931749376743, 25.75668842351241]direction: "S","zip":33129,"OID":10785895,"id":449370258,"street":"SW 26th Rd","miles":0.0968837116059108,"lanes":1,"tessellate":true}},
{"type":"Feature","geometry":{"type":"LineString","coordinates":[[-80.20931749376743, 25.75668842351241],[-80.209313, 25.756683],[-80.209254, 25.756613],[-80.209223, 25.756576],[-80.208605, 25.755842],[-80.208517, 25.755738],[-80.208325, 25.75551],[-80.208269, 25.755443]direction: "S","zip":33129,"OID":10785896,"id":449370259,"street":"SW 26th Rd","miles":0.109059447098923,"lanes":1,"tessellate":true}},
{"type":"Feature","geometry":{"type":"LineString","coordinates":[[-80.21022088347593, 25.757819497093244],[-80.210271, 25.75789],[-80.21110680971924, 25.75888677307426]direction: "N","zip":33129,"OID":10785897,"id":449370260,"street":"SW 26th Rd","miles":0.101142549518562,"lanes":1,"tessellate":true}},
{"type":"Feature","geometry":{"type":"LineString","coordinates":[[-80.211261, 25.758974],[-80.211225, 25.758979],[-80.211194, 25.758994],[-80.211169, 25.759017],[-80.211154, 25.759047],[-80.21115, 25.75907],[-80.211154, 25.759097],[-80.211165, 25.759122],[-80.211184, 25.759144],[-80.211209, 25.759159],[-80.211237, 25.759169],[-80.21126, 25.759171],[-80.211295, 25.759165],[-80.211327, 25.75915],[-80.2113507496423, 25.75912625035769]direction: "O","zip":33129,"OID":10785898,"id":449370261,"street":"","miles":0.0230168067004774,"lanes":1,"tessellate":true}},
{"type":"Feature","geometry":{"type":"LineString","coordinates":[[-80.21126, 25.759171],[-80.211308, 25.759195],[-80.211354, 25.759226],[-80.21139, 25.759253],[-80.211446, 25.759292],[-80.212163, 25.760143],[-80.212217, 25.760208],[-80.2122189567124, 25.760210359564965]direction: "N","zip":33129,"OID":10785899,"id":449370262,"street":"SW 26th Rd","miles":0.0923742454774262,"lanes":1,"tessellate":true}},
{"type":"Feature","geometry":{"type":"LineString","coordinates":[[-80.21432078323372, 25.762949277653778],[-80.214245, 25.762951],[-80.212717, 25.762981],[-80.212651, 25.762981],[-80.21264056200056, 25.76298121629009]direction: "E","zip":33129,"OID":10785900,"id":449370263,"street":"SW 11th St","miles":0.104575275493049,"lanes":1,"tessellate":true}},
{"type":"Feature","geometry":{"type":"LineString","coordinates":[[-80.21264056199911, 25.762981216290118],[-80.21136091972724, 25.763007732285008]direction: "E","zip":33129,"OID":10785901,"id":449370264,"street":"SW 11th St","miles":0.0796515456363257,"lanes":1,"tessellate":true}},
{"type":"Feature","geometry":{"type":"LineString","coordinates":[[-80.2113609197272, 25.763007732285008],[-80.211348, 25.763008],[-80.210429, 25.763034],[-80.209999, 25.763046],[-80.209437, 25.763058],[-80.20913, 25.763064],[-80.208752, 25.763072],[-80.20875082757178, 25.76307202710817]direction: "E","zip":33129,"OID":10785902,"id":449370265,"street":"SW 11th St","miles":0.162482024623416,"lanes":1,"tessellate":true}},
{"type":"Feature","geometry":{"type":"LineString","coordinates":[[-80.20875082757138, 25.763072027108176],[-80.208233, 25.763084],[-80.20822085482453, 25.763084265468315]direction: "E","zip":33129,"OID":10785903,"id":449370266,"street":"SW 11th St","miles":0.0329866933052744,"lanes":1,"tessellate":true}},
{"type":"Feature","geometry":{"type":"LineString","coordinates":[[-80.20822055533824, 25.763084272014463],[-80.208233, 25.763084],[-80.20875052809559, 25.763072034032472]direction: "W","zip":33129,"OID":10785904,"id":449370267,"street":"SW 11th St","miles":0.0329866933052744,"lanes":1,"tessellate":true}},
{"type":"Feature","geometry":{"type":"LineString","coordinates":[[-80.20875052809599, 25.763072034032465],[-80.208752, 25.763072],[-80.20913, 25.763064],[-80.209437, 25.763058],[-80.209999, 25.763046],[-80.210429, 25.763034],[-80.211348, 25.763008],[-80.21136062023218, 25.763007738490966]direction: "W","zip":33129,"OID":10785905,"id":449370268,"street":"SW 11th St","miles":0.162482024623416,"lanes":1,"tessellate":true}},
{"type":"Feature","geometry":{"type":"LineString","coordinates":[[-80.21136062023226, 25.763007738490966],[-80.21264026250415, 25.762981222496077]direction: "W","zip":33129,"OID":10785906,"id":449370269,"street":"SW 11th St","miles":0.0796515456363257,"lanes":1,"tessellate":true}},
{"type":"Feature","geometry":{"type":"LineString","coordinates":[[-80.21264026250556, 25.762981222496048],[-80.212651, 25.762981],[-80.212717, 25.762981],[-80.214245, 25.762951],[-80.21432048375488, 25.762949284460117]direction: "W","zip":33129,"OID":10785907,"id":449370270,"street":"SW 11th St","miles":0.104575275493049,"lanes":1,"tessellate":true}},
{"type":"Feature","geometry":{"type":"LineString","coordinates":[[-80.20823202276893, 25.763069097225987],[-80.208229, 25.763023],[-80.208237, 25.762977],[-80.208283, 25.762922],[-80.208824, 25.762545],[-80.20965, 25.761973],[-80.20965300100413, 25.761970969755463]direction: "W","zip":33129,"OID":10785921,"id":449370284,"street":"SW 9th Ave","miles":0.119440028218602,"lanes":1,"tessellate":true}},
{"type":"Feature","geometry":{"type":"LineString","coordinates":[[-80.20965300100414, 25.76197096975546],[-80.210225, 25.761584],[-80.210293, 25.761555],[-80.210327, 25.761542],[-80.210379, 25.761523],[-80.210444, 25.761501]direction: "W","zip":33129,"OID":10785922,"id":449370285,"street":"SW 9th Ave","miles":0.0565992424570176,"lanes":1,"tessellate":true}},
{"type":"Feature","geometry":{"type":"LineString","coordinates":[[-80.21038596916901, 25.761463944118823],[-80.210386, 25.761464],[-80.210412, 25.761487],[-80.210444, 25.761501],[-80.21048, 25.761506],[-80.210515, 25.7615],[-80.210547, 25.761485],[-80.210572, 25.761463],[-80.210588, 25.761434],[-80.210593, 25.761403],[-80.210588, 25.761372],[-80.210573, 25.761343],[-80.210547, 25.761319],[-80.21054674207792, 25.761318882762687]direction: "O","zip":33129,"OID":10785923,"id":449370286,"street":"","miles":0.0217362300864004,"lanes":1,"tessellate":true}},
{"type":"Feature","geometry":{"type":"LineString","coordinates":[[-80.21060676457658, 25.761384351218833],[-80.210624, 25.761361],[-80.210652, 25.761327],[-80.210682, 25.761295],[-80.210738, 25.76123],[-80.211138, 25.760956],[-80.2113, 25.760835],[-80.211451, 25.760728],[-80.212144, 25.760253],[-80.212217, 25.760208],[-80.21221760529113, 25.76020763544966]direction: "W","zip":33129,"OID":10785924,"id":449370287,"street":"SW 9th Ave","miles":0.130419082424668,"lanes":1,"tessellate":true}},
{"type":"Feature","geometry":{"type":"LineString","coordinates":[[-80.19299612600055, 25.757960718666105],[-80.193024, 25.757932],[-80.193057, 25.757901],[-80.19326, 25.757755],[-80.193626, 25.757504],[-80.193817, 25.757373],[-80.193916, 25.757305],[-80.194364, 25.756997],[-80.194445, 25.756942],[-80.194466, 25.756928],[-80.194703, 25.756765],[-80.19523, 25.756403],[-80.195837, 25.755987],[-80.195918, 25.755931],[-80.196037, 25.75585],[-80.19613843039191, 25.75578002930184]direction: "S","zip":33129,"OID":10785948,"id":449370312,"street":"Brickell Ave","miles":0.247383838793376,"lanes":2.39949999999999,"tessellate":true}},
{"type":"Feature","geometry":{"type":"LineString","coordinates":[[-80.19613843039191, 25.75578002930184],[-80.196224, 25.755721],[-80.196343, 25.75564],[-80.196499, 25.755533],[-80.196797, 25.755328],[-80.197244, 25.755021],[-80.197752, 25.754673],[-80.197863, 25.754599],[-80.198035, 25.754479],[-80.198047, 25.754471],[-80.198171, 25.754386],[-80.198682, 25.754035],[-80.198753, 25.753986],[-80.198894, 25.75389],[-80.199165, 25.753704],[-80.199845, 25.75324],[-80.200022, 25.753116],[-80.200065, 25.753085],[-80.200318, 25.752913],[-80.200638, 25.752693],[-80.200645, 25.752689],[-80.201178, 25.752323],[-80.201276, 25.752255],[-80.201316, 25.752228],[-80.201449, 25.752137],[-80.201531, 25.752081],[-80.201621, 25.752019],[-80.20165992236211, 25.751991868154605]direction: "S","zip":33129,"OID":10785949,"id":449370313,"street":"Brickell Ave","miles":0.431958732938819,"lanes":2.223,"tessellate":true}},
{"type":"Feature","geometry":{"type":"LineString","coordinates":[[-80.2112706379891, 25.741563337430126],[-80.21128, 25.741562],[-80.21131, 25.741547],[-80.211334, 25.741524],[-80.211349, 25.741495],[-80.21135297268407, 25.741464211698453],[-80.211353, 25.741464],[-80.212128, 25.741462],[-80.212237, 25.741445]direction: "W","zip":33129,"OID":11155812,"id":450349908,"street":"","miles":0.0608495998750445,"lanes":1,"tessellate":true}},
{"type":"Feature","geometry":{"type":"LineString","coordinates":[[-80.20566993182752, 25.76298017724846],[-80.205685, 25.762941],[-80.205737, 25.762874],[-80.20599673711403, 25.762695180986878],[-80.205997, 25.762695],[-80.206073, 25.762671],[-80.206132, 25.762648],[-80.206206, 25.762626]direction: "S","zip":33129,"OID":11220318,"id":461541930,"street":"SW 7th Ave","miles":0.0406790399981846,"lanes":1,"tessellate":true}},
{"type":"Feature","geometry":{"type":"LineString","coordinates":[[-80.206126, 25.762535],[-80.206087, 25.762584],[-80.206043, 25.76263],[-80.205997, 25.762695],[-80.20599697511254, 25.762695017134053],[-80.205737, 25.762874],[-80.205685, 25.762941],[-80.20567002987973, 25.762979922312724]direction: "N","zip":33129,"OID":11220725,"id":461547022,"street":"SW 7th Ave","miles":0.0406790399981846,"lanes":1,"tessellate":true}},
{"type":"Feature","geometry":{"type":"LineString","coordinates":[[-80.20567002987968, 25.762979922312812],[-80.205655, 25.763019],[-80.205665, 25.763131],[-80.20566549849136, 25.763140139008325]direction: "N","zip":33129,"OID":11221158,"id":461552122,"street":"SW 7th Ave","miles":0.0110549324406252,"lanes":1,"tessellate":true}},
{"type":"Feature","geometry":{"type":"LineString","coordinates":[[-80.20165992236211, 25.751991868154605],[-80.20247560350052, 25.751423276390287],[-80.202476, 25.751423],[-80.202704, 25.751264],[-80.202918, 25.751115],[-80.20301254371772, 25.7510525827883]direction: "S","zip":33129,"OID":11287633,"id":464063388,"street":"Brickell Ave","miles":0.106269518439528,"lanes":2.57099999999999,"tessellate":true}},
{"type":"Feature","geometry":{"type":"LineString","coordinates":[[-80.20301254371772, 25.7510525827883],[-80.203021, 25.751047],[-80.20311, 25.750987],[-80.20313160284694, 25.750972473947748]direction: "S","zip":33129,"OID":11288044,"id":464068859,"street":"Brickell Ave","miles":0.0092909089669231,"lanes":2.919,"tessellate":true}},
{"type":"Feature","geometry":{"type":"LineString","coordinates":[[-80.1954684444425, 25.757801363797046],[-80.19540714793077, 25.757731169404586]direction: "S","zip":33129,"OID":11288047,"id":464068883,"street":"","miles":0.00703756847918617,"lanes":1,"tessellate":true}},
{"type":"Feature","geometry":{"type":"LineString","coordinates":[[-80.2078957571241, 25.74751706818336],[-80.207735, 25.747628],[-80.207483, 25.747801],[-80.20662, 25.748405],[-80.2065089205315, 25.74848222102088]direction: "N","zip":33129,"OID":11288400,"id":464074100,"street":"Brickell Ave","miles":0.109088504541027,"lanes":1,"tessellate":true}},
{"type":"Feature","geometry":{"type":"LineString","coordinates":[[-80.20650892053452, 25.748482221018786],[-80.20610075156685, 25.748765974846577]direction: "N","zip":33129,"OID":11288777,"id":464079295,"street":"Brickell Ave","miles":0.0321123567390183,"lanes":1,"tessellate":true}},
{"type":"Feature","geometry":{"type":"LineString","coordinates":[[-80.20313160284694, 25.750972473947748],[-80.203226, 25.750909],[-80.20336477221264, 25.750818149126985],[-80.203365, 25.750818],[-80.203428, 25.750778],[-80.203447, 25.750766],[-80.203533, 25.750716],[-80.203592, 25.750686],[-80.20369644196192, 25.750629881930905]direction: "S","zip":33129,"OID":11288824,"id":464080063,"street":"Brickell Ave","miles":0.042470035012161,"lanes":2.919,"tessellate":true}},
{"type":"Feature","geometry":{"type":"LineString","coordinates":[[-80.19540702447357, 25.757731028026175],[-80.19546825925666, 25.757801151729396]direction: "N","zip":33129,"OID":11289578,"id":464091386,"street":"","miles":0.00703756847918617,"lanes":1,"tessellate":true}},
{"type":"Feature","geometry":{"type":"LineString","coordinates":[[-80.20623332657618, 25.74884511442832],[-80.20661632797014, 25.74857864904569]direction: "N","zip":33129,"OID":11289879,"id":464095617,"street":"Brickell Ave","miles":0.0301208964852779,"lanes":1,"tessellate":true}},
{"type":"Feature","geometry":{"type":"LineString","coordinates":[[-80.205859, 25.749856],[-80.2057594951939, 25.749742564521057]direction: "S","zip":33129,"OID":11290502,"id":464105115,"street":"Brickell Ct","miles":0.0211732703675368,"lanes":1,"tessellate":true}},
{"type":"Feature","geometry":{"type":"LineString","coordinates":[[-80.20610075164998, 25.74876597478878],[-80.206059, 25.748795],[-80.20538021108494, 25.749267183541978]direction: "N","zip":33129,"OID":11291011,"id":464112360,"street":"Brickell Ave","miles":0.0566576400046264,"lanes":1,"tessellate":true}},
{"type":"Feature","geometry":{"type":"LineString","coordinates":[[-80.20661632802656, 25.748578649006436],[-80.206715, 25.74851],[-80.2079849823943, 25.747635408087163]direction: "N","zip":33129,"OID":11291906,"id":464125587,"street":"Brickell Ave","miles":0.107259632038689,"lanes":1,"tessellate":true}},
{"type":"Feature","geometry":{"type":"LineString","coordinates":[[-80.205759, 25.749742],[-80.205859, 25.749856],[-80.205813, 25.749896],[-80.205812, 25.749923],[-80.205816, 25.749968],[-80.205854, 25.749995],[-80.20590372517321, 25.750010912055426]direction: "N","zip":33129,"OID":11292186,"id":464129696,"street":"Brickell Ct","miles":0.0211732703675368,"lanes":1,"tessellate":true}},
{"type":"Feature","geometry":{"type":"LineString","coordinates":[[-80.2054748352021, 25.749386392005494],[-80.206153, 25.748901],[-80.20623332656625, 25.74884511443522]direction: "N","zip":33129,"OID":11292381,"id":464132383,"street":"Brickell Ave","miles":0.0602416649720345,"lanes":1,"tessellate":true}},
{"type":"Feature","geometry":{"type":"LineString","coordinates":[[-80.20579051037898, 25.752545239197822],[-80.20573002497149, 25.75250701578059],[-80.20573, 25.752507],[-80.20566947864918, 25.752439470913828]direction: "S","zip":33129,"OID":11411221,"id":475725739,"street":"SW 26th Rd","miles":0.00982298045001752,"lanes":2.379,"tessellate":true}},
{"type":"Feature","geometry":{"type":"LineString","coordinates":[[-80.20219211257877, 25.750075286010773],[-80.202216, 25.750104],[-80.202654, 25.75063],[-80.20270071936271, 25.750686228613542]direction: "N","zip":33129,"OID":11554339,"id":485043550,"street":"SE 25th Rd","miles":0.0527606444304592,"lanes":1,"tessellate":true}},
{"type":"Feature","geometry":{"type":"LineString","coordinates":[[-80.19419321545713, 25.758581798260405],[-80.194159, 25.758573],[-80.194129, 25.758571],[-80.194099, 25.758576],[-80.194071, 25.758586]direction: "O","zip":33129,"OID":11554379,"id":485043885,"street":"","miles":0.00576845839931336,"lanes":1,"tessellate":true}},
{"type":"Feature","geometry":{"type":"LineString","coordinates":[[-80.1996608883164, 25.761172352304115],[-80.199496, 25.761288],[-80.199451, 25.761311],[-80.199368, 25.761351],[-80.199266, 25.761386],[-80.199191, 25.761426]direction: "E","zip":33129,"OID":11554391,"id":485043994,"street":"SW 3rd Ave","miles":0.0343392489396956,"lanes":1,"tessellate":true}},
{"type":"Feature","geometry":{"type":"LineString","coordinates":[[-80.20270071935107, 25.750686228599527],[-80.202767, 25.750766],[-80.20278269544406, 25.750784860911775]direction: "N","zip":33129,"OID":11554416,"id":485044279,"street":"SE 25th Rd","miles":0.00851615050959148,"lanes":1,"tessellate":true}},
{"type":"Feature","geometry":{"type":"LineString","coordinates":[[-80.19407839442039, 25.758808697210192],[-80.194079, 25.758809],[-80.194103, 25.758817],[-80.1941265180168, 25.7588199397521],[-80.194127, 25.75882],[-80.194151, 25.75882],[-80.194175, 25.758816],[-80.194198, 25.758808]direction: "O","zip":33129,"OID":11555099,"id":485050584,"street":"","miles":0.00820743940918181,"lanes":1,"tessellate":true}},
{"type":"Feature","geometry":{"type":"LineString","coordinates":[[-80.20703077654797, 25.75418561807068],[-80.207048, 25.754211],[-80.207076, 25.754232],[-80.207104, 25.75424],[-80.207122, 25.754245]direction: "O","zip":33129,"OID":11556025,"id":485059100,"street":"","miles":0.00743810370402089,"lanes":1,"tessellate":true}},
{"type":"Feature","geometry":{"type":"LineString","coordinates":[[-80.19912900753246, 25.761716177799848],[-80.199179, 25.761725],[-80.19919452953646, 25.76172317299571]direction: "O","zip":33129,"OID":11556332,"id":485061886,"street":"","miles":0.00497808590013429,"lanes":1,"tessellate":true}},
{"type":"Feature","geometry":{"type":"LineString","coordinates":[[-80.199861, 25.761032],[-80.199758, 25.761157],[-80.199478, 25.761368],[-80.199433, 25.761399],[-80.199332, 25.76144],[-80.199286, 25.761458]direction: "E","zip":33129,"OID":11556950,"id":485067704,"street":"","miles":0.0326344840406926,"lanes":1,"tessellate":true}},
{"type":"Feature","geometry":{"type":"LineString","coordinates":[[-80.20722809048387, 25.754149611021564],[-80.207229, 25.754139],[-80.207218, 25.754106],[-80.207194, 25.754079],[-80.20716991912379, 25.754065864976607]direction: "O","zip":33129,"OID":11557821,"id":485075533,"street":"","miles":0.00743810844470691,"lanes":1,"tessellate":true}},
{"type":"Feature","geometry":{"type":"LineString","coordinates":[[-80.207122, 25.754245],[-80.207152, 25.75424],[-80.20715482334394, 25.75423898359618]direction: "O","zip":33129,"OID":11557912,"id":485076519,"street":"","miles":0.00248920028158297,"lanes":1,"tessellate":true}},
{"type":"Feature","geometry":{"type":"LineString","coordinates":[[-80.199017, 25.761567],[-80.199022, 25.761613],[-80.19902798851771, 25.761624977035428],[-80.199022, 25.761613],[-80.19900541876426, 25.761646417567402]direction: "O","zip":33129,"OID":11557990,"id":485077228,"street":"","miles":0.00556238137252535,"lanes":1,"tessellate":true}},
{"type":"Feature","geometry":{"type":"LineString","coordinates":[[-80.20794684075713, 25.753630937811014],[-80.20795790980148, 25.75357644405429]direction: "W","zip":33129,"OID":11558299,"id":485080079,"street":"SW 2nd Ave","miles":0.00634306094664086,"lanes":1,"tessellate":true}},
{"type":"Feature","geometry":{"type":"LineString","coordinates":[[-80.199349, 25.761581],[-80.199342, 25.761535],[-80.199321, 25.761492],[-80.199286, 25.761458],[-80.19926248030177, 25.761446501480865]direction: "O","zip":33129,"OID":11558333,"id":485080427,"street":"","miles":0.0114526902160638,"lanes":1,"tessellate":true}},
{"type":"Feature","geometry":{"type":"LineString","coordinates":[[-80.19933488394749, 25.761632750326118],[-80.199339, 25.761626],[-80.199349, 25.761581]direction: "O","zip":33129,"OID":11559136,"id":485087602,"street":"","miles":0.00483653257240745,"lanes":1,"tessellate":true}},
{"type":"Feature","geometry":{"type":"LineString","coordinates":[[-80.19919010636781, 25.76142608592617],[-80.19913976508766, 25.76143092643388],[-80.199139, 25.761431],[-80.1991108500665, 25.76144237976035]direction: "O","zip":33129,"OID":11559161,"id":485087880,"street":"","miles":0.00502581986722595,"lanes":1,"tessellate":true}},
{"type":"Feature","geometry":{"type":"LineString","coordinates":[[-80.20278269543843, 25.750784860905],[-80.202886, 25.750909],[-80.20291437475906, 25.75094378196272]direction: "N","zip":33129,"OID":11560202,"id":485097163,"street":"SE 25th Rd","miles":0.0136989694520395,"lanes":1,"tessellate":true}},
{"type":"Feature","geometry":{"type":"LineString","coordinates":[[-80.20715482334394, 25.75423898359618],[-80.207177, 25.754231],[-80.207199, 25.754216],[-80.20721359626154, 25.754198827927613]direction: "O","zip":33129,"OID":11560239,"id":485097528,"street":"","miles":0.00527390529761818,"lanes":1,"tessellate":true}},
{"type":"Feature","geometry":{"type":"LineString","coordinates":[[-80.19926248030177, 25.761446501480865],[-80.199241, 25.761436],[-80.199191, 25.761426]direction: "O","zip":33129,"OID":11560249,"id":485097614,"street":"","miles":0.00456977772805625,"lanes":1,"tessellate":true}},
{"type":"Feature","geometry":{"type":"LineString","coordinates":[[-80.207028, 25.754119],[-80.207023, 25.754135],[-80.207022, 25.754152],[-80.207029, 25.754183],[-80.20703077654797, 25.75418561807068]direction: "O","zip":33129,"OID":11560444,"id":485099458,"street":"","miles":0.00423699875753249,"lanes":1,"tessellate":true}},
{"type":"Feature","geometry":{"type":"LineString","coordinates":[[-80.20721359626158, 25.754198827927553],[-80.207216, 25.754196],[-80.207226, 25.754174],[-80.20722809048387, 25.754149611021564]direction: "O","zip":33129,"OID":11560771,"id":485102347,"street":"","miles":0.00423699846123962,"lanes":1,"tessellate":true}},
{"type":"Feature","geometry":{"type":"LineString","coordinates":[[-80.1991108500665, 25.76144237976035],[-80.199092, 25.76145],[-80.199054, 25.761481],[-80.199028, 25.761521],[-80.19901784053688, 25.761563485027587]direction: "O","zip":33129,"OID":11561705,"id":485110779,"street":"","miles":0.01099892953202,"lanes":1,"tessellate":true}},
{"type":"Feature","geometry":{"type":"LineString","coordinates":[[-80.19426578212126, 25.758650628324517],[-80.194249, 25.758622],[-80.194224, 25.758599],[-80.194194, 25.758582],[-80.19418015708231, 25.758578440392597]direction: "O","zip":33129,"OID":11562834,"id":485121071,"street":"","miles":0.00828927016756958,"lanes":1,"tessellate":true}},
{"type":"Feature","geometry":{"type":"LineString","coordinates":[[-80.19426837066688, 25.758731450932682],[-80.194274, 25.758714],[-80.194275, 25.758682],[-80.194266, 25.758651],[-80.1942657821213, 25.75865062832459]direction: "O","zip":33129,"OID":11562922,"id":485122011,"street":"","miles":0.00696492931831994,"lanes":1,"tessellate":true}},
{"type":"Feature","geometry":{"type":"LineString","coordinates":[[-80.207958, 25.753576],[-80.20793224714032, 25.75357895524619]direction: "E","zip":33129,"OID":11563230,"id":485124552,"street":"SW 2nd Ave","miles":0.00746764469609418,"lanes":1,"tessellate":true}},
{"type":"Feature","geometry":{"type":"LineString","coordinates":[[-80.19923, 25.761719],[-80.199276, 25.761699],[-80.199314, 25.761667],[-80.19933488394749, 25.761632750326118]direction: "O","zip":33129,"OID":11563551,"id":485127484,"street":"","miles":0.0134728920637049,"lanes":1,"tessellate":true}},
{"type":"Feature","geometry":{"type":"LineString","coordinates":[[-80.194071, 25.758586],[-80.194046, 25.758602],[-80.194025, 25.758623],[-80.19401, 25.758646],[-80.194001, 25.758673],[-80.193999, 25.7587],[-80.19399954343076, 25.75870434744604]direction: "O","zip":33129,"OID":11563634,"id":485128167,"street":"","miles":0.00791143571753062,"lanes":1,"tessellate":true}},
{"type":"Feature","geometry":{"type":"LineString","coordinates":[[-80.199139, 25.761431],[-80.19894, 25.76143],[-80.19890944674724, 25.761433174363923]direction: "E","zip":33129,"OID":11563955,"id":485131338,"street":"Coral Way","miles":0.0124452476388447,"lanes":2,"tessellate":true}},
{"type":"Feature","geometry":{"type":"LineString","coordinates":[[-80.194198, 25.758808],[-80.194219, 25.758797],[-80.194237, 25.758782],[-80.194252, 25.758765],[-80.194264, 25.758745],[-80.19426837066688, 25.758731450932682]direction: "O","zip":33129,"OID":11564285,"id":485134448,"street":"","miles":0.00707376539436963,"lanes":1,"tessellate":true}},
{"type":"Feature","geometry":{"type":"LineString","coordinates":[[-80.19902798851771, 25.761624977035428],[-80.199044, 25.761657],[-80.19908, 25.761693],[-80.199128, 25.761716],[-80.19912900753279, 25.761716177799904]direction: "O","zip":33129,"OID":11564747,"id":485138598,"street":"","miles":0.0118288897220269,"lanes":1,"tessellate":true}},
{"type":"Feature","geometry":{"type":"LineString","coordinates":[[-80.19399954343076, 25.75870434744604],[-80.194002, 25.758724],[-80.19401, 25.758746],[-80.194022, 25.758766],[-80.194038, 25.758783],[-80.194057, 25.758798],[-80.194079, 25.758809],[-80.19408846423215, 25.75881215474405]direction: "O","zip":33129,"OID":11564871,"id":485139869,"street":"","miles":0.00845001912539873,"lanes":1,"tessellate":true}},
{"type":"Feature","geometry":{"type":"LineString","coordinates":[[-80.207939422038, 25.753553752317092],[-80.207958, 25.753576],[-80.2080075386334, 25.753634992571065]direction: "N","zip":33129,"OID":11564916,"id":485140366,"street":"SW 27th Rd","miles":0.00703766270031994,"lanes":1,"tessellate":true}},
{"type":"Feature","geometry":{"type":"LineString","coordinates":[[-80.214244, 25.75902040804796],[-80.214244, 25.759061],[-80.214247, 25.759303],[-80.214248, 25.759633],[-80.214248, 25.759742],[-80.214248, 25.759798],[-80.21425, 25.759909],[-80.214252, 25.760074],[-80.214254, 25.76087],[-80.21425400074726, 25.76087001903041],[-80.214299, 25.762016],[-80.21432, 25.762538],[-80.214321, 25.762557],[-80.214327, 25.762733],[-80.21433275301692, 25.76294010860937]direction: "N","zip":33129,"OID":12805744,"id":1422472153,"street":"SW 12th Ave","miles":0.270909339765522,"lanes":1.3485,"tessellate":true}},
{"type":"Feature","geometry":{"type":"LineString","coordinates":[[-80.208199, 25.75549],[-80.208269, 25.755443],[-80.20827008717772, 25.75544226781908]direction: "W","zip":33129,"OID":12809871,"id":1422481364,"street":"SW 3rd Ave","miles":0.00647842293848319,"lanes":2.121,"tessellate":true}},
{"type":"Feature","geometry":{"type":"LineString","coordinates":[[-80.208158, 25.755311],[-80.208091, 25.75536],[-80.20806577106539, 25.755377014862873]direction: "E","zip":33129,"OID":12809890,"id":1422481396,"street":"SW 3rd Ave","miles":0.0078814390270179,"lanes":2.047,"tessellate":true}},
{"type":"Feature","geometry":{"type":"LineString","coordinates":[[-80.20825893226286, 25.755431027555844],[-80.2081583754651, 25.75531144649905]direction: "S","zip":33129,"OID":12809900,"id":1422481412,"street":"SW 26th Rd","miles":0.0109272005828612,"lanes":1,"tessellate":true}},
{"type":"Feature","geometry":{"type":"LineString","coordinates":[[-80.192912, 25.758075],[-80.192986, 25.758118],[-80.193513, 25.758411],[-80.193895, 25.758618],[-80.193999, 25.7587]direction: "W","zip":33129,"OID":12812060,"id":1422485920,"street":"Broadway","miles":0.0841223289524185,"lanes":1.285,"tessellate":true}},
{"type":"Feature","geometry":{"type":"LineString","coordinates":[[-80.21261192917764, 25.74907409430382],[-80.212342, 25.749158],[-80.21225034432956, 25.74918390268947],[-80.21225, 25.749184],[-80.212028, 25.749207],[-80.211509, 25.74932],[-80.21150733127598, 25.74932038000646]direction: "E","zip":33129,"OID":12813038,"id":1422487946,"street":"S Dixie Hwy","miles":0.0707765974938173,"lanes":2.179,"tessellate":true}},
{"type":"Feature","geometry":{"type":"LineString","coordinates":[[-80.203881, 25.750403],[-80.203974, 25.750511]direction: "W","zip":33129,"OID":12822513,"id":1422508591,"street":"SE 26th Rd","miles":0.0119363918875601,"lanes":2.183,"tessellate":true}},
{"type":"Feature","geometry":{"type":"LineString","coordinates":[[-80.205635, 25.752401],[-80.205563, 25.752378],[-80.205484, 25.75237],[-80.205447, 25.752373],[-80.205415, 25.752381],[-80.205386, 25.752391],[-80.2052961755761, 25.752440057954598]direction: "E","zip":33129,"OID":12822714,"id":1422509139,"street":"","miles":0.0277018725781967,"lanes":1,"tessellate":true}},
{"type":"Feature","geometry":{"type":"LineString","coordinates":[[-80.20369644196192, 25.750629881930905],[-80.203726, 25.750614],[-80.203831, 25.750569],[-80.20387, 25.750553],[-80.20397363698056, 25.750511146604005],[-80.203974, 25.750511],[-80.20405259973236, 25.75048568822178]direction: "S","zip":33129,"OID":12823762,"id":1422511774,"street":"Brickell Ave","miles":0.0244025625439595,"lanes":2.919,"tessellate":true}},
{"type":"Feature","geometry":{"type":"LineString","coordinates":[[-80.18665288863576, 25.74646808502692],[-80.18992496365242, 25.746421000523036],[-80.189925, 25.746421],[-80.19067, 25.746415],[-80.191297, 25.746374],[-80.191803, 25.746334],[-80.1923, 25.74628],[-80.192932, 25.746207],[-80.193777, 25.746121],[-80.194402, 25.74609],[-80.19514879289373, 25.746078598581775]direction: "W","zip":33129,"OID":12827411,"id":1422519789,"street":"Rickenbacker Cswy","miles":0.529841726636246,"lanes":3.131,"tessellate":true}},
{"type":"Feature","geometry":{"type":"LineString","coordinates":[[-80.19514879289373, 25.746078598581775],[-80.195188, 25.746078],[-80.195573, 25.746072],[-80.195767, 25.746069],[-80.196207, 25.746063],[-80.196418, 25.746064],[-80.196588, 25.746064],[-80.196993, 25.746076],[-80.197659, 25.746141],[-80.19814, 25.746241],[-80.198582, 25.746357],[-80.198939, 25.746465],[-80.199151, 25.746544],[-80.199313, 25.746608],[-80.199597, 25.746726],[-80.199832, 25.746839],[-80.200033, 25.746937],[-80.200222, 25.747039],[-80.200434, 25.747167],[-80.200931, 25.747498],[-80.201182, 25.747688],[-80.201326, 25.74781],[-80.201498, 25.747959],[-80.201635, 25.74809],[-80.20177, 25.748223],[-80.201887, 25.748344],[-80.201987, 25.748455],[-80.20206, 25.74854],[-80.202096, 25.748587],[-80.202158, 25.748664],[-80.202326, 25.748875],[-80.20251851371506, 25.749058710901064]direction: "W","zip":33129,"OID":12827419,"id":1422519805,"street":"Rickenbacker Cswy","miles":0.529745285929057,"lanes":3.262,"tessellate":true}},
{"type":"Feature","geometry":{"type":"LineString","coordinates":[[-80.204151, 25.750454],[-80.204068, 25.750341]direction: "S","zip":33129,"OID":12834117,"id":1422534000,"street":"SE 26th Rd","miles":0.00969306313601865,"lanes":3.678,"tessellate":true}},
{"type":"Feature","geometry":{"type":"LineString","coordinates":[[-80.204475, 25.751626],[-80.204545, 25.751616],[-80.204602, 25.751615],[-80.204662, 25.751619],[-80.204712, 25.751625],[-80.204766, 25.751636],[-80.204805, 25.751648],[-80.204841, 25.751664],[-80.204956, 25.751748]direction: "W","zip":33129,"OID":12836429,"id":1422538725,"street":"","miles":0.0340920968318548,"lanes":1,"tessellate":true}},
{"type":"Feature","geometry":{"type":"LineString","coordinates":[[-80.20808477231358, 25.755352613674244],[-80.208091, 25.75536],[-80.2081919100395, 25.755481465788293]direction: "N","zip":33129,"OID":12836473,"id":1422538809,"street":"SW 26th Rd","miles":0.0111583125797024,"lanes":1,"tessellate":true}},
{"type":"Feature","geometry":{"type":"LineString","coordinates":[[-80.203592, 25.750686],[-80.203756, 25.750655],[-80.20382, 25.750651],[-80.203882, 25.750656],[-80.20394, 25.750666],[-80.203963, 25.750671],[-80.203988, 25.750677],[-80.204025, 25.750688],[-80.20407, 25.750711],[-80.204192, 25.750772]direction: "W","zip":33129,"OID":12839873,"id":1422546235,"street":"","miles":0.0425265273965932,"lanes":1,"tessellate":true}},
{"type":"Feature","geometry":{"type":"LineString","coordinates":[[-80.20426108108548, 25.750856182532072],[-80.2044069585162, 25.75103394944765],[-80.204407, 25.751034],[-80.204528, 25.751176],[-80.204599, 25.75123],[-80.204631, 25.751268],[-80.204686, 25.751335]direction: "N","zip":33129,"OID":12839890,"id":1422546279,"street":"SE 26th Rd","miles":0.0466763627166008,"lanes":2.679,"tessellate":true}},
{"type":"Feature","geometry":{"type":"LineString","coordinates":[[-80.20827008717772, 25.75544226781908],[-80.208318, 25.75541],[-80.208487, 25.755296],[-80.209068, 25.754905],[-80.209138, 25.754855],[-80.209549, 25.754565],[-80.209724, 25.754441],[-80.209995, 25.75425],[-80.210844, 25.753678],[-80.21103, 25.753549],[-80.211693, 25.75309],[-80.212499, 25.75253],[-80.212554, 25.752492]direction: "W","zip":33129,"OID":12847695,"id":1422562953,"street":"SW 3rd Ave","miles":0.336062523110389,"lanes":2.121,"tessellate":true}},
{"type":"Feature","geometry":{"type":"LineString","coordinates":[[-80.21974, 25.746482],[-80.21977944639407, 25.746585995038885]direction: "E","zip":33129,"OID":12848653,"id":1422565103,"street":"SW 3rd Ave","miles":0.00816804490130755,"lanes":1,"tessellate":true}},
{"type":"Feature","geometry":{"type":"LineString","coordinates":[[-80.20634866467165, 25.750269882234736],[-80.20640796172381, 25.75022303024291],[-80.206408, 25.750223],[-80.206521, 25.750072]direction: "W","zip":33129,"OID":12849933,"id":1422567823,"street":"S Miami Ave","miles":0.015276706485146,"lanes":2.073,"tessellate":true}},
{"type":"Feature","geometry":{"type":"LineString","coordinates":[[-80.20649533726876, 25.750087747585074],[-80.20629325356576, 25.750211753493737]direction: "E","zip":33129,"OID":12850227,"id":1422568426,"street":"S Miami Ave","miles":0.015276706485146,"lanes":2.008,"tessellate":true}},
{"type":"Feature","geometry":{"type":"LineString","coordinates":[[-80.204617, 25.752875],[-80.204487, 25.752931],[-80.204209, 25.753133],[-80.203352, 25.753809],[-80.202837, 25.754213],[-80.202568, 25.754427],[-80.202435, 25.754533],[-80.20225, 25.754732],[-80.20222, 25.754753],[-80.20192, 25.755019]direction: "E","zip":33129,"OID":12851710,"id":1422571523,"street":"","miles":0.225864721161838,"lanes":1.184,"tessellate":true}},
{"type":"Feature","geometry":{"type":"LineString","coordinates":[[-80.20407626908025, 25.751071365917564],[-80.204136, 25.75114],[-80.204318, 25.751294],[-80.204386, 25.751353],[-80.204449, 25.751406],[-80.204512, 25.75145],[-80.204576, 25.751491],[-80.204655, 25.751523],[-80.204746, 25.751546],[-80.204849, 25.751556],[-80.204935, 25.751557],[-80.205001, 25.751545],[-80.205075, 25.751528],[-80.205136, 25.751508],[-80.205206, 25.751472],[-80.206442, 25.750621],[-80.206578, 25.750536],[-80.206706, 25.75046],[-80.206839, 25.750402],[-80.206971, 25.750353],[-80.207112, 25.750309],[-80.207247, 25.750277],[-80.20739, 25.750253],[-80.207507, 25.75024],[-80.20777, 25.750225],[-80.208223, 25.750206],[-80.208286, 25.750204],[-80.208597, 25.750182]direction: "W","zip":33129,"OID":12852497,"id":1422573025,"street":"","miles":0.330534956150499,"lanes":1,"tessellate":true}},
{"type":"Feature","geometry":{"type":"LineString","coordinates":[[-80.21423949548327, 25.75900003916971],[-80.214129, 25.759001],[-80.214088, 25.759002],[-80.213988, 25.759005],[-80.21398796053246, 25.759004956021883]direction: "E","zip":33129,"OID":12854210,"id":1422576448,"street":"SW 15th St","miles":0.0162441524943123,"lanes":1,"tessellate":true}},
{"type":"Feature","geometry":{"type":"LineString","coordinates":[[-80.21428, 25.751118],[-80.214221, 25.751244],[-80.214187, 25.751354]direction: "N","zip":33129,"OID":12856920,"id":1422582694,"street":"SW 12th Ave","miles":0.026660822678568,"lanes":1.164,"tessellate":true}},
{"type":"Feature","geometry":{"type":"LineString","coordinates":[[-80.214244, 25.75902040804796],[-80.214244, 25.759],[-80.214241, 25.758532],[-80.214239, 25.757769],[-80.214234, 25.75761],[-80.214227, 25.757216],[-80.214224, 25.756992],[-80.214229, 25.756126],[-80.214221, 25.755418],[-80.214218, 25.755188],[-80.214213, 25.754709],[-80.214215, 25.754285],[-80.214212, 25.754019],[-80.214211, 25.753994],[-80.21421, 25.753661],[-80.21421, 25.753283],[-80.21419734735517, 25.753000123011955]direction: "S","zip":33129,"OID":12857048,"id":1422582975,"street":"SW 12th Ave","miles":0.415988334615409,"lanes":1.213,"tessellate":true}},
{"type":"Feature","geometry":{"type":"LineString","coordinates":[[-80.21987045558117, 25.74655746546983],[-80.21982918312527, 25.746451470298975]direction: "S","zip":33129,"OID":12858412,"id":1422586165,"street":"SW 3rd Ave","miles":0.00816804490130755,"lanes":2,"tessellate":true}},
{"type":"Feature","geometry":{"type":"LineString","coordinates":[[-80.204136, 25.75114],[-80.204266, 25.751325],[-80.204343, 25.751415],[-80.204673, 25.751807],[-80.204877, 25.75205],[-80.204933, 25.752125],[-80.204976, 25.752197],[-80.205009, 25.752279],[-80.205031, 25.752364],[-80.205039, 25.752446],[-80.205029, 25.75255],[-80.205002, 25.752643],[-80.20498, 25.752703],[-80.204935, 25.752768],[-80.204866, 25.752853],[-80.204791, 25.752911],[-80.204486, 25.753122],[-80.203726, 25.753649],[-80.202692, 25.754409],[-80.202461, 25.754576],[-80.20225, 25.754732]direction: "N","zip":33129,"OID":12860321,"id":1422590669,"street":"","miles":0.378983179879892,"lanes":1,"tessellate":true}},
{"type":"Feature","geometry":{"type":"LineString","coordinates":[[-80.211509, 25.74932],[-80.211453, 25.749273],[-80.211373, 25.749199],[-80.211287, 25.749115],[-80.211009, 25.748774],[-80.21066641139551, 25.74836588898481]direction: "S","zip":33129,"OID":12861519,"id":1422593425,"street":"SE 32nd Rd","miles":0.0848236909242989,"lanes":1,"tessellate":true}},
{"type":"Feature","geometry":{"type":"LineString","coordinates":[[-80.2144569255456, 25.751165766343235],[-80.214658, 25.751018],[-80.21468363805432, 25.751001138937244]direction: "W","zip":33129,"OID":12863764,"id":1422598272,"street":"SW 3rd Ave","miles":0.0180853970018764,"lanes":1.952,"tessellate":true}},
{"type":"Feature","geometry":{"type":"LineString","coordinates":[[-80.21953612722818, 25.746693804993875],[-80.219603, 25.746703],[-80.219662, 25.746724],[-80.219708, 25.746759],[-80.219741, 25.746803],[-80.219774, 25.746872],[-80.219759, 25.746948]direction: "W","zip":33129,"OID":12864763,"id":1422600714,"street":"","miles":0.0223548090145979,"lanes":1,"tessellate":true}},
{"type":"Feature","geometry":{"type":"LineString","coordinates":[[-80.21150733127598, 25.74932038000646],[-80.211206, 25.749389],[-80.210192, 25.749616],[-80.209575, 25.749752],[-80.209324, 25.749804],[-80.209054, 25.749853],[-80.208878, 25.749878],[-80.208686, 25.749902],[-80.20839127957404, 25.74992897441187],[-80.208391, 25.749929],[-80.207739, 25.749978],[-80.20746927825016, 25.74999855697962]direction: "E","zip":33129,"OID":12865246,"id":1422601800,"street":"S Federal Hwy","miles":0.256343116332075,"lanes":2.179,"tessellate":true}},
{"type":"Feature","geometry":{"type":"LineString","coordinates":[[-80.2057270732995, 25.752830902267323],[-80.205757, 25.752791],[-80.205781, 25.752732],[-80.205787, 25.752688],[-80.205784, 25.752649],[-80.20578, 25.752614],[-80.205762, 25.75256],[-80.20573013231545, 25.752507219147475]direction: "S","zip":33129,"OID":12866277,"id":1422604236,"street":"","miles":0.023233354124829,"lanes":3,"tessellate":true}},
{"type":"Feature","geometry":{"type":"LineString","coordinates":[[-80.21225, 25.749184],[-80.212052, 25.749287],[-80.211828, 25.749363],[-80.211732, 25.749392],[-80.211671, 25.749411],[-80.211467, 25.749465],[-80.211249, 25.749518],[-80.211129, 25.749544],[-80.21071, 25.749635],[-80.210443, 25.749695],[-80.210115, 25.749767],[-80.209772, 25.749843],[-80.209533, 25.749898],[-80.209359, 25.749946],[-80.209234, 25.749988],[-80.209086, 25.750045],[-80.208968, 25.750098],[-80.208874, 25.750148],[-80.208761, 25.750214],[-80.208625, 25.750303],[-80.208478, 25.750409],[-80.208127, 25.750682],[-80.207817, 25.750925],[-80.207512, 25.751159],[-80.207244, 25.751359],[-80.206967, 25.751558],[-80.206662, 25.751772],[-80.206271, 25.752042],[-80.205908, 25.752289],[-80.205294, 25.752712],[-80.204903, 25.752981],[-80.204571, 25.753211],[-80.204134, 25.753512],[-80.203729, 25.753791],[-80.203053, 25.754256],[-80.2025, 25.754638],[-80.202259, 25.754803],[-80.20192, 25.755019]direction: "N","zip":33129,"OID":12868640,"id":1422609644,"street":"I-95 N","miles":0.794143388950765,"lanes":2,"tessellate":true}},
{"type":"Feature","geometry":{"type":"LineString","coordinates":[[-80.192991, 25.757966],[-80.192864, 25.757882]direction: "E","zip":33129,"OID":12869568,"id":1422611833,"street":"Broadway","miles":0.00838136688143827,"lanes":1.158,"tessellate":true}},
{"type":"Feature","geometry":{"type":"LineString","coordinates":[[-80.192864, 25.757882],[-80.192782, 25.757992]direction: "E","zip":33129,"OID":12869586,"id":1422611877,"street":"Brickell Ave","miles":0.010036836942492,"lanes":2.111,"tessellate":true}},
{"type":"Feature","geometry":{"type":"LineString","coordinates":[[-80.192782, 25.757992],[-80.192912, 25.758075]direction: "N","zip":33129,"OID":12869601,"id":1422611907,"street":"SE 15th Rd","miles":0.00889682937121603,"lanes":1.285,"tessellate":true}},
{"type":"Feature","geometry":{"type":"LineString","coordinates":[[-80.20191381593214, 25.75502326428855],[-80.201556, 25.75527],[-80.201252, 25.755478],[-80.201041, 25.755628],[-80.200903, 25.755733],[-80.200781, 25.755834],[-80.200669, 25.755941],[-80.200574, 25.756042],[-80.200513, 25.756109],[-80.20037, 25.756287],[-80.20026, 25.756438],[-80.200157, 25.756605],[-80.200089, 25.756727],[-80.200026, 25.756853],[-80.19997, 25.756985],[-80.199916, 25.757126],[-80.199846, 25.757349],[-80.199809, 25.757507],[-80.199778, 25.757659],[-80.19977, 25.757726],[-80.199757, 25.757847],[-80.199744, 25.758063],[-80.199656, 25.760726],[-80.199654, 25.760846],[-80.199629, 25.761534],[-80.199606, 25.762287],[-80.199608, 25.762531],[-80.19960875007715, 25.762570004011874]direction: "N","zip":33129,"OID":12871060,"id":1422615085,"street":"I-95 N","miles":0.572918930628661,"lanes":2.876,"tessellate":true}},
{"type":"Feature","geometry":{"type":"LineString","coordinates":[[-80.20204425628988, 25.755113165654812],[-80.202476, 25.754817],[-80.202727, 25.754622],[-80.202931, 25.754482],[-80.203216, 25.754286],[-80.20391, 25.753807],[-80.204318, 25.753524],[-80.204644, 25.7533],[-80.205104, 25.752984],[-80.205676, 25.752591],[-80.205983, 25.752378],[-80.206627, 25.751936],[-80.207006, 25.751682],[-80.207205, 25.751549],[-80.207406, 25.751412],[-80.207711, 25.751209],[-80.207984, 25.751028],[-80.208259, 25.750843],[-80.208415, 25.750741],[-80.208571, 25.750646],[-80.208718, 25.750562],[-80.20886, 25.750484],[-80.209011, 25.750407],[-80.209158, 25.750337],[-80.20926, 25.750289],[-80.209384, 25.750235],[-80.209617, 25.750141],[-80.209754, 25.750089],[-80.209884, 25.750042],[-80.210081, 25.749959]direction: "S","zip":33129,"OID":12871456,"id":1422615861,"street":"I-95 S","miles":0.627296163198974,"lanes":2,"tessellate":true}},
{"type":"Feature","geometry":{"type":"LineString","coordinates":[[-80.202476, 25.754817],[-80.202778, 25.754692],[-80.202996, 25.754564],[-80.203236, 25.754428],[-80.203441, 25.754317],[-80.203639, 25.754209],[-80.20382, 25.754106],[-80.20400361942345, 25.753994155075404]direction: "W","zip":33129,"OID":12871475,"id":1422615891,"street":"1A","miles":0.14429664892465,"lanes":2,"tessellate":true}},
{"type":"Feature","geometry":{"type":"LineString","coordinates":[[-80.20251851371506, 25.749058710901064],[-80.202829, 25.749355],[-80.20308561936739, 25.74956568749618],[-80.203086, 25.749566],[-80.203261, 25.749709],[-80.203481, 25.749944],[-80.203533, 25.750002],[-80.20363683453743, 25.750122145709984]direction: "W","zip":33129,"OID":12872820,"id":1422618706,"street":"SE 26th Rd","miles":0.101882238751387,"lanes":2.171,"tessellate":true}},
{"type":"Feature","geometry":{"type":"LineString","coordinates":[[-80.20274314302821, 25.74860804976866],[-80.202724, 25.748585],[-80.202609, 25.748455],[-80.20219130091982, 25.748102254126064],[-80.202191, 25.748102],[-80.201693, 25.747656],[-80.201238, 25.747308],[-80.200615, 25.746938],[-80.200017, 25.746635],[-80.199786, 25.746539],[-80.199286, 25.746361],[-80.198855, 25.746219],[-80.198471, 25.746116],[-80.198124, 25.746035],[-80.197767, 25.745972],[-80.197384, 25.745922],[-80.197358, 25.745919],[-80.19728, 25.745908],[-80.196973, 25.745886],[-80.196602, 25.745871],[-80.196234, 25.74587],[-80.19488, 25.745892],[-80.194449, 25.745913],[-80.194212, 25.745934],[-80.194198, 25.745936],[-80.193965, 25.745955],[-80.193606, 25.745996],[-80.19339694909723, 25.746025314503363]direction: "E","zip":33129,"OID":12872853,"id":1422618774,"street":"Rickenbacker Cswy","miles":0.637861447369313,"lanes":3.165,"tessellate":true}},
{"type":"Feature","geometry":{"type":"LineString","coordinates":[[-80.19339694909723, 25.746025314503363],[-80.19290051480301, 25.74609492781091],[-80.1929, 25.746095],[-80.192072, 25.746195],[-80.191445, 25.746257],[-80.190664, 25.746303],[-80.189921, 25.74632],[-80.18315900858423, 25.74641663504936]direction: "E","zip":33129,"OID":12872872,"id":1422618817,"street":"Rickenbacker Cswy","miles":0.638518253479138,"lanes":2.653,"tessellate":true}},
{"type":"Feature","geometry":{"type":"LineString","coordinates":[[-80.203533, 25.750002],[-80.203573, 25.750103],[-80.203639, 25.750198],[-80.203658, 25.750263],[-80.203657, 25.750313],[-80.203647, 25.750366],[-80.203617, 25.750433],[-80.203525, 25.750555]direction: "N","zip":33129,"OID":12873966,"id":1422620984,"street":"","miles":0.0285500678168099,"lanes":1,"tessellate":true}},
{"type":"Feature","geometry":{"type":"LineString","coordinates":[[-80.20078066543506, 25.762477348964097],[-80.200919, 25.762391],[-80.20092043537954, 25.762390106874953]direction: "S","zip":33129,"OID":12873973,"id":1422621002,"street":"SW 4th Ave","miles":0.0106384371038667,"lanes":1,"tessellate":true}},
{"type":"Feature","geometry":{"type":"LineString","coordinates":[[-80.20091994244102, 25.762390413592254],[-80.200919, 25.762391],[-80.20078009093174, 25.762477707571268]direction: "N","zip":33129,"OID":12873992,"id":1422621044,"street":"SW 4th Ave","miles":0.0106384371038667,"lanes":1,"tessellate":true}},
{"type":"Feature","geometry":{"type":"LineString","coordinates":[[-80.194071, 25.758586],[-80.193956, 25.758528],[-80.193805, 25.758443],[-80.193578, 25.758316],[-80.193327, 25.758165],[-80.193062, 25.758006],[-80.192991, 25.757966]direction: "E","zip":33129,"OID":12877543,"id":1422628512,"street":"Broadway","miles":0.0832984640994051,"lanes":1.158,"tessellate":true}},
{"type":"Feature","geometry":{"type":"LineString","coordinates":[[-80.20404354409631, 25.750349108374486],[-80.20388106693812, 25.75040297780661]direction: "E","zip":33129,"OID":12879567,"id":1422632899,"street":"US-1 N","miles":0.0107856555513348,"lanes":2.111,"tessellate":true}},
{"type":"Feature","geometry":{"type":"LineString","coordinates":[[-80.204803, 25.751255],[-80.204754, 25.751185],[-80.204595, 25.750992],[-80.204478, 25.75085],[-80.204466, 25.750837],[-80.204401, 25.750758]direction: "S","zip":33129,"OID":12880756,"id":1422635569,"street":"SE 26th Rd","miles":0.0466763627166008,"lanes":3.678,"tessellate":true}},
{"type":"Feature","geometry":{"type":"LineString","coordinates":[[-80.21419733127811, 25.752999763574866],[-80.21421, 25.753283],[-80.21421, 25.753661],[-80.214211, 25.753994],[-80.214212, 25.754019],[-80.214215, 25.754285],[-80.214213, 25.754709],[-80.214218, 25.755188],[-80.214221, 25.755418],[-80.214229, 25.756126],[-80.214224, 25.756992],[-80.214227, 25.757216],[-80.214234, 25.75761],[-80.214239, 25.757769],[-80.214241, 25.758532],[-80.214244, 25.759],[-80.214244, 25.75902040804796]direction: "N","zip":33129,"OID":12881860,"id":1422637816,"street":"SW 12th Ave","miles":0.415988334615409,"lanes":1.164,"tessellate":true}},
{"type":"Feature","geometry":{"type":"LineString","coordinates":[[-80.202326, 25.748875],[-80.202739, 25.749504],[-80.203237, 25.750107],[-80.20409561076768, 25.75109359057064]direction: "N","zip":33129,"OID":12882617,"id":1422639319,"street":"","miles":0.170965298475764,"lanes":2,"tessellate":true}},
{"type":"Feature","geometry":{"type":"LineString","coordinates":[[-80.205011, 25.753327],[-80.205696, 25.752859],[-80.205727, 25.752831],[-80.205756919602, 25.752791107197353]direction: "W","zip":33129,"OID":12883098,"id":1422640322,"street":"","miles":0.0571711487391963,"lanes":3,"tessellate":true}},
{"type":"Feature","geometry":{"type":"LineString","coordinates":[[-80.20566947864918, 25.752439470913828],[-80.20563536091743, 25.75240140270786],[-80.205635, 25.752401],[-80.205528, 25.752269],[-80.205379, 25.752095],[-80.205351, 25.752059],[-80.20529, 25.751974],[-80.205254, 25.751925],[-80.205113, 25.751729],[-80.205034, 25.751613],[-80.204927, 25.751453],[-80.204866, 25.751355]direction: "S","zip":33129,"OID":12884378,"id":1422643071,"street":"SW 26th Rd","miles":0.0940817753815244,"lanes":3.80349999999999,"tessellate":true}},
{"type":"Feature","geometry":{"type":"LineString","coordinates":[[-80.2064890876201, 25.750074681712597],[-80.205331, 25.750172],[-80.20497, 25.750191],[-80.204725, 25.75021],[-80.204483, 25.750243]direction: "E","zip":33129,"OID":12888766,"id":1422652479,"street":"US-1 N","miles":0.126199781833054,"lanes":2.179,"tessellate":true}},
{"type":"Feature","geometry":{"type":"LineString","coordinates":[[-80.20877942004455, 25.750185701276266],[-80.208942, 25.750189],[-80.209086, 25.750176],[-80.20923, 25.750149],[-80.209511, 25.750073],[-80.209683, 25.750028],[-80.209857, 25.749983],[-80.21008032109381, 25.749959072739948],[-80.210081, 25.749959],[-80.210252, 25.74991],[-80.21025955892915, 25.74990803356271]direction: "S","zip":33129,"OID":12891846,"id":1422659317,"street":"S Dixie Hwy","miles":0.0941504963654315,"lanes":1.266,"tessellate":true}},
{"type":"Feature","geometry":{"type":"LineString","coordinates":[[-80.203881, 25.750403],[-80.203805, 25.75043],[-80.203669, 25.750485],[-80.20359908457212, 25.75051898666633]direction: "E","zip":33129,"OID":12893173,"id":1422661799,"street":"Brickell Ave","miles":0.0192969729315738,"lanes":2.111,"tessellate":true}},
{"type":"Feature","geometry":{"type":"LineString","coordinates":[[-80.2052961755761, 25.752440057954598],[-80.205256, 25.752462],[-80.204765, 25.752799],[-80.204736, 25.752819],[-80.20462699427783, 25.752870296810432]direction: "E","zip":33129,"OID":12899908,"id":1422676231,"street":"","miles":0.0510025266663116,"lanes":1.184,"tessellate":true}},
{"type":"Feature","geometry":{"type":"LineString","coordinates":[[-80.20670102480739, 25.750196940481555],[-80.20742, 25.750133],[-80.207714, 25.750104],[-80.207824, 25.7501],[-80.207934, 25.750103],[-80.208095, 25.750112],[-80.208284, 25.75013],[-80.208597, 25.750182],[-80.20877942004455, 25.750185701276266]direction: "S","zip":33129,"OID":12903045,"id":1422682661,"street":"S Dixie Hwy","miles":0.130021654126904,"lanes":1.38,"tessellate":true}},
{"type":"Feature","geometry":{"type":"LineString","coordinates":[[-80.20491009075654, 25.75166007212692],[-80.204956, 25.751748],[-80.204999, 25.751806],[-80.205104, 25.75195],[-80.205243, 25.752134],[-80.205273, 25.752183],[-80.205297, 25.75223],[-80.205304, 25.752271],[-80.205305, 25.752309],[-80.2053, 25.752343],[-80.205294, 25.752371],[-80.205283, 25.752401],[-80.205256, 25.752462]direction: "N","zip":33129,"OID":12907307,"id":1422691466,"street":"","miles":0.0595096675022058,"lanes":1.297,"tessellate":true}},
{"type":"Feature","geometry":{"type":"LineString","coordinates":[[-80.20405259973236, 25.75048568822178],[-80.20415084938854, 25.750454048501997],[-80.204151, 25.750454],[-80.204294, 25.750421],[-80.204368, 25.750403],[-80.204458, 25.750384],[-80.204536, 25.75037],[-80.204608, 25.75036],[-80.204706, 25.75035],[-80.204816, 25.750341],[-80.204934, 25.750331],[-80.205182, 25.750314],[-80.205317, 25.750304],[-80.205401, 25.750298],[-80.205962, 25.750255],[-80.206163, 25.750242],[-80.206257, 25.750234],[-80.20630069032099, 25.750230817261382]direction: "S","zip":33129,"OID":12910774,"id":1422698338,"street":"US-1 S","miles":0.141545505594981,"lanes":2.919,"tessellate":true}},
{"type":"Feature","geometry":{"type":"LineString","coordinates":[[-80.19936242036549, 25.761571346754646],[-80.19952, 25.761458],[-80.199681, 25.761363],[-80.199933, 25.761185],[-80.200387, 25.760865],[-80.200731, 25.760623],[-80.201104, 25.760384],[-80.20121, 25.760312],[-80.20157, 25.760065],[-80.202223, 25.759607],[-80.202378, 25.759497],[-80.202585, 25.759357],[-80.202858, 25.759173],[-80.203204, 25.75893],[-80.203347, 25.758832],[-80.203513, 25.758718],[-80.204024, 25.758366],[-80.204344, 25.758144],[-80.204847, 25.757796],[-80.20565, 25.757253],[-80.205706, 25.757215],[-80.205887, 25.757091],[-80.206475, 25.75669],[-80.20654, 25.756644],[-80.206926, 25.756373],[-80.207219, 25.756167],[-80.207282, 25.756123],[-80.20728765888073, 25.75611907736677]direction: "W","zip":33129,"OID":12916406,"id":1422709475,"street":"SW 3rd Ave","miles":0.620949653995868,"lanes":2.04033333333333,"tessellate":true}},
{"type":"Feature","geometry":{"type":"LineString","coordinates":[[-80.20716192064596, 25.75599235535811],[-80.207101, 25.756036],[-80.206432, 25.756516],[-80.206368, 25.756562],[-80.206215, 25.756656],[-80.206087, 25.756743],[-80.206036, 25.756778],[-80.205597, 25.757089],[-80.205544, 25.757126],[-80.20534, 25.757254],[-80.204973, 25.75751],[-80.204924, 25.757543],[-80.204745, 25.757668],[-80.204323, 25.757955],[-80.204068, 25.758129],[-80.203915, 25.758233],[-80.203297, 25.75866],[-80.203101, 25.758796],[-80.20275017774031, 25.759040875936243],[-80.20275, 25.759041],[-80.202274, 25.759371],[-80.20214, 25.759449],[-80.201457, 25.75993],[-80.20119, 25.760116],[-80.200991, 25.760255],[-80.200634, 25.760502],[-80.200536, 25.760569],[-80.199861, 25.761032],[-80.1996608883164, 25.761172352304115]direction: "E","zip":33129,"OID":12917822,"id":1422712375,"street":"SW 3rd Ave","miles":0.588355808893119,"lanes":2.047,"tessellate":true}}
]}